{"type":"FeatureCollection","features":[{"type":"Feature","properties":{},"geometry":{"type":"Polygon","coordinates":[[[98.2034,13.9543],[98.2057,13.9513],[98.2074,13.9469],[98.2078,13.9362],[98.211,13.9286],[98.2131,13.9183],[98.2154,13.9105],[98.216,13.9024],[98.2154,13.8864],[98.2148,13.8842],[98.2078,13.8745],[98.2023,13.863],[98.1974,13.8545],[98.192,13.8392],[98.1899,13.8365],[98.1807,13.8181],[98.1786,13.8156],[98.1733,13.7974],[98.171,13.7726],[98.1711,13.7597],[98.1715,13.7528],[98.1724,13.7498],[98.172,13.7489],[98.173,13.7479],[98.1749,13.7384],[98.1772,13.7328],[98.1796,13.7206],[98.1803,13.7195],[98.1815,13.7195],[98.1804,13.7176],[98.1793,13.7172],[98.1787,13.7156],[98.1794,13.7133],[98.179,13.707],[98.1801,13.7025],[98.1816,13.6996],[98.1814,13.6984],[98.1804,13.6976],[98.1793,13.6978],[98.1786,13.6987],[98.1787,13.6955],[98.1803,13.6948],[98.181,13.692],[98.1823,13.6903],[98.1877,13.6858],[98.1853,13.6819],[98.1862,13.6784],[98.1859,13.6722],[98.1835,13.6705],[98.1822,13.668],[98.1843,13.6616],[98.1841,13.6571],[98.1849,13.6515],[98.184,13.6489],[98.1747,13.6401],[98.17,13.6388],[98.1692,13.6392],[98.1686,13.6408],[98.164,13.638],[98.1634,13.6346],[98.1652,13.6315],[98.1639,13.626],[98.1625,13.6243],[98.1603,13.6252],[98.1552,13.6194],[98.1569,13.6177],[98.1567,13.6115],[98.1553,13.6078],[98.1524,13.6055],[98.1513,13.6033],[98.1526,13.5962],[98.1534,13.5949],[98.1537,13.5898],[98.1534,13.5876],[98.152,13.5849],[98.1518,13.5815],[98.1523,13.5788],[98.1546,13.5755],[98.1556,13.5763],[98.1598,13.572],[98.1603,13.5672],[98.1597,13.5634],[98.1603,13.5619],[98.1625,13.5615],[98.1648,13.5594],[98.1661,13.5598],[98.1677,13.5593],[98.1716,13.5556],[98.1738,13.5545],[98.1754,13.5508],[98.1754,13.5476],[98.1722,13.5414],[98.1696,13.5394],[98.1683,13.536],[98.1631,13.5363],[98.1593,13.5382],[98.1601,13.5405],[98.1605,13.546],[98.1599,13.5485],[98.1585,13.5508],[98.1601,13.5537],[98.1564,13.5574],[98.153,13.5587],[98.1458,13.56],[98.1371,13.5591],[98.1335,13.5564],[98.1341,13.554],[98.1325,13.55],[98.1349,13.547],[98.1341,13.5446],[98.1264,13.5489],[98.1254,13.5507],[98.1229,13.5523],[98.1223,13.5531],[98.1227,13.5542],[98.1238,13.5549],[98.1245,13.5567],[98.1277,13.558],[98.1279,13.5588],[98.1267,13.5599],[98.1268,13.5608],[98.13,13.5617],[98.132,13.5649],[98.1313,13.5667],[98.1294,13.5672],[98.1303,13.5704],[98.13,13.5717],[98.1273,13.5716],[98.1263,13.5728],[98.1271,13.5758],[98.1262,13.5774],[98.1269,13.5817],[98.1263,13.5831],[98.1243,13.5831],[98.1236,13.5857],[98.1251,13.5874],[98.1234,13.5897],[98.1195,13.5902],[98.1169,13.5929],[98.1229,13.5967],[98.1246,13.5969],[98.1257,13.6003],[98.1274,13.599],[98.1297,13.5996],[98.1307,13.6017],[98.1302,13.6035],[98.1311,13.6051],[98.1324,13.6049],[98.1331,13.6025],[98.1349,13.602],[98.136,13.6007],[98.1409,13.6043],[98.1379,13.6033],[98.1368,13.6041],[98.1359,13.6072],[98.1382,13.6088],[98.1397,13.6106],[98.139,13.6151],[98.1373,13.6172],[98.1355,13.6161],[98.1344,13.6163],[98.1345,13.6197],[98.1333,13.6226],[98.1336,13.6246],[98.128,13.6294],[98.1291,13.6308],[98.1292,13.6325],[98.1276,13.6345],[98.1292,13.6354],[98.1302,13.635],[98.1307,13.6317],[98.1323,13.631],[98.139,13.6316],[98.1428,13.6359],[98.1444,13.6348],[98.1462,13.6352],[98.1477,13.639],[98.1481,13.6422],[98.148,13.6464],[98.1472,13.6479],[98.1484,13.649],[98.1514,13.6489],[98.1509,13.6545],[98.1479,13.6642],[98.1449,13.6706],[98.1404,13.6777],[98.1287,13.6881],[98.1232,13.6914],[98.1199,13.6924],[98.115,13.6927],[98.1132,13.6922],[98.1118,13.69],[98.112,13.6856],[98.1114,13.684],[98.1092,13.6816],[98.1079,13.678],[98.1067,13.6778],[98.1059,13.6784],[98.1047,13.6813],[98.1051,13.6823],[98.1046,13.6854],[98.1058,13.6879],[98.1094,13.689],[98.1095,13.6916],[98.1087,13.6937],[98.1051,13.6981],[98.1036,13.699],[98.1014,13.6989],[98.0996,13.6965],[98.0981,13.6965],[98.0968,13.6976],[98.0963,13.6989],[98.0969,13.7017],[98.0951,13.7041],[98.0935,13.7084],[98.0958,13.7106],[98.0956,13.7124],[98.0939,13.7132],[98.0902,13.7131],[98.0883,13.7149],[98.0888,13.7155],[98.0942,13.7161],[98.0972,13.7174],[98.1011,13.7177],[98.1028,13.7165],[98.1041,13.7168],[98.1055,13.7191],[98.1049,13.7242],[98.1044,13.7251],[98.1019,13.7265],[98.0976,13.7236],[98.0954,13.7239],[98.093,13.7226],[98.0902,13.7229],[98.0854,13.7218],[98.0816,13.7225],[98.0814,13.7235],[98.0836,13.7258],[98.0849,13.726],[98.0871,13.725],[98.0886,13.7265],[98.0884,13.7287],[98.0864,13.7299],[98.0857,13.7318],[98.0887,13.7333],[98.0893,13.7354],[98.0879,13.7369],[98.0851,13.7381],[98.0854,13.7412],[98.0833,13.7426],[98.0838,13.7451],[98.0822,13.7456],[98.0802,13.7443],[98.0788,13.7447],[98.0787,13.7497],[98.0765,13.7518],[98.0779,13.7537],[98.0781,13.7562],[98.0772,13.7576],[98.0752,13.7587],[98.0733,13.7571],[98.0702,13.7575],[98.068,13.7571],[98.0667,13.7595],[98.0668,13.7608],[98.0663,13.7614],[98.0712,13.7608],[98.0722,13.7613],[98.073,13.7635],[98.0725,13.7653],[98.0713,13.7657],[98.0662,13.7656],[98.0669,13.7674],[98.0681,13.7684],[98.068,13.7717],[98.0721,13.7721],[98.0768,13.7755],[98.0746,13.7781],[98.0751,13.7809],[98.0723,13.7842],[98.0714,13.7875],[98.0688,13.7886],[98.0671,13.7908],[98.0679,13.7917],[98.0699,13.7922],[98.0704,13.794],[98.0765,13.7986],[98.0771,13.8022],[98.0783,13.8051],[98.086,13.8022],[98.0894,13.7997],[98.0953,13.7981],[98.0977,13.7984],[98.0986,13.8],[98.0986,13.8015],[98.0954,13.8068],[98.0927,13.8094],[98.0896,13.8106],[98.0883,13.8127],[98.0889,13.8144],[98.091,13.8166],[98.0911,13.8253],[98.0925,13.8281],[98.0914,13.8318],[98.0866,13.8363],[98.0877,13.839],[98.0873,13.8421],[98.0884,13.8448],[98.0874,13.8493],[98.0886,13.8544],[98.0917,13.8561],[98.0924,13.8574],[98.0907,13.8608],[98.0889,13.8618],[98.0864,13.8646],[98.0894,13.8655],[98.09,13.8683],[98.0919,13.8694],[98.0938,13.869],[98.0947,13.8698],[98.0954,13.8783],[98.094,13.8801],[98.0938,13.8813],[98.0951,13.8827],[98.0948,13.8848],[98.0983,13.8873],[98.0984,13.8897],[98.0974,13.8923],[98.0946,13.896],[98.0844,13.9065],[98.0766,13.9126],[98.0727,13.9135],[98.0739,13.9146],[98.074,13.9167],[98.0718,13.9224],[98.0738,13.9239],[98.0759,13.9233],[98.0772,13.9244],[98.0777,13.9302],[98.0763,13.9328],[98.0771,13.9341],[98.0775,13.9374],[98.0754,13.9402],[98.0736,13.9409],[98.0725,13.9407],[98.0724,13.9394],[98.0697,13.9388],[98.0691,13.9392],[98.0696,13.9413],[98.0711,13.9426],[98.0713,13.9458],[98.0725,13.9471],[98.0719,13.949],[98.0688,13.9519],[98.0691,13.9543],[98.2034,13.9543]]]}}]}