{"type":"FeatureCollection","features":[{"type":"Feature","properties":{"nmEng":"Lenya-Mandai Bridge","nmMya":"လေညာ-မဏ္ဍိုင်တံတား","length_ft":680,"nmTsEng":"Bokpyin"},"geometry":{"type":"Point","coordinates":[98.99249,11.44941]}},{"type":"Feature","properties":{"nmEng":"Pauk Taing Bridge","nmMya":"ပေါက်တိုင်းတံတား","length_ft":320,"nmTsEng":"Dawei"},"geometry":{"type":"Point","coordinates":[98.21795,14.07022]}},{"type":"Feature","properties":{"nmEng":"Shwe Gu Taung Bridge","nmMya":"ရွှေဂူတောင်တံတား","length_ft":222,"nmTsEng":"Dawei"},"geometry":{"type":"Point","coordinates":[98.22863,14.00103]}},{"type":"Feature","properties":{"nmEng":"Ka Myaw Kin Bridge","nmMya":"ကမြောကင်းတံတား","length_ft":1100,"nmTsEng":"Dawei"},"geometry":{"type":"Point","coordinates":[98.17444,14.09488]}},{"type":"Feature","properties":{"length_ft":0,"nmTsEng":"Dawei"},"geometry":{"type":"Point","coordinates":[98.31866,14.12278]}},{"type":"Feature","properties":{"length_ft":0,"nmTsEng":"Dawei"},"geometry":{"type":"Point","coordinates":[98.2099,14.14415]}},{"type":"Feature","properties":{"nmEng":"Yae Waing Bridge","nmMya":"ရေဝိုင်းတံတား","length_ft":180,"nmTsEng":"Dawei"},"geometry":{"type":"Point","coordinates":[98.28818,14.17401]}},{"type":"Feature","properties":{"nmEng":"Palaw Bridge","nmMya":"ပုလောတံတား","length_ft":600,"nmTsEng":"Palaw"},"geometry":{"type":"Point","coordinates":[98.64587,12.98131]}},{"type":"Feature","properties":{"nmEng":"Kye Bridge","nmMya":"ကြဲတံတား","length_ft":300,"nmTsEng":"Palaw"},"geometry":{"type":"Point","coordinates":[98.72375,12.79008]}},{"type":"Feature","properties":{"nmEng":"Palauk Bridge","nmMya":"ပလောက်တံတား","length_ft":500,"nmTsEng":"Palaw"},"geometry":{"type":"Point","coordinates":[98.6207,13.27382]}},{"type":"Feature","properties":{"nmEng":"Pyi Char Bridge","nmMya":"ပြည်ခြားတံတား","length_ft":360,"nmTsEng":"Palaw"},"geometry":{"type":"Point","coordinates":[98.63399,13.19841]}},{"type":"Feature","properties":{"nmEng":"Tanintharyi Bridge","nmMya":"တနင်္သာရီတံတား","length_ft":1360,"nmTsEng":"Tanintharyi"},"geometry":{"type":"Point","coordinates":[99.00527,12.0859]}},{"type":"Feature","properties":{"nmEng":"Baw Di Kan Bridge","nmMya":"ဗောဓိကမ်းတံတား","length_ft":0,"nmTsEng":"Tanintharyi"},"geometry":{"type":"Point","coordinates":[99.02047,12.08604]}},{"type":"Feature","properties":{"nmEng":"Nyaung Pin Kwin Bridge","nmMya":"ညောင်ပင်ကွင်းတံတား","length_ft":360,"nmTsEng":"Tanintharyi"},"geometry":{"type":"Point","coordinates":[99.10581,12.045]}},{"type":"Feature","properties":{"nmEng":"Chaung Hnit Pauk Bridge","nmMya":"ချောင်းနှစ်ပေါက်တံတား","length_ft":240,"nmTsEng":"Tanintharyi"},"geometry":{"type":"Point","coordinates":[99.11987,11.90327]}},{"type":"Feature","properties":{"nmEng":"Win Wa Bridge","nmMya":"ဝင်းဝတံတား","length_ft":620,"nmTsEng":"Thayetchaung"},"geometry":{"type":"Point","coordinates":[98.3784,13.68253]}},{"type":"Feature","properties":{"nmEng":"Pe Det Bridge","nmMya":"ပဲဒက်တံတား","length_ft":300,"nmTsEng":"Thayetchaung"},"geometry":{"type":"Point","coordinates":[98.51311,13.44169]}},{"type":"Feature","properties":{"length_ft":0,"nmTsEng":"Thayetchaung"},"geometry":{"type":"Point","coordinates":[98.28061,13.82251]}},{"type":"Feature","properties":{"length_ft":0,"nmTsEng":"Thayetchaung"},"geometry":{"type":"Point","coordinates":[98.32224,13.76063]}},{"type":"Feature","properties":{"nmEng":"Bridge No. (1/59)","nmMya":"တံတားအမှတ်(၁/၅၉)","length_ft":180,"nmTsEng":"Thayetchaung"},"geometry":{"type":"Point","coordinates":[98.4932,13.46252]}},{"type":"Feature","properties":{"nmEng":"Ta Laing Yar Chaung Bridge","nmMya":"တလိုင်းယာချောင်းတံတား","length_ft":238,"nmTsEng":"Yebyu"},"geometry":{"type":"Point","coordinates":[98.19841,14.30546]}},{"type":"Feature","properties":{"length_ft":0,"nmTsEng":"Yebyu"},"geometry":{"type":"Point","coordinates":[98.18948,14.29231]}},{"type":"Feature","properties":{"nmEng":"Yebyu River Cross Bridge","nmMya":"ရေဖြူမြစ်ကူးတံတား","length_ft":680,"nmTsEng":"Yebyu"},"geometry":{"type":"Point","coordinates":[98.20199,14.23978]}},{"type":"Feature","properties":{"nmEng":"Kaleinaung River Cross Bridge","nmMya":"ကလိန်အောင်မြစ်ကူးတံတား","length_ft":660,"nmTsEng":"Yebyu"},"geometry":{"type":"Point","coordinates":[98.13439,14.62403]}},{"type":"Feature","properties":{"nmEng":"Hein Ze Bridge","nmMya":"ဟိန္ဇဲတံတား","length_ft":180,"nmTsEng":"Yebyu"},"geometry":{"type":"Point","coordinates":[98.18471,14.50816]}},{"type":"Feature","properties":{"length_ft":0,"nmTsEng":"Yebyu"},"geometry":{"type":"Point","coordinates":[98.13871,14.7057]}},{"type":"Feature","properties":{"length_ft":0,"nmTsEng":"Yebyu"},"geometry":{"type":"Point","coordinates":[98.22105,14.74075]}},{"type":"Feature","properties":{"nmEng":"Yae Pone Bridge","nmMya":"ရေပုံးတံတား","length_ft":200,"nmTsEng":"Yebyu"},"geometry":{"type":"Point","coordinates":[98.18283,14.5477]}}]}