{"type":"FeatureCollection","features":[{"type":"Feature","properties":{"TS":"Kyainseikgyi","DT":"Kawkareik","ST":"Kayin"},"geometry":{"type":"Polygon","coordinates":[[[98.5648,15.6393],[98.5532,15.5999],[98.5863,15.4701],[98.5808,15.3804],[98.5614,15.336],[98.5474,15.3378],[98.5462,15.363],[98.5296,15.3717],[98.5106,15.3744],[98.506,15.3827],[98.4932,15.3917],[98.4838,15.3903],[98.4807,15.3837],[98.4569,15.3662],[98.4397,15.3633],[98.4337,15.3581],[98.4309,15.3637],[98.4161,15.3643],[98.4111,15.3531],[98.4092,15.3317],[98.4148,15.3262],[98.4148,15.322],[98.4108,15.3198],[98.4015,15.3216],[98.3872,15.3048],[98.4026,15.3074],[98.4066,15.3047],[98.4141,15.2932],[98.4115,15.2876],[98.4176,15.2665],[98.4158,15.2615],[98.4107,15.2626],[98.4013,15.2538],[98.398,15.2621],[98.3892,15.2705],[98.3805,15.2714],[98.3742,15.2835],[98.3667,15.2829],[98.3605,15.2898],[98.3537,15.292],[98.3536,15.2981],[98.3438,15.2953],[98.3337,15.2974],[98.3209,15.3022],[98.3057,15.3133],[98.3041,15.3108],[98.3002,15.3134],[98.2959,15.3088],[98.3006,15.3034],[98.2938,15.2968],[98.2983,15.2936],[98.3039,15.2802],[98.2999,15.2793],[98.2958,15.2726],[98.2816,15.2718],[98.2791,15.2682],[98.2814,15.2629],[98.2753,15.2559],[98.2739,15.248],[98.2635,15.2386],[98.2473,15.2392],[98.2328,15.2354],[98.23,15.2307],[98.2328,15.2236],[98.2289,15.2206],[98.2218,15.2233],[98.2128,15.2367],[98.2025,15.2356],[98.205,15.2614],[98.195,15.2804],[98.1836,15.294],[98.1842,15.3086],[98.1569,15.3305],[98.1431,15.3292],[98.134,15.3352],[98.1341,15.3482],[98.1195,15.3674],[98.112,15.3903],[98.1012,15.3983],[98.0905,15.421],[98.0673,15.4388],[98.0713,15.4444],[98.0673,15.4566],[98.0599,15.4621],[98.0574,15.4766],[98.049,15.4874],[98.0472,15.4982],[98.0381,15.5135],[98.0083,15.5389],[98.002,15.5604],[97.9778,15.591],[97.9677,15.5916],[97.9482,15.6089],[97.9477,15.6456],[97.9441,15.6489],[97.9322,15.6478],[97.9267,15.638],[97.9223,15.6371],[97.9126,15.6493],[98.5602,15.65],[98.5648,15.6393]]]}},{"type":"Feature","properties":{"TS":"Ye","DT":"Mawlamyine","ST":"Mon"},"geometry":{"type":"MultiPolygon","coordinates":[[[[97.7421,15.0823],[97.7325,15.0562],[97.732,15.0627],[97.7262,15.0647],[97.7389,15.0781],[97.7371,15.0965],[97.74,15.0979],[97.7421,15.0823]]],[[[97.7354,15.1921],[97.7303,15.1953],[97.7294,15.2018],[97.7348,15.2102],[97.7389,15.2035],[97.7329,15.1971],[97.7354,15.1921]]],[[[97.7125,15.3012],[97.7086,15.2984],[97.7049,15.3003],[97.7016,15.3086],[97.7125,15.3012]]],[[[97.6539,15.578],[97.6561,15.5794],[97.6604,15.5678],[97.6559,15.5592],[97.6563,15.5484],[97.6608,15.5439],[97.6584,15.5386],[97.6629,15.5263],[97.6616,15.515],[97.6581,15.5115],[97.6602,15.5056],[97.655,15.497],[97.6533,15.4999],[97.6564,15.5046],[97.6527,15.5106],[97.6579,15.5142],[97.6549,15.5287],[97.6571,15.5317],[97.6494,15.5408],[97.6432,15.5889],[97.6539,15.578]]],[[[97.9126,15.6493],[97.9223,15.6371],[97.9267,15.638],[97.9322,15.6478],[97.9441,15.6489],[97.9477,15.6456],[97.9482,15.6089],[97.9677,15.5916],[97.9778,15.591],[98.002,15.5604],[98.0083,15.5389],[98.0381,15.5135],[98.0472,15.4982],[98.049,15.4874],[98.0574,15.4766],[98.0599,15.4621],[98.0673,15.4566],[98.0713,15.4444],[98.0673,15.4388],[98.0905,15.421],[98.1012,15.3983],[98.112,15.3903],[98.1195,15.3674],[98.1341,15.3482],[98.134,15.3352],[98.1431,15.3292],[98.1569,15.3305],[98.1842,15.3086],[98.1836,15.294],[98.195,15.2804],[98.205,15.2614],[98.2025,15.2356],[98.1973,15.2323],[98.2005,15.2097],[98.2089,15.2021],[98.2085,15.1909],[98.2143,15.1811],[98.2025,15.1674],[98.1999,15.1581],[98.1898,15.1486],[98.1887,15.1422],[98.1931,15.1353],[98.184,15.1208],[98.1823,15.1105],[98.1854,15.0959],[98.1936,15.0871],[98.1941,15.0775],[98.2118,15.0765],[98.217,15.0645],[98.2222,15.06],[98.2214,15.0555],[98.235,15.0437],[98.2241,15.0273],[98.213,15.0205],[98.2082,14.9819],[98.195,14.9803],[98.1835,14.9698],[98.1705,14.9841],[98.1627,14.9796],[98.1534,14.9873],[98.1428,14.9859],[98.121,14.9953],[98.1158,14.9909],[98.1093,14.993],[98.0998,14.9905],[98.0894,15.001],[98.0803,15.0041],[98.076,15.0155],[98.0652,15.0242],[98.0597,15.0331],[98.0635,15.0388],[98.0584,15.04],[98.0563,15.0448],[98.05,15.0394],[98.0401,15.0512],[98.0442,15.0632],[98.0423,15.0783],[98.0354,15.082],[98.0282,15.0805],[98.0253,15.0965],[98.0181,15.1034],[98.0043,15.0927],[97.9609,15.0835],[97.9541,15.0754],[97.9478,15.0739],[97.949,15.0589],[97.9438,15.0614],[97.9389,15.0562],[97.9331,15.0661],[97.9275,15.0672],[97.9217,15.0763],[97.9132,15.0771],[97.9083,15.0694],[97.8835,15.0806],[97.8796,15.074],[97.8818,15.0672],[97.8714,15.0297],[97.8737,15.0201],[97.8659,15.007],[97.8677,14.995],[97.8643,14.9901],[97.8699,14.9782],[97.8653,14.9654],[97.8703,14.9565],[97.87,14.9511],[97.8664,14.9492],[97.8676,14.9367],[97.8574,14.9287],[97.8471,14.9314],[97.8357,14.9297],[97.8382,14.9221],[97.836,14.9142],[97.8307,14.9122],[97.8276,14.9046],[97.8313,14.8938],[97.8391,14.8868],[97.8359,14.8812],[97.8293,14.8803],[97.81,14.8852],[97.8074,14.8909],[97.8018,14.8865],[97.798,14.8877],[97.794,14.9053],[97.7889,14.9057],[97.7931,14.924],[97.8045,14.9388],[97.8061,14.9516],[97.8092,14.9539],[97.8089,14.9671],[97.7976,14.9913],[97.7952,14.9942],[97.7909,14.9916],[97.788,14.9963],[97.7904,14.9991],[97.781,15.0167],[97.77,15.0185],[97.7811,15.0274],[97.7851,15.0218],[97.792,15.0244],[97.7965,15.0341],[97.7955,15.0451],[97.788,15.0639],[97.7827,15.0646],[97.7816,15.0683],[97.7881,15.067],[97.7955,15.0713],[97.797,15.0821],[97.7939,15.0971],[97.8016,15.0967],[97.805,15.1066],[97.7983,15.1369],[97.8035,15.1366],[97.8036,15.149],[97.7944,15.1679],[97.7853,15.1784],[97.7909,15.1844],[97.8007,15.1871],[97.7991,15.2021],[97.8013,15.2044],[97.794,15.2067],[97.7912,15.2023],[97.7918,15.1935],[97.7894,15.1925],[97.7712,15.1979],[97.7672,15.1944],[97.7581,15.2066],[97.7436,15.2444],[97.7354,15.244],[97.7291,15.2724],[97.7391,15.2911],[97.7397,15.298],[97.7277,15.3238],[97.7198,15.3275],[97.7195,15.3344],[97.7236,15.3327],[97.7277,15.3367],[97.7249,15.3562],[97.7379,15.3524],[97.744,15.394],[97.7459,15.3951],[97.7512,15.3857],[97.7532,15.3894],[97.7552,15.3881],[97.7633,15.3781],[97.7655,15.379],[97.7584,15.3894],[97.767,15.3972],[97.7799,15.3988],[97.777,15.4031],[97.7746,15.4402],[97.7689,15.443],[97.7519,15.4742],[97.7328,15.4938],[97.7437,15.4966],[97.7484,15.5015],[97.7541,15.5277],[97.7604,15.5338],[97.7509,15.5529],[97.7474,15.5714],[97.7412,15.5768],[97.7265,15.611],[97.7367,15.6125],[97.7351,15.616],[97.7444,15.6248],[97.7542,15.6235],[97.7553,15.6296],[97.7597,15.6277],[97.7618,15.6297],[97.76,15.6328],[97.7669,15.6336],[97.7705,15.6409],[97.7731,15.6409],[97.7733,15.6367],[97.7776,15.6371],[97.7823,15.6442],[97.793,15.65],[97.8038,15.648],[97.8057,15.6435],[97.8096,15.6431],[97.8129,15.6433],[97.8153,15.65],[97.9126,15.6493]]]]}},{"type":"Feature","properties":{"TS":"Kawthoung","DT":"Kawthoung","ST":"Tanintharyi"},"geometry":{"type":"MultiPolygon","coordinates":[[[[98.2232,10.0559],[98.2214,10.05],[98.2084,10.0511],[98.2162,10.0574],[98.2232,10.0559]]],[[[97.9886,10.0513],[97.9902,10.0564],[97.9913,10.0576],[97.9935,10.05],[97.9886,10.0513]]],[[[98.2616,10.0661],[98.2667,10.0596],[98.2701,10.0644],[98.2731,10.0605],[98.2787,10.0644],[98.2799,10.0576],[98.2847,10.0589],[98.2869,10.0533],[98.2899,10.0573],[98.292,10.0504],[98.2974,10.0508],[98.2971,10.05],[98.2281,10.05],[98.2378,10.0554],[98.241,10.0538],[98.2386,10.0603],[98.2409,10.0623],[98.2477,10.0565],[98.2512,10.0577],[98.2519,10.0639],[98.2571,10.0591],[98.2616,10.0661]]],[[[97.9847,10.0762],[97.9932,10.0798],[97.9894,10.0646],[97.9819,10.0667],[97.9784,10.0724],[97.978,10.0861],[97.9847,10.0762]]],[[[98.322,10.106],[98.3212,10.1009],[98.3181,10.1048],[98.322,10.106]]],[[[98.6263,10.1036],[98.6275,10.1082],[98.6333,10.1073],[98.6325,10.1054],[98.6263,10.1036]]],[[[98.6274,10.1014],[98.6305,10.1022],[98.6316,10.0992],[98.6265,10.097],[98.6208,10.1029],[98.6241,10.1157],[98.6297,10.1186],[98.6341,10.1224],[98.6242,10.1067],[98.6274,10.1014]]],[[[98.6299,10.1196],[98.625,10.1192],[98.631,10.1224],[98.6299,10.1196]]],[[[98.3164,10.1318],[98.3089,10.1274],[98.3043,10.1341],[98.3066,10.1421],[98.312,10.14],[98.3114,10.1356],[98.3164,10.1318]]],[[[98.325,10.137],[98.3305,10.1365],[98.3318,10.1419],[98.3347,10.1381],[98.3344,10.1277],[98.322,10.1306],[98.3164,10.1398],[98.3194,10.1424],[98.325,10.137]]],[[[98.2789,10.1391],[98.2824,10.1433],[98.2854,10.14],[98.2828,10.1317],[98.2894,10.1205],[98.293,10.1192],[98.2983,10.1285],[98.3046,10.1304],[98.3062,10.1267],[98.303,10.1232],[98.3076,10.1206],[98.313,10.1222],[98.3113,10.1132],[98.3164,10.1054],[98.3122,10.1032],[98.307,10.1086],[98.3019,10.1033],[98.3036,10.0967],[98.3122,10.0901],[98.3108,10.0881],[98.3001,10.0879],[98.2916,10.0811],[98.2921,10.086],[98.2868,10.0852],[98.2859,10.0899],[98.2918,10.0949],[98.2896,10.0997],[98.2849,10.0936],[98.281,10.0953],[98.2796,10.1062],[98.2857,10.1057],[98.2868,10.1084],[98.283,10.1181],[98.2734,10.1148],[98.2692,10.1169],[98.276,10.1232],[98.269,10.145],[98.2789,10.1391]]],[[[98.1631,10.1609],[98.1579,10.1392],[98.1485,10.1457],[98.1424,10.1408],[98.1361,10.1562],[98.1405,10.1571],[98.1453,10.1664],[98.1456,10.1565],[98.1491,10.151],[98.1549,10.1534],[98.16,10.1669],[98.1631,10.1609]]],[[[97.9283,10.1614],[97.9147,10.158],[97.9086,10.1618],[97.9177,10.1642],[97.9236,10.1625],[97.9281,10.1681],[97.9283,10.1614]]],[[[98.6637,10.1771],[98.6606,10.1721],[98.6569,10.1754],[98.6637,10.1771]]],[[[97.9876,10.1626],[97.9799,10.1382],[97.9746,10.1361],[97.9799,10.1445],[97.9757,10.1521],[97.9725,10.1479],[97.9689,10.1491],[97.9639,10.1398],[97.9648,10.1354],[97.9587,10.1302],[97.959,10.1411],[97.964,10.1435],[97.9599,10.146],[97.9619,10.1544],[97.9774,10.1656],[97.9796,10.1807],[97.9844,10.1784],[97.9828,10.1685],[97.9876,10.1626]]],[[[98.2068,10.1945],[98.2119,10.1806],[98.2077,10.1696],[98.2116,10.1732],[98.2165,10.1683],[98.2204,10.1763],[98.2239,10.1703],[98.2319,10.1752],[98.2377,10.1743],[98.2394,10.1687],[98.2338,10.1719],[98.2308,10.1664],[98.2304,10.1579],[98.236,10.1521],[98.2327,10.1494],[98.2297,10.1337],[98.2262,10.1365],[98.2262,10.1325],[98.2214,10.1332],[98.2175,10.1268],[98.2125,10.139],[98.2041,10.1329],[98.1959,10.1201],[98.1897,10.121],[98.1992,10.1033],[98.1949,10.0924],[98.2007,10.0933],[98.2023,10.0852],[98.1959,10.0766],[98.1964,10.0682],[98.1932,10.0688],[98.1915,10.0746],[98.1883,10.0718],[98.1933,10.05],[98.1816,10.05],[98.1869,10.0598],[98.1806,10.0733],[98.1882,10.079],[98.1848,10.0898],[98.1914,10.0968],[98.1813,10.1151],[98.1844,10.1222],[98.1827,10.1264],[98.1673,10.1436],[98.1699,10.1474],[98.1817,10.1516],[98.1826,10.1677],[98.1901,10.1804],[98.1961,10.1831],[98.1916,10.1844],[98.1824,10.177],[98.1771,10.1868],[98.1787,10.1957],[98.1924,10.1875],[98.1976,10.1906],[98.1987,10.1956],[98.2068,10.1945]]],[[[98.0333,10.1708],[98.0386,10.1683],[98.0376,10.1645],[98.0429,10.157],[98.0362,10.1569],[98.0345,10.1504],[98.0305,10.1539],[98.0336,10.1553],[98.0337,10.1601],[98.0303,10.1601],[98.0279,10.1709],[98.0218,10.1801],[98.0254,10.1976],[98.0333,10.1708]]],[[[97.9742,10.1909],[97.9727,10.1937],[97.9722,10.2001],[97.9762,10.194],[97.9742,10.1909]]],[[[97.8718,10.2086],[97.8782,10.2056],[97.8806,10.2004],[97.8756,10.1957],[97.8767,10.1984],[97.8726,10.1997],[97.8697,10.1949],[97.8674,10.2059],[97.8707,10.2054],[97.8718,10.2086]]],[[[97.9658,10.2011],[97.9641,10.2054],[97.966,10.2099],[97.9712,10.2033],[97.9658,10.2011]]],[[[97.9731,10.2203],[97.9691,10.2142],[97.9666,10.2172],[97.9731,10.2203]]],[[[97.9746,10.2221],[97.9729,10.2265],[97.9741,10.2276],[97.976,10.2252],[97.9746,10.2221]]],[[[98.252,10.2539],[98.2464,10.2347],[98.2442,10.2331],[98.239,10.2406],[98.2377,10.2585],[98.2434,10.257],[98.2492,10.2599],[98.252,10.2539]]],[[[98.2987,10.3407],[98.2859,10.3349],[98.2853,10.3448],[98.2961,10.3437],[98.2987,10.3407]]],[[[97.9999,10.3538],[97.9992,10.3352],[97.9931,10.3214],[97.9884,10.3269],[97.9841,10.324],[97.9832,10.3354],[97.9889,10.3381],[97.9912,10.344],[97.9962,10.3443],[97.9931,10.3548],[97.9949,10.3675],[97.9999,10.3538]]],[[[97.9661,10.3507],[97.9645,10.3564],[97.9676,10.3676],[97.97,10.3581],[97.9661,10.3507]]],[[[97.946,10.37],[97.9416,10.3685],[97.9421,10.3579],[97.9368,10.3547],[97.9409,10.3707],[97.9457,10.3713],[97.95,10.3776],[97.946,10.37]]],[[[97.9461,10.4068],[97.9469,10.3959],[97.9379,10.4091],[97.9414,10.4136],[97.9461,10.4068]]],[[[97.9576,10.4407],[97.9637,10.4174],[97.9607,10.4119],[97.9568,10.4202],[97.9493,10.4215],[97.9576,10.4407]]],[[[98.2812,10.4351],[98.2759,10.4328],[98.2833,10.4408],[98.2812,10.4351]]],[[[98.1667,10.4499],[98.1621,10.4465],[98.1644,10.4574],[98.1672,10.4547],[98.1667,10.4499]]],[[[98.2484,10.4468],[98.2468,10.454],[98.2379,10.4626],[98.2398,10.4659],[98.2502,10.4571],[98.2484,10.4468]]],[[[98.1818,10.4677],[98.1919,10.4672],[98.1966,10.4633],[98.1841,10.4573],[98.1784,10.4587],[98.1818,10.4677]]],[[[98.215,10.4692],[98.2256,10.4645],[98.2191,10.4604],[98.2201,10.4451],[98.2145,10.4332],[98.2123,10.4606],[98.215,10.4692]]],[[[97.6818,10.4664],[97.6872,10.4682],[97.6886,10.4678],[97.6841,10.4646],[97.6851,10.4604],[97.6792,10.4619],[97.6771,10.4681],[97.6801,10.47],[97.6818,10.4664]]],[[[98.1603,10.4802],[98.1721,10.474],[98.1663,10.4739],[98.1598,10.469],[98.1603,10.4802]]],[[[97.9116,10.4951],[97.8991,10.4783],[97.9057,10.4669],[97.9097,10.4727],[97.9254,10.472],[97.9354,10.4841],[97.9381,10.4762],[97.9296,10.4719],[97.9276,10.4578],[97.9332,10.4561],[97.9358,10.4614],[97.9381,10.4576],[97.9425,10.4574],[97.9464,10.4402],[97.941,10.4261],[97.9248,10.4306],[97.926,10.4344],[97.923,10.4345],[97.9202,10.4278],[97.9141,10.43],[97.9135,10.4219],[97.9084,10.4232],[97.9089,10.4199],[97.9161,10.4223],[97.9158,10.4188],[97.9179,10.4216],[97.9245,10.4154],[97.9283,10.417],[97.9297,10.4224],[97.9401,10.4195],[97.9334,10.4139],[97.9375,10.4102],[97.9295,10.4103],[97.9131,10.3996],[97.9085,10.403],[97.8957,10.3993],[97.8995,10.4095],[97.8955,10.4135],[97.8964,10.4204],[97.8909,10.4224],[97.901,10.4297],[97.8994,10.4362],[97.9034,10.4425],[97.8981,10.4614],[97.8916,10.4688],[97.8959,10.4821],[97.8934,10.4883],[97.9025,10.4927],[97.9043,10.5],[97.9116,10.4951]]],[[[97.9178,10.5208],[97.9154,10.5111],[97.9107,10.5086],[97.9078,10.5107],[97.9055,10.504],[97.8986,10.5074],[97.8982,10.5005],[97.8927,10.5002],[97.8898,10.509],[97.9062,10.5111],[97.9084,10.5198],[97.9178,10.5208]]],[[[98.2348,10.5332],[98.2375,10.528],[98.2328,10.5243],[98.2359,10.5177],[98.2305,10.5018],[98.236,10.4903],[98.213,10.4812],[98.2077,10.4813],[98.2081,10.4863],[98.2036,10.4894],[98.1922,10.483],[98.1989,10.4999],[98.1968,10.5081],[98.1898,10.5098],[98.1971,10.5164],[98.1987,10.5227],[98.1963,10.5256],[98.2019,10.5249],[98.2079,10.5304],[98.2103,10.5266],[98.2143,10.5268],[98.221,10.5344],[98.2252,10.5315],[98.2348,10.5332]]],[[[98.2346,10.5608],[98.24,10.5643],[98.2294,10.546],[98.2258,10.5507],[98.2194,10.5521],[98.2303,10.5653],[98.2346,10.5608]]],[[[98.0962,10.5563],[98.0865,10.5782],[98.0877,10.5813],[98.0984,10.5679],[98.0962,10.5563]]],[[[98.0447,10.573],[98.0381,10.58],[98.0404,10.5895],[98.0438,10.5905],[98.0515,10.5809],[98.0447,10.573]]],[[[98.0237,10.5871],[98.0205,10.5841],[98.0223,10.5702],[98.0272,10.568],[98.0324,10.5701],[98.0211,10.5618],[98.02,10.5673],[98.0166,10.5663],[98.0098,10.5553],[97.9989,10.5573],[98.001,10.548],[97.9984,10.5385],[97.9903,10.5452],[97.9882,10.5372],[97.9836,10.5418],[97.983,10.5503],[97.9791,10.5451],[97.9749,10.5461],[97.9757,10.5402],[97.971,10.5403],[97.9682,10.5419],[97.971,10.5456],[97.9684,10.5488],[97.9562,10.5502],[97.9496,10.5586],[97.9433,10.5549],[97.939,10.5591],[97.9462,10.5629],[97.9565,10.5579],[97.9596,10.5672],[97.9695,10.569],[97.9724,10.5734],[97.9847,10.5694],[97.9886,10.5632],[97.9959,10.5639],[98.0077,10.5727],[98.0019,10.5882],[98.0068,10.5904],[98.015,10.5881],[98.017,10.5955],[98.0229,10.5924],[98.0237,10.5871]]],[[[98.3406,10.5896],[98.3433,10.5962],[98.3456,10.5958],[98.3431,10.5904],[98.3406,10.5896]]],[[[98.2361,10.6211],[98.2319,10.6169],[98.2269,10.623],[98.2341,10.6276],[98.2361,10.6211]]],[[[98.2604,10.6181],[98.257,10.6124],[98.2534,10.6171],[98.2451,10.6178],[98.2472,10.6204],[98.2531,10.6199],[98.2606,10.6331],[98.2604,10.6181]]],[[[98.2591,10.6399],[98.2573,10.6438],[98.2636,10.647],[98.2643,10.6452],[98.2591,10.6399]]],[[[98.3497,10.6333],[98.3539,10.6454],[98.359,10.6536],[98.3621,10.6455],[98.3602,10.6391],[98.3578,10.6354],[98.3497,10.6333]]],[[[98.2709,10.6822],[98.259,10.6686],[98.2568,10.6581],[98.2613,10.6503],[98.2539,10.6488],[98.2418,10.656],[98.2366,10.6525],[98.2447,10.6825],[98.248,10.6796],[98.2581,10.6799],[98.2658,10.6844],[98.2709,10.6822]]],[[[98.8604,10.9145],[98.8732,10.9075],[98.8715,10.9031],[98.8775,10.8957],[98.8838,10.8952],[98.8922,10.9004],[98.8998,10.8934],[98.9074,10.8791],[98.9051,10.8745],[98.9104,10.8554],[98.9033,10.8408],[98.909,10.835],[98.9146,10.8374],[98.9181,10.8297],[98.9252,10.8246],[98.9201,10.8128],[98.8852,10.7838],[98.8782,10.7868],[98.8686,10.7757],[98.8618,10.7771],[98.8309,10.7337],[98.8251,10.7306],[98.8185,10.718],[98.8108,10.7139],[98.8121,10.71],[98.8036,10.7054],[98.804,10.6996],[98.7947,10.6915],[98.7912,10.6815],[98.7862,10.6793],[98.7848,10.6828],[98.7812,10.6772],[98.7854,10.6479],[98.7792,10.6418],[98.7724,10.6209],[98.7745,10.6154],[98.7811,10.6144],[98.7811,10.6028],[98.7836,10.6011],[98.7877,10.6059],[98.8023,10.6036],[98.7979,10.595],[98.8027,10.5928],[98.8035,10.586],[98.8118,10.5929],[98.8078,10.5692],[98.7996,10.5592],[98.8135,10.5536],[98.8188,10.5469],[98.8114,10.5392],[98.8166,10.5389],[98.8148,10.5306],[98.8221,10.5298],[98.8187,10.526],[98.8192,10.5011],[98.8127,10.4901],[98.8058,10.4878],[98.8067,10.4817],[98.8013,10.4841],[98.8082,10.4743],[98.8088,10.4672],[98.7992,10.4577],[98.8002,10.4468],[98.7851,10.4436],[98.7756,10.4267],[98.7687,10.4039],[98.7529,10.3899],[98.7361,10.3393],[98.7337,10.3226],[98.72,10.2939],[98.7169,10.2776],[98.7016,10.2427],[98.7009,10.235],[98.6956,10.2302],[98.6954,10.2175],[98.6739,10.1984],[98.6647,10.1859],[98.6484,10.1775],[98.6444,10.1501],[98.6387,10.1387],[98.6197,10.1213],[98.6123,10.1048],[98.6147,10.093],[98.6028,10.0699],[98.6025,10.0619],[98.5926,10.05],[98.5147,10.0516],[98.5154,10.0554],[98.5215,10.0578],[98.5241,10.0708],[98.5187,10.0875],[98.5083,10.0898],[98.5094,10.0943],[98.5166,10.0931],[98.5187,10.0997],[98.5121,10.1237],[98.5171,10.1468],[98.5155,10.1591],[98.5133,10.1668],[98.5011,10.1788],[98.494,10.181],[98.4882,10.1767],[98.4876,10.1856],[98.4796,10.2009],[98.4904,10.2111],[98.4948,10.2109],[98.497,10.2221],[98.493,10.228],[98.5033,10.2275],[98.5169,10.2468],[98.5161,10.2757],[98.5073,10.2794],[98.5096,10.299],[98.5065,10.3038],[98.512,10.3011],[98.5192,10.3054],[98.5285,10.3284],[98.528,10.3423],[98.5353,10.3448],[98.5357,10.3559],[98.5408,10.3661],[98.5353,10.3652],[98.5284,10.3722],[98.5275,10.3796],[98.5174,10.395],[98.52,10.4036],[98.5041,10.4075],[98.5021,10.4166],[98.5106,10.4182],[98.5164,10.4256],[98.5078,10.4281],[98.5062,10.4332],[98.5043,10.4315],[98.4908,10.4476],[98.4906,10.454],[98.4979,10.4664],[98.4888,10.4752],[98.4834,10.5087],[98.4906,10.5107],[98.4966,10.5168],[98.4931,10.5302],[98.4948,10.5343],[98.4877,10.5466],[98.4801,10.5441],[98.4763,10.5474],[98.4802,10.5557],[98.485,10.555],[98.4937,10.5622],[98.4923,10.5664],[98.4808,10.5676],[98.473,10.5764],[98.4698,10.5868],[98.4724,10.5937],[98.4825,10.5993],[98.4777,10.6175],[98.4696,10.6159],[98.4521,10.6251],[98.4562,10.6301],[98.4559,10.6452],[98.4624,10.6452],[98.4632,10.6567],[98.4543,10.6568],[98.4514,10.669],[98.458,10.6694],[98.4607,10.6789],[98.4559,10.6815],[98.4507,10.6797],[98.4486,10.6888],[98.4565,10.6931],[98.4662,10.6923],[98.4852,10.6698],[98.487,10.6633],[98.5131,10.6653],[98.5066,10.6535],[98.513,10.6361],[98.5065,10.6304],[98.5103,10.6125],[98.5139,10.609],[98.516,10.5915],[98.5312,10.5795],[98.5363,10.5825],[98.5403,10.5771],[98.5546,10.5785],[98.5665,10.5603],[98.5739,10.5682],[98.5786,10.5665],[98.583,10.5758],[98.5909,10.5719],[98.6067,10.5785],[98.6235,10.5703],[98.63,10.5797],[98.6364,10.6123],[98.6373,10.6479],[98.6279,10.6652],[98.6432,10.7046],[98.6446,10.7234],[98.6385,10.7466],[98.6408,10.7522],[98.6627,10.7512],[98.6673,10.7563],[98.6644,10.7671],[98.6682,10.7701],[98.6714,10.7686],[98.6778,10.7756],[98.6843,10.775],[98.6881,10.7701],[98.6922,10.7783],[98.7045,10.773],[98.7069,10.7794],[98.7208,10.7755],[98.7277,10.7843],[98.7249,10.8072],[98.729,10.8365],[98.7346,10.8489],[98.7411,10.8524],[98.7546,10.8456],[98.761,10.8446],[98.7654,10.8478],[98.763,10.8562],[98.7691,10.8709],[98.7639,10.8811],[98.7805,10.8869],[98.7846,10.8838],[98.7881,10.8855],[98.7918,10.889],[98.7928,10.9013],[98.7977,10.9027],[98.7956,10.9078],[98.8097,10.9011],[98.8118,10.908],[98.8238,10.9133],[98.8315,10.9087],[98.8426,10.927],[98.8516,10.93],[98.857,10.9296],[98.8604,10.9145]]]]}},{"type":"Feature","properties":{"TS":"Kyunsu","DT":"Myeik","ST":"Tanintharyi"},"geometry":{"type":"MultiPolygon","coordinates":[[[[98.0147,11.4261],[98.0115,11.4313],[98.0152,11.4336],[98.0165,11.4293],[98.0147,11.4261]]],[[[98.1318,11.467],[98.1313,11.4615],[98.1374,11.459],[98.1458,11.447],[98.1389,11.4361],[98.1289,11.4348],[98.1276,11.438],[98.1314,11.4407],[98.1296,11.4539],[98.1266,11.4559],[98.1233,11.4531],[98.1205,11.4582],[98.1243,11.4658],[98.1318,11.467]]],[[[98.0167,11.4659],[98.0063,11.4495],[98.0086,11.441],[98.0054,11.4403],[97.9939,11.4422],[97.9914,11.4394],[97.9877,11.4434],[97.9752,11.4406],[97.971,11.4427],[97.9689,11.4486],[97.9837,11.4581],[97.9841,11.451],[97.987,11.4494],[97.9913,11.4541],[97.9945,11.4511],[97.9948,11.4566],[98.002,11.4543],[98.003,11.4577],[98.0096,11.4599],[98.0129,11.4713],[98.0167,11.4659]]],[[[97.9076,11.516],[97.9072,11.5146],[97.9035,11.5147],[97.9076,11.516]]],[[[97.9282,11.5103],[97.9259,11.5109],[97.9273,11.5161],[97.9286,11.5149],[97.9282,11.5103]]],[[[97.9332,11.5198],[97.9314,11.5183],[97.9319,11.5214],[97.9332,11.5198]]],[[[98.3191,11.5252],[98.3171,11.5264],[98.3196,11.5313],[98.3209,11.5294],[98.3191,11.5252]]],[[[98.3136,11.5251],[98.3105,11.5199],[98.3076,11.5227],[98.3074,11.5199],[98.3041,11.5245],[98.3094,11.5408],[98.3136,11.5251]]],[[[98.3144,11.5766],[98.3139,11.5629],[98.3104,11.5626],[98.313,11.56],[98.3102,11.5594],[98.3094,11.5638],[98.3114,11.5737],[98.3144,11.5766]]],[[[98.3067,11.5749],[98.3061,11.5784],[98.309,11.5824],[98.3092,11.5795],[98.3067,11.5749]]],[[[98.0362,11.6392],[98.0404,11.636],[98.0394,11.6339],[98.0362,11.6392]]],[[[98.0299,11.6407],[98.0286,11.6498],[98.0294,11.6509],[98.0325,11.6459],[98.0299,11.6407]]],[[[97.5218,11.6505],[97.5186,11.6507],[97.5223,11.6602],[97.5255,11.6608],[97.5218,11.6505]]],[[[98.0347,11.6646],[98.0432,11.6624],[98.038,11.6546],[98.0394,11.6479],[98.0333,11.6512],[98.0312,11.6562],[98.0347,11.6646]]],[[[98.1187,11.7619],[98.1054,11.7569],[98.1165,11.7662],[98.1194,11.7651],[98.1187,11.7619]]],[[[98.3046,11.7761],[98.3087,11.7715],[98.3062,11.7654],[98.3008,11.773],[98.3046,11.7761]]],[[[98.2137,11.7807],[98.21,11.7818],[98.2133,11.7877],[98.2145,11.7863],[98.2137,11.7807]]],[[[97.4428,11.8016],[97.4608,11.7961],[97.4674,11.7978],[97.4635,11.7892],[97.4711,11.7923],[97.4826,11.788],[97.4919,11.7749],[97.4895,11.7731],[97.4793,11.7759],[97.4845,11.7644],[97.4764,11.7639],[97.4759,11.7706],[97.4626,11.7695],[97.4589,11.7748],[97.4497,11.7759],[97.4416,11.7821],[97.4358,11.7918],[97.4349,11.8009],[97.4423,11.8047],[97.4428,11.8016]]],[[[98.2954,11.8033],[98.2994,11.7932],[98.2941,11.7893],[98.2926,11.7812],[98.3079,11.7544],[98.305,11.7481],[98.3134,11.7461],[98.3146,11.734],[98.3195,11.7238],[98.3001,11.706],[98.2948,11.7057],[98.2924,11.6888],[98.288,11.6852],[98.2914,11.6817],[98.2881,11.6563],[98.2828,11.6531],[98.2866,11.6517],[98.2829,11.6383],[98.2876,11.63],[98.2857,11.6263],[98.2812,11.6278],[98.277,11.6251],[98.2727,11.6188],[98.2763,11.6129],[98.2733,11.6014],[98.2821,11.5843],[98.2801,11.5657],[98.2774,11.5635],[98.2806,11.562],[98.2743,11.5571],[98.2783,11.5503],[98.2729,11.546],[98.283,11.5375],[98.2759,11.5371],[98.2736,11.5263],[98.2796,11.5264],[98.2807,11.5239],[98.2702,11.5093],[98.2749,11.5043],[98.269,11.494],[98.2696,11.4792],[98.2729,11.4764],[98.2739,11.4682],[98.2645,11.4702],[98.2618,11.4803],[98.2527,11.4725],[98.2592,11.4648],[98.2574,11.4548],[98.2509,11.456],[98.2434,11.4659],[98.2408,11.4777],[98.2281,11.484],[98.2271,11.489],[98.2207,11.4854],[98.2222,11.479],[98.2191,11.4773],[98.2218,11.4703],[98.2163,11.4575],[98.2091,11.4566],[98.2033,11.4627],[98.2014,11.4569],[98.2048,11.4548],[98.1946,11.4541],[98.1898,11.447],[98.1913,11.4394],[98.2038,11.4407],[98.2154,11.436],[98.2092,11.4277],[98.2007,11.4272],[98.1847,11.4367],[98.1849,11.4407],[98.1796,11.4449],[98.1728,11.4441],[98.1687,11.4387],[98.1626,11.4368],[98.1615,11.4556],[98.1657,11.4615],[98.1792,11.4471],[98.1911,11.4567],[98.1901,11.4665],[98.2025,11.4687],[98.202,11.4763],[98.1952,11.4739],[98.1888,11.4854],[98.1898,11.4889],[98.1965,11.4901],[98.1958,11.5014],[98.2002,11.4992],[98.2035,11.5091],[98.199,11.5117],[98.1962,11.5203],[98.1871,11.525],[98.1902,11.5288],[98.1879,11.5349],[98.1991,11.5334],[98.1991,11.539],[98.1939,11.5438],[98.2042,11.5487],[98.2043,11.5522],[98.2142,11.551],[98.2164,11.557],[98.2152,11.5621],[98.1938,11.5671],[98.1954,11.5718],[98.1914,11.5755],[98.1961,11.5811],[98.1964,11.5872],[98.2027,11.5871],[98.2064,11.5909],[98.2017,11.5955],[98.2128,11.601],[98.2097,11.6099],[98.2154,11.6097],[98.2167,11.613],[98.2127,11.6182],[98.2214,11.6271],[98.2331,11.6288],[98.235,11.6351],[98.2443,11.6354],[98.2397,11.6426],[98.2394,11.6499],[98.2279,11.6491],[98.2246,11.6537],[98.2279,11.659],[98.2209,11.6629],[98.2246,11.6667],[98.2326,11.6657],[98.2382,11.6723],[98.2373,11.6764],[98.2292,11.6793],[98.2352,11.6859],[98.2384,11.6995],[98.2439,11.7027],[98.2386,11.7115],[98.2501,11.7067],[98.2416,11.716],[98.2422,11.7236],[98.2506,11.7187],[98.2509,11.7157],[98.2558,11.7153],[98.2583,11.7252],[98.2679,11.729],[98.2676,11.7352],[98.257,11.7409],[98.2534,11.7472],[98.2528,11.7566],[98.2559,11.7628],[98.2617,11.7546],[98.2731,11.7649],[98.2658,11.7716],[98.2709,11.7731],[98.2576,11.7912],[98.2763,11.8072],[98.2801,11.8037],[98.2895,11.808],[98.2954,11.8033]]],[[[98.5226,11.8076],[98.5436,11.7769],[98.5469,11.7592],[98.5454,11.7062],[98.5364,11.7026],[98.544,11.7007],[98.5455,11.6944],[98.5381,11.6779],[98.5409,11.6706],[98.5348,11.6551],[98.5327,11.6389],[98.548,11.6117],[98.5404,11.6077],[98.528,11.5931],[98.5233,11.5944],[98.5208,11.5873],[98.5234,11.5682],[98.5212,11.5382],[98.5266,11.5161],[98.5222,11.5128],[98.5166,11.5171],[98.5197,11.5246],[98.5172,11.528],[98.4935,11.5441],[98.4951,11.5536],[98.4875,11.5559],[98.4854,11.5643],[98.4722,11.5607],[98.4585,11.5642],[98.4519,11.5753],[98.4391,11.5722],[98.4385,11.566],[98.434,11.5618],[98.4349,11.555],[98.4327,11.5594],[98.4236,11.5636],[98.4303,11.5688],[98.4319,11.5746],[98.4299,11.5779],[98.4248,11.5768],[98.4208,11.5832],[98.4309,11.5898],[98.4274,11.5923],[98.4232,11.5909],[98.4287,11.6046],[98.4257,11.6053],[98.4227,11.5954],[98.4137,11.5871],[98.4096,11.6077],[98.4115,11.6123],[98.4242,11.6167],[98.4253,11.6198],[98.4111,11.6302],[98.4077,11.6441],[98.3963,11.6463],[98.3913,11.6561],[98.3859,11.6501],[98.3765,11.6541],[98.3703,11.6721],[98.3695,11.6856],[98.3761,11.7041],[98.3913,11.7021],[98.4003,11.705],[98.4052,11.7119],[98.4073,11.7234],[98.4197,11.7177],[98.4275,11.7265],[98.4317,11.7207],[98.4341,11.7217],[98.4284,11.729],[98.4184,11.72],[98.4149,11.7248],[98.408,11.7264],[98.4009,11.7219],[98.3981,11.7099],[98.3831,11.7134],[98.3697,11.7277],[98.3653,11.7362],[98.3664,11.7404],[98.3777,11.751],[98.3837,11.7665],[98.3919,11.7667],[98.4044,11.7588],[98.4062,11.7613],[98.3932,11.7697],[98.3838,11.7705],[98.3775,11.7673],[98.3697,11.7696],[98.3682,11.7667],[98.3646,11.7724],[98.3669,11.7806],[98.375,11.7869],[98.4031,11.7899],[98.4194,11.7847],[98.439,11.7839],[98.4412,11.7606],[98.4437,11.7614],[98.4471,11.7822],[98.4616,11.7801],[98.4729,11.7592],[98.4661,11.7854],[98.4529,11.7876],[98.4443,11.7938],[98.4313,11.7977],[98.4411,11.8091],[98.4491,11.801],[98.481,11.7926],[98.4899,11.7952],[98.4928,11.8031],[98.5132,11.8112],[98.5226,11.8076]]],[[[97.49,11.8184],[97.4833,11.808],[97.4913,11.8129],[97.4945,11.8088],[97.5164,11.817],[97.5221,11.813],[97.5198,11.8062],[97.5241,11.8014],[97.5213,11.7971],[97.5254,11.793],[97.5215,11.7944],[97.5234,11.789],[97.5196,11.7831],[97.5088,11.7859],[97.499,11.7822],[97.4841,11.7879],[97.4804,11.7927],[97.4826,11.802],[97.4816,11.7997],[97.4785,11.8022],[97.4755,11.8086],[97.4708,11.8061],[97.4701,11.8134],[97.49,11.8184]]],[[[97.659,11.8229],[97.6723,11.8115],[97.6619,11.8058],[97.6607,11.8019],[97.657,11.8097],[97.6483,11.8101],[97.6475,11.8129],[97.6385,11.8156],[97.659,11.8229]]],[[[97.4674,11.8264],[97.4689,11.8173],[97.4646,11.8164],[97.4645,11.8252],[97.4674,11.8264]]],[[[98.123,11.8269],[98.1179,11.8205],[98.1107,11.8197],[98.1153,11.8262],[98.123,11.8269]]],[[[98.0768,11.8359],[98.0784,11.8271],[98.0706,11.8239],[98.0735,11.8159],[98.0736,11.8097],[98.0705,11.8072],[98.0727,11.7995],[98.0662,11.7956],[98.0637,11.7847],[98.0591,11.7938],[98.0624,11.7972],[98.0587,11.8029],[98.0559,11.8046],[98.0513,11.7984],[98.0461,11.7987],[98.046,11.8044],[98.0566,11.8153],[98.0582,11.8294],[98.0768,11.8359]]],[[[98.469,11.8285],[98.4653,11.8271],[98.4556,11.8311],[98.4566,11.8517],[98.4674,11.8455],[98.469,11.8285]]],[[[98.2862,11.8528],[98.295,11.8377],[98.2921,11.8357],[98.2916,11.8273],[98.2884,11.8255],[98.2903,11.8195],[98.2843,11.8159],[98.2851,11.8114],[98.2774,11.8134],[98.2729,11.8101],[98.2702,11.8122],[98.2682,11.8067],[98.2589,11.8046],[98.2552,11.8072],[98.2617,11.8162],[98.2604,11.8234],[98.2561,11.8272],[98.2579,11.83],[98.2537,11.8308],[98.2561,11.8378],[98.2727,11.8471],[98.275,11.8519],[98.2862,11.8528]]],[[[98.1907,11.8543],[98.2024,11.8502],[98.2096,11.8385],[98.2002,11.8414],[98.1932,11.8394],[98.1959,11.85],[98.1878,11.8465],[98.1907,11.8543]]],[[[98.0122,11.8563],[98.0162,11.8586],[98.0178,11.8544],[98.007,11.8465],[98.0082,11.8406],[98.005,11.8323],[98.0148,11.8097],[98.0143,11.8024],[98.0271,11.8036],[98.034,11.7995],[98.0342,11.7942],[98.0396,11.7905],[98.046,11.7976],[98.0484,11.7934],[98.0444,11.7916],[98.0496,11.7905],[98.0518,11.7862],[98.0365,11.7871],[98.0357,11.7826],[98.0394,11.7793],[98.0429,11.7822],[98.0447,11.7795],[98.0479,11.7819],[98.0594,11.7801],[98.0599,11.7754],[98.0651,11.7747],[98.0572,11.7736],[98.0569,11.7664],[98.0504,11.7695],[98.0434,11.7632],[98.0461,11.7594],[98.0563,11.7599],[98.0507,11.7576],[98.0508,11.752],[98.054,11.7503],[98.0477,11.7462],[98.0613,11.7372],[98.053,11.7305],[98.0533,11.7257],[98.062,11.7259],[98.0619,11.72],[98.0681,11.7224],[98.0696,11.7204],[98.0727,11.7317],[98.077,11.7297],[98.0827,11.7418],[98.0879,11.7402],[98.088,11.7373],[98.0805,11.734],[98.082,11.7246],[98.0779,11.7245],[98.0792,11.7097],[98.0759,11.7029],[98.0715,11.7016],[98.0703,11.7045],[98.0667,11.6995],[98.0653,11.7029],[98.0545,11.7026],[98.0486,11.6933],[98.0564,11.6979],[98.0604,11.6956],[98.0595,11.6926],[98.0643,11.6927],[98.0659,11.686],[98.0692,11.6837],[98.072,11.6857],[98.0736,11.6732],[98.0709,11.6775],[98.0665,11.6771],[98.0674,11.6673],[98.0592,11.6706],[98.0564,11.6681],[98.0603,11.6622],[98.0663,11.6634],[98.0646,11.6604],[98.0702,11.6585],[98.0714,11.6535],[98.0769,11.6532],[98.074,11.6494],[98.078,11.6506],[98.0811,11.6474],[98.0862,11.6513],[98.0899,11.6499],[98.0894,11.6445],[98.084,11.6438],[98.0918,11.6271],[98.0827,11.6257],[98.0844,11.6363],[98.0809,11.6399],[98.0703,11.6379],[98.0707,11.6434],[98.0652,11.6436],[98.0668,11.6475],[98.064,11.6475],[98.0612,11.6404],[98.0591,11.642],[98.0613,11.6471],[98.0573,11.647],[98.0558,11.6431],[98.0517,11.6447],[98.0508,11.6559],[98.0466,11.6548],[98.0504,11.6578],[98.0468,11.6736],[98.0436,11.6738],[98.0426,11.6786],[98.0359,11.6802],[98.0389,11.6879],[98.0349,11.6855],[98.0318,11.6886],[98.0314,11.6806],[98.0241,11.6845],[98.0245,11.6794],[98.0184,11.6894],[98.0144,11.6887],[98.0113,11.6935],[98.0114,11.7029],[98.0167,11.7025],[98.0203,11.7122],[98.0255,11.7009],[98.0216,11.6968],[98.0265,11.6962],[98.0306,11.7003],[98.0269,11.7089],[98.0303,11.7147],[98.0366,11.7143],[98.0352,11.7282],[98.0323,11.7213],[98.029,11.7231],[98.027,11.7181],[98.0236,11.7217],[98.0248,11.7274],[98.0116,11.7221],[98.015,11.7311],[98.0187,11.7325],[98.0181,11.736],[98.0124,11.735],[98.014,11.7476],[98.0196,11.7512],[98.0249,11.7492],[98.0256,11.7536],[98.0303,11.7492],[98.0301,11.7573],[98.025,11.7605],[98.0271,11.7665],[98.024,11.7675],[98.0227,11.7648],[98.0191,11.7671],[98.0181,11.7634],[98.0145,11.7646],[98.0124,11.7585],[98.0073,11.7584],[98.0067,11.7636],[98.0197,11.7712],[98.0203,11.7804],[98.0088,11.7896],[98.0132,11.7992],[98.0124,11.8092],[98.0054,11.8161],[98.0046,11.8232],[97.9961,11.8226],[97.9923,11.8282],[98.0045,11.8397],[98.0011,11.8444],[98.0031,11.8508],[98.0006,11.8567],[98.007,11.8588],[98.0122,11.8563]]],[[[98.4772,11.8589],[98.4961,11.8528],[98.4987,11.842],[98.4926,11.8401],[98.4904,11.8308],[98.4766,11.8291],[98.471,11.8331],[98.4695,11.8419],[98.4727,11.8544],[98.4772,11.8589]]],[[[98.4129,11.8646],[98.4331,11.8594],[98.4407,11.849],[98.4299,11.8399],[98.4253,11.8323],[98.428,11.8242],[98.4216,11.8212],[98.414,11.826],[98.4066,11.842],[98.4066,11.8664],[98.4106,11.869],[98.4129,11.8646]]],[[[98.2099,11.8708],[98.2148,11.8742],[98.2169,11.8706],[98.2154,11.855],[98.2064,11.8525],[98.2039,11.8545],[98.209,11.8599],[98.2035,11.8566],[98.1994,11.8584],[98.2005,11.865],[98.1886,11.867],[98.1877,11.8705],[98.1977,11.8701],[98.2047,11.8747],[98.2099,11.8708]]],[[[98.2141,11.8881],[98.2164,11.8807],[98.2074,11.8827],[98.213,11.8844],[98.2141,11.8881]]],[[[97.6749,11.896],[97.6837,11.8859],[97.6814,11.8717],[97.6842,11.8709],[97.681,11.8677],[97.6778,11.87],[97.6656,11.8567],[97.6679,11.8481],[97.6719,11.8505],[97.6747,11.8483],[97.6705,11.8461],[97.6666,11.837],[97.6685,11.8338],[97.6751,11.833],[97.6727,11.8273],[97.6677,11.8281],[97.6606,11.8353],[97.6571,11.834],[97.6487,11.8382],[97.6471,11.8457],[97.6391,11.8524],[97.6402,11.8568],[97.6346,11.8689],[97.6431,11.8824],[97.6603,11.8893],[97.6666,11.8975],[97.6702,11.8965],[97.673,11.9],[97.6766,11.8989],[97.6749,11.896]]],[[[98.2691,11.9209],[98.2694,11.9173],[98.2787,11.9124],[98.2801,11.9053],[98.2927,11.8989],[98.2949,11.8943],[98.2891,11.8932],[98.2873,11.8873],[98.2823,11.8931],[98.2794,11.8917],[98.2806,11.8775],[98.2746,11.8532],[98.2626,11.8539],[98.2588,11.8508],[98.2524,11.8549],[98.2532,11.8767],[98.25,11.8806],[98.2534,11.8837],[98.248,11.8924],[98.2494,11.9115],[98.2615,11.9179],[98.2615,11.9206],[98.2691,11.9209]]],[[[97.9967,11.974],[98.0004,11.9611],[98.0051,11.9631],[98.0095,11.9586],[98.0028,11.9319],[97.9991,11.9335],[98.0019,11.9435],[97.9969,11.9471],[97.9932,11.9581],[97.9779,11.9606],[97.972,11.9526],[97.9667,11.9535],[97.9628,11.9586],[97.9711,11.9682],[97.9847,11.9654],[97.9831,11.9736],[97.9914,11.9714],[97.9894,11.9677],[97.9941,11.9654],[97.9967,11.974]]],[[[97.9807,11.9719],[97.9779,11.9768],[97.9832,11.9789],[97.9829,11.9763],[97.9807,11.9719]]],[[[98.2514,11.9906],[98.2526,11.9821],[98.2575,11.9808],[98.2592,11.984],[98.2654,11.9731],[98.2588,11.9676],[98.2606,11.9538],[98.2652,11.9546],[98.2706,11.9474],[98.2747,11.9472],[98.2714,11.9421],[98.2691,11.9415],[98.2692,11.9439],[98.2687,11.945],[98.2637,11.9395],[98.2653,11.9322],[98.2614,11.9281],[98.2421,11.938],[98.2347,11.9518],[98.2241,11.9519],[98.2284,11.9552],[98.2249,11.9667],[98.2274,11.9696],[98.2311,11.964],[98.2393,11.9664],[98.2375,11.9795],[98.2426,11.9821],[98.2457,11.9921],[98.2514,11.9906]]],[[[98.6037,11.993],[98.633,11.9909],[98.6578,11.9812],[98.6787,11.9777],[98.6862,11.9658],[98.6855,11.9482],[98.6752,11.9448],[98.6677,11.9537],[98.6564,11.9545],[98.64,11.9639],[98.6164,11.9696],[98.5996,11.9826],[98.6037,11.993]]],[[[97.9214,12.0046],[97.922,11.9842],[97.9123,11.9826],[97.9131,11.9915],[97.9172,11.9918],[97.9186,11.9967],[97.9129,11.9971],[97.9127,12.0],[97.92,11.9991],[97.9214,12.0046]]],[[[98.1446,12.0055],[98.1469,11.9986],[98.1421,11.998],[98.1364,12.0045],[98.1446,12.0055]]],[[[97.7448,12.0156],[97.7537,12.0011],[97.7458,11.9918],[97.7387,11.9936],[97.7362,12.0111],[97.7373,12.0148],[97.7448,12.0156]]],[[[97.9822,12.0297],[97.9945,12.0116],[97.9938,12.0068],[97.9815,12.0101],[97.9796,12.0196],[97.9699,12.0182],[97.9737,12.0254],[97.9802,12.0261],[97.9822,12.0297]]],[[[98.5503,12.019],[98.5472,12.0193],[98.5469,12.0088],[98.5401,12.0093],[98.532,12.0256],[98.5384,12.0331],[98.5538,12.0335],[98.5555,12.0283],[98.5503,12.019]]],[[[97.7887,12.0471],[97.7825,12.0438],[97.7722,12.0452],[97.7725,12.0406],[97.7638,12.0376],[97.7584,12.044],[97.7663,12.0509],[97.7757,12.0475],[97.7818,12.0522],[97.7887,12.0471]]],[[[97.943,12.0491],[97.9401,12.0489],[97.9413,12.055],[97.943,12.0491]]],[[[97.6946,12.0488],[97.6757,12.0341],[97.6697,12.0352],[97.6654,12.0256],[97.6561,12.0266],[97.6559,12.0175],[97.6503,12.0172],[97.6537,12.0214],[97.6531,12.0441],[97.6606,12.0482],[97.6726,12.0492],[97.6732,12.059],[97.6857,12.0569],[97.6946,12.0488]]],[[[98.4033,12.0623],[98.4029,12.0579],[98.395,12.0572],[98.3907,12.0633],[98.3995,12.065],[98.4033,12.0623]]],[[[97.654,12.0671],[97.6504,12.051],[97.6526,12.0453],[97.6496,12.0418],[97.646,12.0431],[97.6454,12.0477],[97.6406,12.0467],[97.6356,12.0501],[97.6353,12.0554],[97.6416,12.0575],[97.6428,12.0661],[97.654,12.0671]]],[[[97.9619,12.0671],[97.9673,12.0736],[97.9707,12.0667],[97.9798,12.0678],[97.9829,12.062],[97.977,12.0644],[97.9749,12.0611],[97.9708,12.0656],[97.9682,12.059],[97.9659,12.0617],[97.9618,12.0578],[97.9611,12.0533],[97.9706,12.0512],[97.965,12.0498],[97.963,12.0451],[97.9603,12.0466],[97.962,12.0424],[97.9669,12.0444],[97.9697,12.041],[97.9622,12.038],[97.9643,12.0345],[97.9596,12.0302],[97.9555,12.0474],[97.9574,12.0502],[97.9547,12.0524],[97.9592,12.0561],[97.9565,12.0619],[97.9505,12.0626],[97.9499,12.0656],[97.9572,12.0663],[97.9603,12.0751],[97.9619,12.0671]]],[[[98.0044,12.0748],[98.023,12.0749],[98.0192,12.0594],[98.014,12.0614],[98.0129,12.069],[98.0081,12.0726],[97.9951,12.07],[97.9954,12.0743],[97.9986,12.0723],[98.0014,12.0784],[98.0044,12.0748]]],[[[97.9764,12.1087],[97.9782,12.0932],[97.9754,12.0962],[97.9739,12.093],[97.9761,12.0891],[97.9718,12.089],[97.9683,12.0938],[97.9764,12.1087]]],[[[98.438,12.1012],[98.4492,12.0952],[98.451,12.0883],[98.4654,12.0862],[98.4657,12.0788],[98.4602,12.0703],[98.4811,12.0603],[98.4818,12.0543],[98.4908,12.0447],[98.4872,12.0419],[98.4895,12.041],[98.4899,12.0291],[98.4914,12.0313],[98.4967,12.0294],[98.4993,12.0158],[98.5095,12.0024],[98.5104,11.9953],[98.5186,11.9981],[98.5431,11.994],[98.5581,11.996],[98.5678,11.9909],[98.5753,11.9824],[98.6173,11.9604],[98.6247,11.958],[98.636,11.9597],[98.6554,11.9506],[98.6687,11.9499],[98.6711,11.9453],[98.6638,11.9375],[98.6644,11.9265],[98.6554,11.9203],[98.6476,11.9234],[98.643,11.9198],[98.6197,11.919],[98.6013,11.9127],[98.5545,11.9182],[98.5373,11.91],[98.5139,11.8891],[98.5067,11.8791],[98.4964,11.8758],[98.4737,11.8764],[98.4598,11.8931],[98.4638,11.9022],[98.458,11.9236],[98.4519,11.9261],[98.4541,11.95],[98.461,11.9538],[98.4608,11.9567],[98.4555,11.9575],[98.4552,11.9618],[98.4654,11.9642],[98.4669,11.9719],[98.463,11.984],[98.4645,11.9971],[98.4558,11.9908],[98.4442,11.9895],[98.4423,11.9833],[98.4393,11.9897],[98.441,12.0058],[98.4378,12.0207],[98.4316,12.0288],[98.4318,12.0392],[98.4388,12.0527],[98.4382,12.0569],[98.433,12.0793],[98.4284,12.0826],[98.4284,12.0895],[98.421,12.0928],[98.4214,12.0958],[98.4331,12.1033],[98.4371,12.1126],[98.438,12.1012]]],[[[97.9894,12.117],[97.998,12.1127],[97.9988,12.1028],[98.0021,12.103],[97.9963,12.0959],[97.9933,12.1084],[97.9894,12.1087],[97.9875,12.1037],[97.9876,12.1086],[97.9827,12.1125],[97.9894,12.117]]],[[[97.973,12.1196],[97.9674,12.1184],[97.9722,12.1139],[97.9678,12.1078],[97.9636,12.1115],[97.9641,12.1199],[97.9685,12.1242],[97.973,12.1196]]],[[[97.9739,12.1269],[97.9755,12.123],[97.9707,12.1247],[97.9739,12.1269]]],[[[98.3882,12.1113],[98.3836,12.1188],[98.3814,12.1273],[98.3872,12.1262],[98.3908,12.12],[98.3882,12.1113]]],[[[98.1301,12.1335],[98.1388,12.1341],[98.1342,12.1252],[98.1301,12.1335]]],[[[97.9785,12.1297],[97.9817,12.12],[97.9806,12.1173],[97.9769,12.1306],[97.9709,12.1332],[97.9727,12.1393],[97.9785,12.1297]]],[[[98.0667,12.1278],[98.0613,12.1348],[98.0649,12.14],[98.0687,12.1296],[98.0667,12.1278]]],[[[98.0025,12.1333],[98.0075,12.1317],[98.007,12.1272],[98.0116,12.1251],[98.0047,12.1241],[98.002,12.1282],[97.9928,12.1307],[97.9955,12.1335],[97.9924,12.1377],[97.9953,12.1468],[98.0025,12.1333]]],[[[97.7327,12.1468],[97.7466,12.14],[97.7358,12.1362],[97.7386,12.1345],[97.7352,12.1289],[97.7451,12.1309],[97.738,12.1208],[97.7273,12.1215],[97.7203,12.1135],[97.7221,12.1094],[97.7189,12.1068],[97.7161,12.1106],[97.7221,12.1175],[97.7215,12.1268],[97.7169,12.1304],[97.7196,12.1355],[97.7154,12.1382],[97.7152,12.1442],[97.7231,12.1477],[97.7327,12.1468]]],[[[98.0563,12.1427],[98.0549,12.1442],[98.0574,12.1486],[98.0582,12.147],[98.0563,12.1427]]],[[[98.651,12.1565],[98.6464,12.1586],[98.6468,12.1615],[98.6511,12.1609],[98.651,12.1565]]],[[[98.0264,12.1686],[98.0234,12.1682],[98.0278,12.1705],[98.0264,12.1686]]],[[[98.3926,12.1797],[98.4057,12.1716],[98.403,12.1682],[98.4047,12.1546],[98.4017,12.145],[98.3994,12.1413],[98.3886,12.1404],[98.3778,12.1516],[98.3839,12.1702],[98.3926,12.1797]]],[[[98.1507,12.185],[98.1514,12.1756],[98.155,12.1696],[98.1499,12.1634],[98.1468,12.1652],[98.148,12.1705],[98.1423,12.1762],[98.1458,12.1756],[98.1507,12.185]]],[[[98.041,12.1951],[98.0557,12.1915],[98.0532,12.1866],[98.0477,12.1859],[98.0437,12.1902],[98.0379,12.1859],[98.041,12.1951]]],[[[98.1533,12.1986],[98.1571,12.1926],[98.1525,12.1967],[98.1533,12.1986]]],[[[98.6629,12.1873],[98.6708,12.1998],[98.6839,12.2037],[98.6889,12.2011],[98.6747,12.1901],[98.6629,12.1873]]],[[[98.6977,12.2031],[98.6869,12.2058],[98.6949,12.2102],[98.7078,12.208],[98.6977,12.2031]]],[[[98.1619,12.2094],[98.1613,12.2059],[98.1584,12.2035],[98.1556,12.2085],[98.1619,12.2094]]],[[[98.6084,12.1966],[98.6073,12.205],[98.6188,12.2119],[98.6161,12.2011],[98.6084,12.1966]]],[[[98.1832,12.1966],[98.1801,12.2011],[98.1849,12.2099],[98.1913,12.2121],[98.1832,12.1966]]],[[[98.1421,12.2138],[98.1536,12.2114],[98.1511,12.2079],[98.1543,12.2057],[98.1513,12.2035],[98.1533,12.2019],[98.1395,12.2004],[98.1273,12.2117],[98.1421,12.2138]]],[[[98.7032,12.2114],[98.6952,12.2122],[98.7004,12.2161],[98.7032,12.2114]]],[[[98.4307,12.2109],[98.4249,12.2171],[98.4253,12.2191],[98.4285,12.2188],[98.4307,12.2109]]],[[[98.6898,12.2116],[98.6948,12.2199],[98.6991,12.2173],[98.6989,12.2162],[98.6898,12.2116]]],[[[98.4069,12.2097],[98.4193,12.211],[98.4196,12.2026],[98.4167,12.202],[98.4238,12.1943],[98.4271,12.1827],[98.4112,12.1789],[98.4092,12.1732],[98.3978,12.1998],[98.4007,12.2046],[98.3983,12.2136],[98.4014,12.2202],[98.409,12.2133],[98.4069,12.2097]]],[[[98.2464,12.2233],[98.2476,12.2115],[98.2514,12.2026],[98.2444,12.2035],[98.243,12.2228],[98.2464,12.2233]]],[[[98.2196,12.2246],[98.2091,12.2236],[98.2069,12.2242],[98.2151,12.227],[98.2196,12.2246]]],[[[98.413,12.2277],[98.4227,12.2294],[98.4239,12.2255],[98.4211,12.2222],[98.413,12.2277]]],[[[98.6864,12.2106],[98.6575,12.1997],[98.6455,12.1857],[98.6351,12.1903],[98.6428,12.2096],[98.6433,12.221],[98.66,12.2299],[98.6706,12.2332],[98.6886,12.2326],[98.6956,12.2226],[98.6864,12.2106]]],[[[98.4571,12.2339],[98.4679,12.2279],[98.4693,12.2239],[98.4684,12.2206],[98.4597,12.2173],[98.4581,12.2125],[98.4496,12.2175],[98.4458,12.2296],[98.4473,12.2344],[98.4571,12.2339]]],[[[97.8778,12.2364],[97.8762,12.2384],[97.8804,12.2441],[97.882,12.2421],[97.8778,12.2364]]],[[[97.9406,12.2461],[97.9439,12.2259],[97.9402,12.2124],[97.9339,12.2341],[97.9406,12.2461]]],[[[98.4434,12.2441],[98.436,12.2503],[98.4352,12.2526],[98.4468,12.2457],[98.4434,12.2441]]],[[[98.4921,12.2654],[98.4806,12.2691],[98.4791,12.2711],[98.4954,12.2784],[98.4991,12.272],[98.4921,12.2654]]],[[[98.4339,12.2727],[98.4284,12.2728],[98.4275,12.2782],[98.4341,12.2782],[98.4339,12.2727]]],[[[98.3349,12.2839],[98.3328,12.2901],[98.3336,12.2917],[98.3371,12.2867],[98.3349,12.2839]]],[[[98.528,12.2762],[98.5157,12.2753],[98.5068,12.2845],[98.5169,12.2934],[98.5385,12.2932],[98.5347,12.2831],[98.528,12.2762]]],[[[98.1601,12.2852],[98.1541,12.2881],[98.16,12.2944],[98.1629,12.29],[98.1601,12.2852]]],[[[98.0589,12.2943],[98.0539,12.2926],[98.0576,12.2965],[98.0589,12.2943]]],[[[97.8839,12.2903],[97.8904,12.2926],[97.8868,12.2829],[97.8851,12.2871],[97.8789,12.2856],[97.8782,12.2907],[97.8713,12.2832],[97.8671,12.2829],[97.8654,12.2866],[97.8749,12.3002],[97.8773,12.2933],[97.8839,12.2903]]],[[[98.4662,12.2961],[98.4584,12.2954],[98.458,12.2959],[98.4672,12.3029],[98.4662,12.2961]]],[[[97.9551,12.3027],[97.962,12.3006],[97.9578,12.2924],[97.9532,12.2925],[97.9499,12.2796],[97.9454,12.2905],[97.9425,12.2906],[97.9467,12.2949],[97.954,12.2941],[97.9551,12.3027]]],[[[97.9677,12.2906],[97.964,12.3],[97.9666,12.3049],[97.9651,12.3006],[97.9684,12.2974],[97.9677,12.2906]]],[[[97.7809,12.2664],[97.7691,12.2645],[97.7689,12.269],[97.7739,12.2728],[97.7749,12.2774],[97.7711,12.2806],[97.773,12.2857],[97.7934,12.305],[97.8004,12.3042],[97.8007,12.2978],[97.7964,12.2965],[97.7996,12.2887],[97.7966,12.2816],[97.7885,12.274],[97.7814,12.2728],[97.7809,12.2664]]],[[[98.0818,12.2944],[98.0949,12.2967],[98.1079,12.2876],[98.1135,12.2905],[98.1233,12.2883],[98.1263,12.2914],[98.1363,12.2846],[98.1369,12.2806],[98.1305,12.2759],[98.1273,12.2769],[98.1261,12.2763],[98.128,12.2726],[98.1385,12.2721],[98.1388,12.2657],[98.1305,12.2673],[98.1294,12.2596],[98.1342,12.2567],[98.1288,12.2538],[98.1292,12.2483],[98.1323,12.2473],[98.1316,12.2382],[98.126,12.2308],[98.1341,12.2286],[98.1361,12.2199],[98.126,12.2196],[98.1268,12.227],[98.1228,12.2166],[98.1112,12.2087],[98.1137,12.2085],[98.1102,12.2033],[98.1035,12.2004],[98.1056,12.198],[98.1113,12.2022],[98.1097,12.1987],[98.1113,12.1969],[98.1142,12.2004],[98.1161,12.1954],[98.1174,12.2034],[98.1257,12.2074],[98.1336,12.1965],[98.1326,12.1937],[98.1367,12.1987],[98.1374,12.1937],[98.1406,12.1967],[98.1462,12.195],[98.1483,12.1906],[98.1418,12.1887],[98.1442,12.1841],[98.1374,12.183],[98.139,12.1783],[98.1335,12.1742],[98.1384,12.149],[98.1403,12.1509],[98.1413,12.1482],[98.1473,12.1477],[98.1493,12.1509],[98.1513,12.1487],[98.1488,12.1372],[98.1399,12.1406],[98.1337,12.1509],[98.1342,12.1425],[98.1289,12.1403],[98.1274,12.1522],[98.1223,12.1549],[98.1256,12.1618],[98.1152,12.1679],[98.1036,12.1706],[98.0976,12.1672],[98.0973,12.1611],[98.0803,12.1631],[98.0781,12.1683],[98.0731,12.1688],[98.0745,12.1733],[98.0673,12.1885],[98.0677,12.1955],[98.0501,12.2051],[98.0459,12.2041],[98.0447,12.207],[98.0491,12.2135],[98.0416,12.2197],[98.0482,12.2209],[98.0455,12.2241],[98.0476,12.2321],[98.0454,12.2345],[98.0496,12.2419],[98.0471,12.2452],[98.0549,12.2486],[98.051,12.2534],[98.0533,12.2556],[98.0584,12.2532],[98.0604,12.2558],[98.0573,12.2639],[98.062,12.2726],[98.0579,12.2797],[98.0629,12.28],[98.0626,12.288],[98.0665,12.2869],[98.0688,12.2932],[98.077,12.2953],[98.0756,12.2983],[98.0791,12.3052],[98.0818,12.2944]]],[[[98.0629,12.3024],[98.0585,12.3024],[98.0612,12.3091],[98.0606,12.3047],[98.0629,12.3024]]],[[[98.0873,12.306],[98.0851,12.3049],[98.0811,12.3078],[98.0849,12.3091],[98.0873,12.306]]],[[[98.0679,12.3034],[98.0669,12.3063],[98.0691,12.3097],[98.0707,12.3074],[98.0679,12.3034]]],[[[98.3576,12.2908],[98.351,12.3037],[98.3573,12.3102],[98.3627,12.3071],[98.3646,12.3002],[98.3576,12.2908]]],[[[98.2587,12.3034],[98.2555,12.3077],[98.2621,12.3104],[98.2615,12.3044],[98.2587,12.3034]]],[[[98.0481,12.3143],[98.041,12.3042],[98.0349,12.3067],[98.0421,12.3133],[98.0481,12.3143]]],[[[98.0797,12.3131],[98.0763,12.3144],[98.0762,12.3163],[98.0779,12.3165],[98.0797,12.3131]]],[[[98.3961,12.317],[98.3953,12.2992],[98.3863,12.2959],[98.3839,12.2908],[98.3889,12.2812],[98.3858,12.2651],[98.3801,12.2681],[98.3813,12.2749],[98.3772,12.2763],[98.3796,12.2858],[98.3732,12.2905],[98.3694,12.3142],[98.3788,12.3169],[98.384,12.3071],[98.3858,12.3097],[98.3893,12.3079],[98.3833,12.3118],[98.3871,12.3176],[98.3961,12.317]]],[[[98.6182,12.3125],[98.6139,12.3204],[98.6235,12.3202],[98.6288,12.3169],[98.6182,12.3125]]],[[[98.5784,12.3233],[98.6138,12.3192],[98.6164,12.3129],[98.5981,12.3105],[98.5736,12.3209],[98.5784,12.3233]]],[[[98.3924,12.3309],[98.3904,12.3284],[98.3874,12.3269],[98.3924,12.3309]]],[[[98.0642,12.3126],[98.0633,12.3157],[98.0745,12.3331],[98.0759,12.3285],[98.0642,12.3126]]],[[[98.5294,12.317],[98.5218,12.3197],[98.5211,12.3274],[98.5285,12.3369],[98.5399,12.3399],[98.5477,12.329],[98.5294,12.317]]],[[[98.4029,12.3349],[98.3999,12.3358],[98.3934,12.3486],[98.3988,12.347],[98.4029,12.3349]]],[[[98.5006,12.3323],[98.4955,12.3343],[98.4969,12.3436],[98.5068,12.3484],[98.509,12.3456],[98.5074,12.3398],[98.5006,12.3323]]],[[[98.2517,12.3352],[98.2489,12.3283],[98.2549,12.324],[98.2542,12.3187],[98.2589,12.3132],[98.253,12.3071],[98.2584,12.2966],[98.2495,12.2922],[98.2515,12.2888],[98.2438,12.2914],[98.2496,12.2952],[98.2457,12.2972],[98.2487,12.303],[98.2435,12.3044],[98.2441,12.3156],[98.2481,12.315],[98.2479,12.3227],[98.2506,12.3248],[98.2464,12.3282],[98.247,12.3316],[98.2442,12.3303],[98.245,12.3354],[98.2421,12.3377],[98.2435,12.3417],[98.2409,12.3441],[98.2445,12.3501],[98.2517,12.3352]]],[[[98.0786,12.3351],[98.077,12.3399],[98.0823,12.3592],[98.0854,12.3571],[98.0842,12.3482],[98.0786,12.3351]]],[[[98.1728,12.3644],[98.1789,12.3538],[98.1756,12.3518],[98.1649,12.3583],[98.1716,12.3601],[98.1728,12.3644]]],[[[98.1813,12.3638],[98.175,12.3667],[98.173,12.3714],[98.1811,12.3681],[98.1813,12.3638]]],[[[98.1237,12.3702],[98.1373,12.3709],[98.1409,12.3662],[98.1352,12.3641],[98.1309,12.3569],[98.1369,12.3549],[98.145,12.3619],[98.158,12.3549],[98.1558,12.352],[98.1553,12.3555],[98.1511,12.3548],[98.1493,12.3511],[98.1454,12.3541],[98.1459,12.3508],[98.1404,12.349],[98.1402,12.3442],[98.149,12.3406],[98.1589,12.3414],[98.1585,12.3377],[98.1616,12.3363],[98.1583,12.3341],[98.1522,12.3381],[98.1488,12.3278],[98.1419,12.3333],[98.1403,12.3259],[98.1396,12.3314],[98.1342,12.3354],[98.1275,12.3342],[98.1293,12.3266],[98.1185,12.3337],[98.1197,12.3371],[98.1172,12.3377],[98.1149,12.3327],[98.1127,12.3339],[98.1129,12.3289],[98.11,12.333],[98.1126,12.3425],[98.108,12.3461],[98.1039,12.3422],[98.1043,12.3362],[98.0984,12.332],[98.0961,12.3353],[98.1012,12.3404],[98.0956,12.3463],[98.0964,12.3506],[98.1065,12.3551],[98.0993,12.3624],[98.107,12.3658],[98.1112,12.3627],[98.1151,12.3678],[98.1169,12.3614],[98.1237,12.3702]]],[[[98.2238,12.3706],[98.2317,12.3781],[98.2369,12.3659],[98.2343,12.3594],[98.2239,12.3679],[98.2179,12.3657],[98.2155,12.3583],[98.2086,12.369],[98.2144,12.3726],[98.2134,12.3766],[98.2163,12.3781],[98.2238,12.3706]]],[[[98.0121,12.3816],[98.0141,12.3775],[98.0119,12.3743],[98.0182,12.3719],[98.0154,12.3647],[98.0048,12.3742],[98.0071,12.3806],[98.0121,12.3816]]],[[[98.4119,12.3749],[98.4113,12.3816],[98.4158,12.3859],[98.416,12.3804],[98.4119,12.3749]]],[[[98.1441,12.3846],[98.1398,12.3849],[98.1427,12.3803],[98.1335,12.3799],[98.1409,12.3921],[98.1447,12.3905],[98.1422,12.3884],[98.1441,12.3846]]],[[[98.4364,12.3931],[98.4314,12.3661],[98.4266,12.3611],[98.424,12.3716],[98.4199,12.3737],[98.4209,12.3789],[98.4364,12.3931]]],[[[98.4938,12.3579],[98.4676,12.3248],[98.4371,12.3328],[98.4263,12.3243],[98.4236,12.3267],[98.4233,12.3335],[98.4293,12.3404],[98.4318,12.3505],[98.4705,12.3974],[98.4852,12.3852],[98.4946,12.3684],[98.4938,12.3579]]],[[[98.4235,12.3985],[98.4234,12.3938],[98.4185,12.391],[98.4182,12.3953],[98.4235,12.3985]]],[[[98.4371,12.418],[98.4343,12.4069],[98.4313,12.4073],[98.4371,12.418]]],[[[98.5726,12.4264],[98.6021,12.4023],[98.6127,12.3902],[98.6375,12.3851],[98.6435,12.3767],[98.6884,12.3527],[98.6957,12.3449],[98.7037,12.3449],[98.7075,12.351],[98.7313,12.3417],[98.7687,12.3334],[98.7753,12.3225],[98.7736,12.3158],[98.7766,12.31],[98.7916,12.3065],[98.8099,12.3091],[98.8198,12.2922],[98.8353,12.2888],[98.84,12.2844],[98.8381,12.2672],[98.8418,12.2525],[98.8554,12.2477],[98.8569,12.2311],[98.8665,12.2225],[98.8575,12.2144],[98.8504,12.2198],[98.8316,12.22],[98.8271,12.2231],[98.8093,12.22],[98.8039,12.2043],[98.8116,12.195],[98.8082,12.18],[98.8172,12.1694],[98.8087,12.168],[98.8028,12.1604],[98.7964,12.1621],[98.792,12.1546],[98.7844,12.1545],[98.7752,12.1372],[98.7703,12.1361],[98.7667,12.129],[98.7587,12.1279],[98.7549,12.1024],[98.7593,12.0964],[98.7701,12.0951],[98.7748,12.0889],[98.7955,12.0933],[98.8038,12.0881],[98.8313,12.0604],[98.8304,12.0511],[98.8354,12.0339],[98.8453,12.0331],[98.8558,12.0404],[98.8651,12.0399],[98.8678,12.023],[98.8724,12.0174],[98.8733,11.9826],[98.8784,11.9657],[98.8834,11.9632],[98.8872,11.9676],[98.89,11.9641],[98.8993,11.9318],[98.9057,11.9285],[98.9112,11.9189],[98.9094,11.9127],[98.913,11.8989],[98.9082,11.8924],[98.9088,11.8846],[98.9225,11.8651],[98.9327,11.8654],[98.917,11.8434],[98.9079,11.8431],[98.893,11.8299],[98.8922,11.8233],[98.8867,11.8219],[98.8809,11.8012],[98.8745,11.7924],[98.858,11.7968],[98.8658,11.7836],[98.8626,11.7828],[98.8634,11.7724],[98.8552,11.757],[98.8538,11.7342],[98.8469,11.7311],[98.8439,11.7258],[98.8295,11.7325],[98.8105,11.7335],[98.7894,11.73],[98.7828,11.7502],[98.7846,11.7627],[98.8035,11.777],[98.8081,11.7838],[98.8141,11.8087],[98.8198,11.8187],[98.8182,11.8409],[98.812,11.8456],[98.8096,11.8276],[98.8015,11.809],[98.7869,11.7947],[98.7757,11.8021],[98.7724,11.7996],[98.7749,11.7845],[98.7593,11.7643],[98.7355,11.759],[98.7342,11.7528],[98.7244,11.7494],[98.7173,11.7411],[98.7139,11.7274],[98.7084,11.7241],[98.7002,11.7235],[98.7039,11.7426],[98.696,11.7495],[98.6942,11.7471],[98.7015,11.7426],[98.6969,11.7223],[98.7108,11.7088],[98.7115,11.704],[98.6986,11.6946],[98.6971,11.6865],[98.688,11.679],[98.6901,11.6716],[98.6871,11.6755],[98.6816,11.6747],[98.6763,11.6807],[98.6498,11.6896],[98.6221,11.7121],[98.6163,11.7115],[98.6042,11.7196],[98.6035,11.7256],[98.6114,11.7344],[98.5952,11.7454],[98.5903,11.7601],[98.5988,11.7674],[98.6026,11.766],[98.6041,11.7705],[98.6095,11.7714],[98.6169,11.7895],[98.627,11.7904],[98.6461,11.7745],[98.6679,11.7709],[98.6611,11.7768],[98.6489,11.7778],[98.6281,11.7958],[98.6177,11.7972],[98.6033,11.7894],[98.6018,11.7965],[98.632,11.8376],[98.6409,11.8376],[98.6506,11.8238],[98.654,11.8244],[98.6493,11.8363],[98.6393,11.8454],[98.6305,11.8457],[98.6095,11.8395],[98.5998,11.8418],[98.5966,11.8459],[98.6088,11.8502],[98.6552,11.8544],[98.6777,11.8829],[98.6859,11.8804],[98.6966,11.8698],[98.7081,11.8645],[98.717,11.8646],[98.7268,11.8721],[98.7224,11.8764],[98.7161,11.8716],[98.709,11.8721],[98.6898,11.8877],[98.6779,11.8897],[98.6679,11.8862],[98.6544,11.8686],[98.6457,11.8649],[98.6268,11.8719],[98.6004,11.8757],[98.548,11.8709],[98.5419,11.8794],[98.5396,11.8893],[98.5497,11.9045],[98.5579,11.9079],[98.5956,11.9035],[98.6322,11.9157],[98.6513,11.9149],[98.6633,11.9193],[98.6686,11.922],[98.6664,11.9379],[98.6727,11.9427],[98.6849,11.9415],[98.6916,11.9338],[98.7115,11.9256],[98.7105,11.9292],[98.6945,11.9347],[98.6878,11.9426],[98.6915,11.9616],[98.6968,11.9637],[98.7199,11.9544],[98.7335,11.9531],[98.739,11.958],[98.7259,11.9589],[98.7139,11.9655],[98.7008,11.9965],[98.7025,12.0006],[98.7238,12.0017],[98.7331,11.9959],[98.7375,11.9987],[98.7281,12.007],[98.6976,12.0184],[98.6839,12.0285],[98.6953,12.0453],[98.7112,12.06],[98.7367,12.0701],[98.7389,12.0579],[98.7469,12.0426],[98.7564,12.0363],[98.7661,12.0212],[98.7762,12.0159],[98.7776,12.0182],[98.7639,12.0278],[98.7655,12.0312],[98.7449,12.0537],[98.7424,12.0706],[98.7368,12.0745],[98.6978,12.0639],[98.6696,12.0449],[98.6606,12.0488],[98.6385,12.0683],[98.6181,12.1008],[98.6193,12.1061],[98.6344,12.1023],[98.6414,12.1042],[98.6551,12.1174],[98.6612,12.1131],[98.6655,12.1162],[98.6625,12.1215],[98.6547,12.1228],[98.6318,12.1076],[98.6285,12.1089],[98.6218,12.1238],[98.6171,12.1253],[98.6183,12.1383],[98.6336,12.1502],[98.6481,12.1559],[98.6544,12.1535],[98.6581,12.1562],[98.6909,12.1544],[98.6949,12.1515],[98.6978,12.1408],[98.7038,12.106],[98.7303,12.1072],[98.7083,12.1104],[98.7009,12.1509],[98.6965,12.1574],[98.6862,12.1611],[98.6738,12.1596],[98.6545,12.1704],[98.6443,12.1662],[98.6403,12.1698],[98.6427,12.1778],[98.6539,12.176],[98.6747,12.1833],[98.7042,12.2043],[98.7291,12.1935],[98.7323,12.1816],[98.737,12.1848],[98.7292,12.2022],[98.7086,12.2176],[98.6917,12.24],[98.6517,12.2434],[98.6306,12.2281],[98.6262,12.2292],[98.6196,12.2151],[98.6059,12.206],[98.6056,12.1986],[98.5993,12.1955],[98.5696,12.2052],[98.5545,12.2008],[98.5391,12.2181],[98.5255,12.2612],[98.5507,12.2821],[98.5635,12.3011],[98.5731,12.3045],[98.5941,12.2991],[98.6062,12.3032],[98.6381,12.3061],[98.6694,12.3192],[98.6742,12.3171],[98.6778,12.3208],[98.6722,12.3284],[98.6658,12.3246],[98.6367,12.3193],[98.5731,12.3317],[98.5571,12.3303],[98.5377,12.3453],[98.5355,12.3539],[98.5383,12.3661],[98.5448,12.389],[98.5511,12.3992],[98.5607,12.399],[98.5651,12.3957],[98.5813,12.3965],[98.557,12.4041],[98.5618,12.4267],[98.5726,12.4264]]],[[[98.0121,12.4201],[98.0044,12.4194],[98.0097,12.4231],[98.0069,12.4271],[98.0091,12.4288],[98.0119,12.4281],[98.0121,12.4201]]],[[[98.1381,12.4327],[98.1475,12.4256],[98.1527,12.4286],[98.1638,12.4246],[98.1636,12.4204],[98.1587,12.4187],[98.1652,12.4159],[98.1681,12.4092],[98.1646,12.4107],[98.1608,12.4054],[98.1563,12.4066],[98.1496,12.4151],[98.1502,12.4091],[98.1471,12.41],[98.1466,12.4158],[98.1424,12.4051],[98.14,12.4074],[98.1377,12.4052],[98.1388,12.4107],[98.1344,12.4101],[98.1343,12.4152],[98.1194,12.4195],[98.1259,12.4234],[98.1277,12.4213],[98.1349,12.4237],[98.1323,12.4309],[98.1381,12.4327]]],[[[98.0949,12.4342],[98.0879,12.4324],[98.0932,12.4272],[98.097,12.4306],[98.1012,12.4253],[98.0984,12.415],[98.1062,12.412],[98.1132,12.4143],[98.1099,12.4092],[98.1136,12.4045],[98.1206,12.405],[98.1231,12.4029],[98.1145,12.4008],[98.1099,12.404],[98.1113,12.3967],[98.1077,12.3895],[98.1074,12.376],[98.0996,12.372],[98.0953,12.3628],[98.0869,12.3575],[98.0824,12.3601],[98.0839,12.3642],[98.0723,12.3678],[98.0588,12.3624],[98.0602,12.356],[98.064,12.3572],[98.0694,12.3521],[98.0587,12.3437],[98.0585,12.3343],[98.0514,12.3324],[98.0472,12.3268],[98.049,12.3258],[98.0363,12.3164],[98.0346,12.3234],[98.0265,12.3204],[98.0274,12.3152],[98.0303,12.3174],[98.0313,12.3142],[98.0114,12.3026],[98.0069,12.3076],[98.0009,12.3044],[98.0062,12.3007],[98.0099,12.2698],[97.9952,12.2816],[97.9944,12.2949],[97.9885,12.3031],[97.9779,12.3093],[97.9797,12.3175],[97.9722,12.3159],[97.9709,12.3106],[97.9689,12.3127],[97.9716,12.3207],[97.9682,12.3239],[97.9611,12.3242],[97.9597,12.3279],[97.9421,12.3172],[97.9492,12.334],[97.9759,12.3478],[97.9671,12.359],[97.9704,12.3643],[97.9685,12.3704],[97.9596,12.3648],[97.9594,12.3567],[97.9536,12.355],[97.9469,12.3414],[97.9374,12.3392],[97.9392,12.3572],[97.9436,12.3642],[97.9564,12.3636],[97.9513,12.3762],[97.9536,12.3863],[97.9635,12.3928],[97.9759,12.3934],[97.9712,12.3805],[97.9714,12.3741],[97.9738,12.3741],[97.9821,12.3904],[97.9854,12.39],[97.9919,12.3999],[97.993,12.3899],[98.0021,12.3938],[98.0046,12.3921],[98.0087,12.4025],[98.0199,12.4085],[98.0281,12.4177],[98.0205,12.3986],[98.0248,12.3894],[98.022,12.3874],[98.0194,12.3923],[98.018,12.3885],[98.012,12.3861],[98.0068,12.3924],[98.0021,12.3848],[98.0031,12.3765],[97.9989,12.3705],[98.0032,12.3746],[98.0124,12.3604],[97.9953,12.3615],[97.9966,12.3546],[97.9906,12.3498],[97.9984,12.3525],[97.9947,12.3456],[97.9954,12.3432],[98.0037,12.3561],[98.0212,12.3601],[98.0228,12.3691],[98.0269,12.369],[98.0251,12.3621],[98.0274,12.3565],[98.0369,12.3553],[98.0505,12.3666],[98.0477,12.3715],[98.05,12.3746],[98.0442,12.38],[98.0664,12.3979],[98.0685,12.4045],[98.0787,12.4086],[98.084,12.4169],[98.0819,12.4319],[98.0935,12.4376],[98.0949,12.4342]]],[[[98.447,12.418],[98.4443,12.4314],[98.4568,12.4406],[98.4545,12.4324],[98.447,12.418]]],[[[98.2181,12.438],[98.216,12.443],[98.2172,12.4438],[98.2183,12.4415],[98.2181,12.438]]],[[[98.0299,12.4411],[98.0204,12.4332],[98.0214,12.4301],[98.0177,12.4303],[98.0139,12.4371],[98.0187,12.4428],[98.0246,12.4413],[98.0275,12.4455],[98.0299,12.4411]]],[[[98.5108,12.4456],[98.5227,12.4209],[98.5247,12.4085],[98.5091,12.3739],[98.5019,12.3716],[98.4962,12.3741],[98.489,12.388],[98.5045,12.4028],[98.5114,12.4023],[98.5144,12.4039],[98.516,12.4157],[98.514,12.4234],[98.5109,12.4281],[98.5017,12.4323],[98.5003,12.4378],[98.5108,12.4456]]],[[[98.2197,12.4477],[98.2166,12.4534],[98.2175,12.4552],[98.2206,12.4512],[98.2197,12.4477]]],[[[98.2139,12.4551],[98.2144,12.4517],[98.2139,12.4494],[98.2106,12.4552],[98.2139,12.4551]]],[[[98.0899,12.4554],[98.0951,12.4544],[98.092,12.4512],[98.0843,12.4594],[98.088,12.4602],[98.0899,12.4554]]],[[[98.5873,12.4316],[98.5733,12.4452],[98.5732,12.4619],[98.5786,12.4625],[98.5867,12.4522],[98.5873,12.4316]]],[[[97.838,12.44],[97.8299,12.437],[97.8301,12.431],[97.8221,12.4293],[97.8222,12.4425],[97.8184,12.4433],[97.8208,12.4462],[97.8211,12.4734],[97.8258,12.4695],[97.8274,12.4587],[97.8343,12.4548],[97.8315,12.4491],[97.838,12.44]]],[[[98.5268,12.4673],[98.5239,12.4732],[98.5254,12.4766],[98.5277,12.4697],[98.5268,12.4673]]],[[[98.1719,12.4752],[98.1711,12.4819],[98.1749,12.4827],[98.1739,12.4762],[98.1719,12.4752]]],[[[98.1567,12.489],[98.1549,12.4792],[98.1497,12.4732],[98.1509,12.4691],[98.1443,12.4693],[98.1482,12.4759],[98.1434,12.491],[98.1482,12.4928],[98.1496,12.4869],[98.1557,12.4993],[98.1567,12.489]]],[[[97.8013,12.4947],[97.7952,12.4968],[97.7901,12.5091],[97.8041,12.5043],[97.8013,12.4947]]],[[[98.5008,12.5147],[98.5057,12.5137],[98.5177,12.4964],[98.511,12.491],[98.5091,12.4819],[98.5079,12.4483],[98.4985,12.4367],[98.5013,12.4311],[98.5127,12.4237],[98.5152,12.4122],[98.5129,12.4032],[98.5043,12.4042],[98.4877,12.3903],[98.4683,12.4052],[98.4634,12.4163],[98.4688,12.4259],[98.4749,12.4566],[98.4773,12.499],[98.4889,12.5129],[98.5008,12.5208],[98.5008,12.5147]]],[[[98.2889,12.5322],[98.2854,12.5342],[98.2883,12.5358],[98.2889,12.5322]]],[[[98.4805,12.5568],[98.4805,12.5518],[98.4837,12.5486],[98.4758,12.5459],[98.4769,12.5541],[98.4805,12.5568]]],[[[98.2821,12.5519],[98.2753,12.5501],[98.2702,12.5539],[98.2701,12.563],[98.2752,12.5622],[98.2821,12.5519]]],[[[98.247,12.5643],[98.2633,12.5655],[98.2669,12.5488],[98.2736,12.5467],[98.2705,12.5431],[98.273,12.5327],[98.2785,12.5306],[98.2806,12.5351],[98.2863,12.5235],[98.2911,12.5254],[98.2908,12.5133],[98.2843,12.5016],[98.2701,12.4977],[98.2669,12.4899],[98.2586,12.4937],[98.2545,12.4881],[98.2543,12.4929],[98.2503,12.4942],[98.2371,12.4899],[98.2278,12.4971],[98.2223,12.5076],[98.2217,12.5263],[98.2282,12.5459],[98.2405,12.5488],[98.247,12.5643]]],[[[98.3006,12.5739],[98.2998,12.5764],[98.3018,12.5751],[98.3006,12.5739]]],[[[97.8548,12.5897],[97.8632,12.5877],[97.8636,12.582],[97.8702,12.5752],[97.8747,12.5753],[97.8808,12.5656],[97.8649,12.5591],[97.8676,12.5534],[97.8615,12.554],[97.8606,12.5498],[97.8566,12.5484],[97.8589,12.5413],[97.8557,12.5394],[97.8508,12.552],[97.8381,12.5541],[97.8339,12.5657],[97.8378,12.568],[97.8375,12.5718],[97.8233,12.5785],[97.8231,12.5816],[97.8278,12.581],[97.8255,12.5871],[97.8279,12.5919],[97.8461,12.5814],[97.8456,12.5889],[97.8388,12.599],[97.8446,12.603],[97.8526,12.6005],[97.8548,12.5897]]],[[[97.8572,12.6012],[97.8501,12.6038],[97.8488,12.6079],[97.8544,12.6168],[97.8644,12.6094],[97.8572,12.6012]]],[[[97.8786,12.6221],[97.8747,12.6205],[97.8706,12.6234],[97.8615,12.6168],[97.8577,12.6201],[97.8614,12.6278],[97.8651,12.6282],[97.8786,12.6221]]],[[[98.2173,12.6438],[98.2203,12.6449],[98.2237,12.6371],[98.2101,12.6356],[98.2143,12.64],[98.2112,12.6474],[98.2155,12.6499],[98.2173,12.6438]]],[[[98.1903,12.6498],[98.1846,12.653],[98.1952,12.6585],[98.1967,12.6542],[98.1903,12.6498]]],[[[98.2182,12.6602],[98.2079,12.6608],[98.2075,12.6666],[98.2182,12.6602]]],[[[98.3223,12.6701],[98.3248,12.6746],[98.3316,12.6748],[98.3268,12.6707],[98.3294,12.6668],[98.3382,12.6672],[98.3426,12.6618],[98.3479,12.6621],[98.3485,12.6675],[98.3568,12.6704],[98.3587,12.6781],[98.3679,12.667],[98.3653,12.6557],[98.3691,12.6549],[98.3812,12.6631],[98.3904,12.6466],[98.4014,12.6334],[98.4063,12.6316],[98.4066,12.6263],[98.3918,12.6132],[98.3905,12.5945],[98.3951,12.5925],[98.3908,12.5926],[98.39,12.5784],[98.384,12.5755],[98.3881,12.575],[98.3993,12.5603],[98.4066,12.5607],[98.4078,12.5528],[98.4108,12.5644],[98.4164,12.555],[98.4162,12.5432],[98.413,12.5381],[98.4163,12.5383],[98.4198,12.5324],[98.422,12.5364],[98.4269,12.5312],[98.4285,12.5207],[98.4309,12.5196],[98.4317,12.524],[98.4263,12.538],[98.4269,12.5465],[98.4356,12.5533],[98.4379,12.5614],[98.4412,12.5622],[98.4412,12.5682],[98.445,12.5692],[98.4404,12.572],[98.4385,12.5848],[98.4335,12.5926],[98.4368,12.5932],[98.4469,12.5849],[98.4379,12.6066],[98.4451,12.6109],[98.4599,12.6059],[98.4651,12.6002],[98.4652,12.5863],[98.4746,12.5842],[98.4792,12.5769],[98.477,12.5703],[98.4801,12.5664],[98.476,12.5621],[98.4699,12.5635],[98.4649,12.5552],[98.467,12.5354],[98.4647,12.5319],[98.4621,12.5343],[98.4653,12.5141],[98.4616,12.4914],[98.4638,12.477],[98.4572,12.4511],[98.4275,12.4343],[98.4304,12.431],[98.4247,12.4203],[98.4224,12.4065],[98.4129,12.3972],[98.4092,12.3839],[98.4052,12.3829],[98.3982,12.3687],[98.3801,12.3523],[98.3648,12.3304],[98.3616,12.321],[98.338,12.3124],[98.3222,12.3276],[98.3161,12.3264],[98.3135,12.3208],[98.3058,12.3307],[98.3036,12.3439],[98.3075,12.3521],[98.3086,12.3728],[98.3146,12.3962],[98.3193,12.3911],[98.3224,12.392],[98.324,12.3996],[98.3212,12.4032],[98.3237,12.4064],[98.3213,12.413],[98.3264,12.419],[98.3254,12.4238],[98.3309,12.4361],[98.3266,12.4444],[98.3324,12.4537],[98.3316,12.4625],[98.3256,12.4741],[98.317,12.4803],[98.3143,12.4953],[98.3168,12.5007],[98.3147,12.5036],[98.3212,12.5033],[98.3261,12.5168],[98.3298,12.5168],[98.3267,12.5241],[98.3319,12.5315],[98.3261,12.5356],[98.3176,12.5328],[98.3115,12.5364],[98.3138,12.5463],[98.3098,12.5456],[98.3058,12.5571],[98.3035,12.5808],[98.3004,12.5774],[98.2985,12.5814],[98.3027,12.592],[98.2988,12.5977],[98.3005,12.6033],[98.2963,12.6248],[98.2986,12.6363],[98.2936,12.6476],[98.3026,12.6539],[98.306,12.6874],[98.3223,12.6701]]],[[[98.3566,12.7081],[98.341,12.7247],[98.3412,12.734],[98.335,12.7506],[98.3325,12.7838],[98.3415,12.7559],[98.3582,12.7293],[98.3616,12.709],[98.3566,12.7081]]],[[[97.8596,12.8139],[97.8675,12.8121],[97.8684,12.8094],[97.8641,12.8071],[97.8688,12.8033],[97.8657,12.7975],[97.8733,12.7939],[97.8753,12.7959],[97.8794,12.7909],[97.8747,12.7871],[97.8776,12.782],[97.8819,12.782],[97.8816,12.7741],[97.8758,12.7727],[97.8706,12.777],[97.8709,12.7806],[97.867,12.7806],[97.863,12.7745],[97.8529,12.7727],[97.8367,12.7781],[97.8324,12.7862],[97.8351,12.7932],[97.8306,12.7981],[97.8534,12.8129],[97.8394,12.8177],[97.8376,12.8218],[97.8508,12.8281],[97.8596,12.8139]]]]}},{"type":"Feature","properties":{"TS":"Myeik","DT":"Myeik","ST":"Tanintharyi"},"geometry":{"type":"MultiPolygon","coordinates":[[[[98.6381,12.6489],[98.6443,12.6493],[98.6444,12.6457],[98.6379,12.6457],[98.6381,12.6489]]],[[[98.8075,12.7278],[98.8168,12.73],[98.8203,12.7201],[98.8276,12.7155],[98.8375,12.7142],[98.8488,12.7208],[98.8568,12.7216],[98.8698,12.7183],[98.8638,12.7055],[98.8672,12.7004],[98.8704,12.6578],[98.8702,12.6318],[98.8658,12.6175],[98.8735,12.6148],[98.884,12.6049],[98.8803,12.585],[98.8865,12.5664],[98.8809,12.5587],[98.8937,12.5377],[98.9119,12.5313],[98.9146,12.5218],[98.9245,12.51],[98.9172,12.4921],[98.9041,12.4883],[98.8997,12.468],[98.884,12.4614],[98.8892,12.4479],[98.8916,12.4281],[98.9069,12.4166],[98.9099,12.397],[98.9143,12.3884],[98.9125,12.3779],[98.9054,12.3717],[98.9049,12.367],[98.9182,12.3554],[98.9146,12.3514],[98.9112,12.3327],[98.919,12.2946],[98.917,12.2875],[98.8969,12.2735],[98.8899,12.2649],[98.8866,12.2388],[98.869,12.2277],[98.8665,12.2225],[98.8569,12.2311],[98.8554,12.2477],[98.8418,12.2525],[98.8381,12.2672],[98.84,12.2844],[98.8353,12.2888],[98.8198,12.2922],[98.8099,12.3091],[98.7916,12.3065],[98.778,12.3092],[98.7741,12.3127],[98.7753,12.3225],[98.7687,12.3334],[98.7313,12.3417],[98.7075,12.351],[98.706,12.3591],[98.6876,12.3633],[98.6621,12.3806],[98.6477,12.3823],[98.6342,12.3919],[98.6231,12.3932],[98.6207,12.407],[98.6239,12.4075],[98.6241,12.4139],[98.6314,12.4227],[98.6282,12.4253],[98.617,12.4114],[98.6104,12.4114],[98.5934,12.4333],[98.5975,12.4491],[98.5966,12.4733],[98.5994,12.479],[98.6039,12.483],[98.6126,12.4821],[98.6183,12.4852],[98.6203,12.4888],[98.6364,12.4956],[98.6421,12.5027],[98.6791,12.5103],[98.7037,12.4997],[98.7155,12.487],[98.7181,12.4925],[98.7086,12.5069],[98.6803,12.5209],[98.6744,12.5289],[98.6338,12.5364],[98.6226,12.5424],[98.6165,12.5524],[98.6173,12.5646],[98.6298,12.5742],[98.6384,12.5944],[98.6385,12.6093],[98.6522,12.6371],[98.6556,12.6362],[98.6671,12.6191],[98.6774,12.6167],[98.6786,12.6205],[98.671,12.6196],[98.6667,12.6245],[98.6602,12.638],[98.6652,12.6406],[98.6795,12.6379],[98.6974,12.6501],[98.6932,12.6512],[98.6768,12.6393],[98.6659,12.6426],[98.6579,12.6403],[98.6499,12.6458],[98.6498,12.659],[98.6471,12.6612],[98.6567,12.6624],[98.665,12.6902],[98.6698,12.6949],[98.6768,12.6927],[98.6872,12.6799],[98.6905,12.6676],[98.6949,12.666],[98.7037,12.6699],[98.6913,12.6691],[98.6791,12.7045],[98.686,12.7102],[98.6987,12.7089],[98.7039,12.704],[98.7306,12.7037],[98.7342,12.7007],[98.7515,12.7028],[98.7497,12.7227],[98.7568,12.7325],[98.7812,12.7282],[98.7954,12.7407],[98.7942,12.7373],[98.8075,12.7278]]]]}}]}