{"type":"FeatureCollection","features":[{"type":"Feature","properties":{"DT":"Dawei"},"geometry":{"type":"MultiPolygon","coordinates":[[[[98.0669,13.8079],[98.0607,13.8024],[98.058,13.8045],[98.0605,13.8082],[98.06,13.8108],[98.0622,13.8126],[98.0637,13.8112],[98.0676,13.8115],[98.0669,13.8079]]],[[[97.918,13.8739],[97.9164,13.8685],[97.9182,13.8653],[97.92,13.8646],[97.9231,13.8668],[97.9259,13.8611],[97.9266,13.8602],[97.9281,13.8603],[97.9266,13.8583],[97.9282,13.8524],[97.9266,13.8453],[97.926,13.8442],[97.9244,13.8438],[97.9223,13.8398],[97.9236,13.8386],[97.9256,13.8398],[97.9269,13.8355],[97.925,13.8342],[97.9245,13.8311],[97.9252,13.8298],[97.9251,13.8278],[97.9267,13.8268],[97.9259,13.8241],[97.9269,13.8203],[97.9254,13.8183],[97.9243,13.8184],[97.9221,13.8204],[97.9194,13.8191],[97.9199,13.8169],[97.9216,13.8135],[97.9209,13.8128],[97.9167,13.8127],[97.9158,13.8111],[97.9161,13.8066],[97.9137,13.8048],[97.9137,13.8016],[97.9125,13.7992],[97.9147,13.7936],[97.9115,13.7877],[97.9103,13.787],[97.9092,13.7874],[97.9036,13.7946],[97.9029,13.799],[97.9009,13.8029],[97.9016,13.8051],[97.9024,13.8056],[97.9041,13.8046],[97.9054,13.8026],[97.9083,13.8022],[97.9094,13.8011],[97.9101,13.8018],[97.9083,13.8051],[97.9069,13.8063],[97.9074,13.8091],[97.9065,13.8104],[97.9041,13.8118],[97.9019,13.8178],[97.9026,13.8194],[97.905,13.8187],[97.9054,13.8201],[97.9041,13.8229],[97.9009,13.8254],[97.9041,13.8284],[97.9068,13.8273],[97.9082,13.8274],[97.9089,13.8281],[97.9063,13.8332],[97.9067,13.8374],[97.9058,13.8396],[97.9083,13.8446],[97.9071,13.8474],[97.9096,13.8544],[97.9089,13.8562],[97.9092,13.8578],[97.9084,13.8595],[97.9084,13.8614],[97.9071,13.8635],[97.9073,13.8647],[97.9095,13.8633],[97.9108,13.8598],[97.9104,13.8563],[97.9116,13.8547],[97.9124,13.8592],[97.9114,13.865],[97.9121,13.8657],[97.9133,13.865],[97.9121,13.8684],[97.9118,13.8713],[97.9139,13.8743],[97.9147,13.8744],[97.918,13.8739]]],[[[97.9129,13.8806],[97.9117,13.8828],[97.912,13.8836],[97.9113,13.8841],[97.9115,13.8851],[97.9099,13.8859],[97.9086,13.8855],[97.9074,13.889],[97.9059,13.8901],[97.9056,13.8944],[97.9062,13.8953],[97.91,13.8899],[97.9114,13.889],[97.9119,13.8864],[97.9137,13.8844],[97.9137,13.8817],[97.9129,13.8806]]],[[[97.9194,13.9185],[97.9197,13.9146],[97.9194,13.9131],[97.9173,13.9105],[97.9182,13.9072],[97.917,13.9056],[97.9158,13.8977],[97.9169,13.8961],[97.9173,13.8904],[97.9132,13.8909],[97.9129,13.8922],[97.9144,13.8948],[97.9141,13.8966],[97.9152,13.8994],[97.9133,13.9015],[97.9124,13.9073],[97.9158,13.9145],[97.9141,13.9159],[97.9113,13.9146],[97.9084,13.9151],[97.9092,13.9217],[97.9088,13.9241],[97.9076,13.9255],[97.9079,13.9278],[97.9067,13.9284],[97.905,13.9279],[97.904,13.929],[97.9047,13.9312],[97.9062,13.9304],[97.9082,13.9323],[97.9076,13.9357],[97.9086,13.9378],[97.9075,13.9414],[97.9084,13.944],[97.9099,13.9452],[97.9109,13.945],[97.9124,13.9421],[97.9125,13.9387],[97.9136,13.9351],[97.9166,13.9314],[97.9182,13.9273],[97.9184,13.9212],[97.9194,13.9185]]],[[[97.8144,14.1376],[97.8131,14.1345],[97.8132,14.1326],[97.8156,14.1308],[97.8202,14.1305],[97.8219,14.1272],[97.8217,14.1255],[97.8188,14.1235],[97.818,14.1212],[97.8131,14.123],[97.8097,14.1215],[97.8083,14.1187],[97.8087,14.1177],[97.8106,14.1165],[97.8097,14.1143],[97.8076,14.1127],[97.8061,14.1129],[97.8042,14.1101],[97.802,14.1084],[97.8012,14.1104],[97.8019,14.1134],[97.8018,14.1189],[97.7978,14.1221],[97.7967,14.1244],[97.7972,14.1266],[97.7989,14.1295],[97.7995,14.1326],[97.8028,14.1368],[97.8039,14.1368],[97.8054,14.1381],[97.8062,14.1367],[97.8073,14.1364],[97.8091,14.137],[97.8124,14.1363],[97.8144,14.1376]]],[[[97.817,14.1485],[97.8214,14.1562],[97.8227,14.1563],[97.8233,14.1551],[97.8229,14.1531],[97.8181,14.1484],[97.817,14.1485]]],[[[97.8177,14.1825],[97.8161,14.1805],[97.8169,14.1766],[97.8161,14.1747],[97.8144,14.1734],[97.8149,14.1715],[97.8134,14.1686],[97.8132,14.1653],[97.8121,14.1635],[97.8115,14.1598],[97.8097,14.1585],[97.8089,14.1564],[97.8064,14.1564],[97.8027,14.1547],[97.8022,14.1536],[97.8027,14.1515],[97.7989,14.151],[97.7975,14.1466],[97.7928,14.1443],[97.7901,14.1393],[97.7889,14.1386],[97.7861,14.1394],[97.7847,14.1475],[97.782,14.1469],[97.781,14.1485],[97.7793,14.1492],[97.7777,14.1509],[97.7786,14.153],[97.7782,14.1546],[97.7801,14.1584],[97.7809,14.1588],[97.7819,14.157],[97.7849,14.1593],[97.7863,14.1623],[97.7854,14.1634],[97.7853,14.1646],[97.7857,14.1662],[97.7871,14.1668],[97.7871,14.1691],[97.7856,14.1695],[97.7836,14.1736],[97.7846,14.1766],[97.7879,14.1792],[97.7889,14.1824],[97.79,14.1834],[97.7941,14.1834],[97.7953,14.1824],[97.797,14.1823],[97.7997,14.1855],[97.8017,14.1864],[97.8022,14.1858],[97.8017,14.1832],[97.8042,14.1821],[97.8059,14.1829],[97.8075,14.1849],[97.8107,14.1861],[97.8123,14.186],[97.8137,14.1883],[97.8159,14.1896],[97.8185,14.1907],[97.8222,14.1909],[97.8246,14.1883],[97.8247,14.1867],[97.823,14.1858],[97.8211,14.1824],[97.8177,14.1825]]],[[[97.7854,14.2042],[97.7907,14.2068],[97.7908,14.2018],[97.7852,14.1974],[97.7854,14.2042]]],[[[97.8028,14.2698],[97.8009,14.2714],[97.7999,14.2734],[97.7994,14.2789],[97.8014,14.2826],[97.8038,14.2855],[97.8051,14.2862],[97.8079,14.2859],[97.8101,14.2842],[97.8122,14.2836],[97.8139,14.2789],[97.8157,14.2764],[97.8152,14.2742],[97.8136,14.2732],[97.8134,14.2713],[97.8116,14.2678],[97.8083,14.2664],[97.8067,14.2663],[97.8033,14.2676],[97.8028,14.2698]]],[[[97.8152,14.2866],[97.8154,14.2896],[97.8168,14.2903],[97.8192,14.2881],[97.8196,14.2845],[97.8192,14.2836],[97.8152,14.2866]]],[[[97.8139,14.2952],[97.8153,14.2972],[97.8176,14.2936],[97.8172,14.2931],[97.8158,14.2936],[97.8139,14.2952]]],[[[97.7857,14.3103],[97.7868,14.3109],[97.7874,14.3104],[97.7876,14.3092],[97.7864,14.3076],[97.7854,14.3076],[97.7851,14.3083],[97.7857,14.3103]]],[[[97.7886,14.3181],[97.7882,14.3244],[97.7888,14.3247],[97.7899,14.3235],[97.7907,14.3196],[97.7902,14.3165],[97.7884,14.3154],[97.7878,14.3158],[97.7886,14.3181]]],[[[97.7884,14.3327],[97.7897,14.3339],[97.7905,14.3328],[97.791,14.3301],[97.7894,14.3276],[97.7881,14.3281],[97.7878,14.3291],[97.7884,14.3327]]],[[[97.7798,14.4045],[97.7785,14.4039],[97.778,14.4021],[97.7784,14.4001],[97.7809,14.3969],[97.7812,14.3951],[97.7789,14.3938],[97.78,14.3917],[97.7746,14.3919],[97.7737,14.3933],[97.7707,14.3955],[97.7696,14.3956],[97.769,14.3941],[97.7679,14.3938],[97.7682,14.3968],[97.7669,14.3985],[97.7663,14.401],[97.7667,14.4052],[97.7674,14.4064],[97.7671,14.4094],[97.7676,14.4101],[97.7706,14.4108],[97.7719,14.4127],[97.7748,14.4144],[97.7745,14.4182],[97.7789,14.4187],[97.781,14.421],[97.7817,14.4203],[97.7821,14.4182],[97.7853,14.416],[97.7857,14.413],[97.7844,14.4116],[97.7818,14.4114],[97.7806,14.4104],[97.7798,14.4045]]],[[[97.7807,14.4269],[97.7795,14.4316],[97.7808,14.4325],[97.782,14.432],[97.7823,14.43],[97.7839,14.4286],[97.7821,14.4241],[97.7819,14.4219],[97.7805,14.4231],[97.7807,14.4269]]],[[[97.7736,14.4365],[97.769,14.4362],[97.7643,14.4344],[97.7634,14.435],[97.7634,14.4376],[97.7661,14.4419],[97.7703,14.4448],[97.7719,14.4445],[97.7729,14.4418],[97.7743,14.4416],[97.7765,14.4424],[97.7736,14.4365]]],[[[97.7747,14.4575],[97.7732,14.4555],[97.7702,14.4541],[97.769,14.4556],[97.7708,14.4567],[97.7721,14.4605],[97.7771,14.4602],[97.7771,14.4575],[97.7747,14.4575]]],[[[98.0275,15.0824],[98.0282,15.0805],[98.029,15.0801],[98.0321,15.0815],[98.0354,15.082],[98.0399,15.0809],[98.0415,15.0794],[98.0431,15.0763],[98.0445,15.0676],[98.0442,15.0632],[98.0416,15.0538],[98.0401,15.0512],[98.0432,15.0493],[98.045,15.0469],[98.0469,15.0426],[98.05,15.0394],[98.0509,15.0392],[98.0523,15.0419],[98.0553,15.0426],[98.0563,15.0448],[98.0571,15.0445],[98.0572,15.0417],[98.0584,15.04],[98.0607,15.0388],[98.0629,15.0392],[98.0635,15.0388],[98.0598,15.0344],[98.0597,15.0331],[98.0638,15.0302],[98.0641,15.0268],[98.0652,15.0242],[98.0717,15.02],[98.0734,15.0167],[98.076,15.0155],[98.0777,15.0118],[98.0785,15.0067],[98.0803,15.0041],[98.0829,15.0046],[98.0863,15.0022],[98.0894,15.001],[98.0928,14.998],[98.0936,14.994],[98.0966,14.9927],[98.0986,14.9908],[98.1012,14.9905],[98.105,14.9922],[98.1093,14.993],[98.112,14.9905],[98.1132,14.9903],[98.1158,14.9909],[98.121,14.9953],[98.1263,14.9939],[98.1284,14.9942],[98.1378,14.9877],[98.1428,14.9859],[98.1525,14.9876],[98.1534,14.9873],[98.1546,14.9865],[98.1554,14.9842],[98.1585,14.9815],[98.1627,14.9796],[98.1644,14.9802],[98.1667,14.9829],[98.1705,14.9841],[98.175,14.9783],[98.1789,14.9753],[98.1807,14.9727],[98.1812,14.9708],[98.1835,14.9698],[98.1854,14.9701],[98.1881,14.9732],[98.1919,14.9758],[98.195,14.9803],[98.2012,14.9807],[98.2031,14.9819],[98.2082,14.9819],[98.2109,14.9794],[98.2123,14.9798],[98.2192,14.9769],[98.2294,14.9687],[98.2318,14.9688],[98.2337,14.9672],[98.2294,14.9481],[98.2326,14.9437],[98.2431,14.9411],[98.2438,14.9372],[98.2433,14.9319],[98.2441,14.9251],[98.2465,14.9201],[98.2515,14.9167],[98.2496,14.9144],[98.2476,14.9097],[98.2465,14.9089],[98.2398,14.8983],[98.2355,14.8972],[98.234,14.8953],[98.2361,14.8923],[98.2318,14.8928],[98.2311,14.8892],[98.2335,14.8854],[98.2335,14.8839],[98.2406,14.8776],[98.245,14.8719],[98.2574,14.8633],[98.2587,14.8592],[98.2587,14.8524],[98.2595,14.848],[98.258,14.8416],[98.2529,14.8382],[98.252,14.8359],[98.2464,14.8323],[98.2461,14.8305],[98.2502,14.8255],[98.2551,14.8129],[98.2602,14.8112],[98.2638,14.807],[98.2661,14.8055],[98.2709,14.7991],[98.2766,14.7976],[98.2762,14.7937],[98.2816,14.7828],[98.2826,14.7756],[98.2858,14.7736],[98.2904,14.7736],[98.2943,14.7647],[98.2958,14.7552],[98.2979,14.7484],[98.303,14.7417],[98.3055,14.737],[98.3061,14.7326],[98.3169,14.7232],[98.3274,14.7066],[98.3306,14.7052],[98.3338,14.7087],[98.3366,14.7097],[98.3394,14.7085],[98.3421,14.7039],[98.3489,14.6995],[98.3496,14.6982],[98.3586,14.6932],[98.3619,14.6895],[98.3626,14.6849],[98.3626,14.678],[98.3654,14.6732],[98.3685,14.6696],[98.3671,14.6663],[98.3746,14.6632],[98.3784,14.6576],[98.3804,14.6529],[98.386,14.6513],[98.3909,14.6486],[98.3967,14.6427],[98.4011,14.6399],[98.4056,14.6379],[98.4078,14.6341],[98.4134,14.632],[98.4182,14.6287],[98.4214,14.6237],[98.4256,14.6225],[98.4358,14.6135],[98.4377,14.6089],[98.4397,14.6014],[98.453,14.5827],[98.458,14.5812],[98.4591,14.579],[98.4601,14.5725],[98.4585,14.559],[98.462,14.5309],[98.4634,14.5292],[98.4745,14.5362],[98.4783,14.5357],[98.4835,14.5327],[98.4864,14.533],[98.4889,14.5379],[98.4924,14.5387],[98.4944,14.5352],[98.4986,14.5164],[98.4985,14.5086],[98.5031,14.5079],[98.5061,14.5065],[98.504,14.5027],[98.5041,14.5006],[98.5058,14.4947],[98.5092,14.4906],[98.5112,14.4869],[98.512,14.478],[98.5154,14.4751],[98.5193,14.4743],[98.5231,14.4649],[98.5254,14.4534],[98.5329,14.4464],[98.5364,14.4402],[98.5419,14.4405],[98.5491,14.4328],[98.5483,14.4276],[98.5487,14.4217],[98.5559,14.4197],[98.5587,14.4129],[98.5583,14.4052],[98.5569,14.402],[98.5647,14.3934],[98.5661,14.3843],[98.5762,14.3765],[98.5775,14.3704],[98.5806,14.3684],[98.5882,14.3688],[98.5927,14.3706],[98.5938,14.3779],[98.5948,14.3755],[98.5958,14.3695],[98.5989,14.3675],[98.5948,14.359],[98.5951,14.3491],[98.5941,14.3419],[98.5975,14.3351],[98.5979,14.3275],[98.6049,14.3187],[98.6115,14.3157],[98.618,14.3157],[98.623,14.3141],[98.6294,14.3166],[98.6376,14.3096],[98.6395,14.3038],[98.6514,14.2966],[98.66,14.2906],[98.6633,14.2905],[98.6848,14.2733],[98.6886,14.2718],[98.695,14.2754],[98.7,14.2741],[98.7047,14.2753],[98.709,14.278],[98.7145,14.2765],[98.7194,14.2677],[98.7258,14.2604],[98.7313,14.2567],[98.7334,14.2481],[98.7328,14.2421],[98.7342,14.2384],[98.7364,14.2352],[98.7381,14.2342],[98.7451,14.2324],[98.745,14.2271],[98.7521,14.222],[98.7586,14.2156],[98.7647,14.214],[98.7702,14.2065],[98.7735,14.208],[98.7758,14.2069],[98.7777,14.2019],[98.7801,14.1992],[98.7859,14.1962],[98.792,14.1956],[98.7966,14.1936],[98.8055,14.1871],[98.8155,14.178],[98.8196,14.1762],[98.8239,14.1762],[98.8284,14.1773],[98.8318,14.1789],[98.8343,14.1761],[98.8426,14.1618],[98.8503,14.1584],[98.8637,14.1493],[98.8692,14.1472],[98.8709,14.1413],[98.8751,14.1319],[98.8797,14.1246],[98.8867,14.1208],[98.9003,14.1068],[98.9018,14.1071],[98.9065,14.1099],[98.9104,14.1083],[98.92,14.1102],[98.9234,14.1094],[98.9273,14.1054],[98.9364,14.0997],[98.9393,14.0954],[98.944,14.0939],[98.9479,14.0948],[98.9504,14.0994],[98.9549,14.1027],[98.9672,14.0894],[98.9682,14.0808],[98.9679,14.0755],[98.9701,14.0686],[98.9709,14.061],[98.9698,14.0542],[98.9698,14.0499],[98.9723,14.0414],[98.9736,14.0393],[98.9719,14.0333],[98.9792,14.0319],[98.9841,14.0278],[98.9905,14.0238],[98.9961,14.0231],[98.9972,14.02],[98.9961,14.0143],[98.9963,14.0111],[98.9998,14.0068],[99.0077,13.9997],[99.0096,13.994],[99.0141,13.9767],[99.0157,13.9669],[99.0157,13.9585],[99.0207,13.9519],[99.0211,13.9454],[99.0235,13.9439],[99.0284,13.9445],[99.045,13.9408],[99.0512,13.9368],[99.0559,13.9303],[99.0613,13.927],[99.0638,13.9207],[99.0685,13.913],[99.0728,13.9096],[99.079,13.8954],[99.0918,13.8902],[99.0967,13.8908],[99.1043,13.8966],[99.1066,13.8954],[99.1093,13.8924],[99.1101,13.8807],[99.1116,13.876],[99.1117,13.8664],[99.1062,13.8603],[99.1021,13.8545],[99.1005,13.8418],[99.1005,13.8372],[99.1041,13.8325],[99.1092,13.8304],[99.1154,13.8302],[99.1173,13.815],[99.1218,13.8108],[99.1226,13.8014],[99.1187,13.7954],[99.1188,13.7916],[99.1201,13.7874],[99.118,13.7824],[99.1213,13.7828],[99.1221,13.7745],[99.1193,13.7725],[99.1194,13.7715],[99.1205,13.7713],[99.1213,13.7721],[99.1307,13.765],[99.1388,13.7611],[99.1376,13.7513],[99.1392,13.7426],[99.1523,13.7443],[99.1543,13.7417],[99.1558,13.7349],[99.1601,13.7304],[99.1648,13.7282],[99.1682,13.7284],[99.1691,13.7102],[99.1707,13.7058],[99.1692,13.703],[99.1688,13.6935],[99.1723,13.6927],[99.1723,13.6876],[99.1706,13.6851],[99.1657,13.6812],[99.1659,13.6796],[99.1681,13.6771],[99.1683,13.6717],[99.1708,13.6711],[99.1718,13.667],[99.1715,13.6613],[99.1671,13.6535],[99.1719,13.6461],[99.1706,13.6409],[99.1704,13.6372],[99.1726,13.6284],[99.1667,13.6179],[99.1628,13.6184],[99.1613,13.617],[99.1661,13.6132],[99.1699,13.6047],[99.1763,13.5933],[99.179,13.5835],[99.175,13.5805],[99.1682,13.577],[99.1659,13.5734],[99.1668,13.5715],[99.1691,13.5697],[99.1727,13.5632],[99.1777,13.5612],[99.1796,13.5591],[99.1808,13.5536],[99.1846,13.5497],[99.1879,13.5493],[99.1893,13.5459],[99.1929,13.5463],[99.193,13.5407],[99.1919,13.5344],[99.1897,13.527],[99.1911,13.5214],[99.1913,13.5165],[99.19,13.5121],[99.1851,13.508],[99.1894,13.5008],[99.1897,13.4961],[99.1936,13.4877],[99.1965,13.4856],[99.198,13.4822],[99.2046,13.4828],[99.2059,13.4815],[99.204,13.4748],[99.2054,13.4714],[99.2077,13.4685],[99.2056,13.4608],[99.2067,13.4576],[99.2017,13.4564],[99.1989,13.4542],[99.1973,13.4492],[99.2052,13.4361],[99.2012,13.4259],[99.2068,13.4231],[99.2088,13.4202],[99.2077,13.4169],[99.209,13.4101],[99.2055,13.401],[99.202,13.3943],[99.202,13.388],[99.2004,13.384],[99.201,13.3785],[99.1994,13.3747],[99.1994,13.371],[99.1971,13.3691],[99.2057,13.3655],[99.2076,13.3617],[99.2047,13.3548],[99.2059,13.3501],[99.207,13.3411],[99.2063,13.3372],[99.2033,13.3355],[99.2008,13.3313],[99.1993,13.327],[99.1931,13.322],[99.1904,13.3186],[99.1927,13.3151],[99.1929,13.3092],[99.1955,13.3034],[99.1914,13.2995],[99.1905,13.2945],[99.1885,13.292],[99.1816,13.2939],[99.1777,13.2914],[99.1714,13.295],[99.1637,13.295],[99.1601,13.2991],[99.1526,13.3181],[99.1427,13.3214],[99.135,13.3363],[99.124,13.3325],[99.1163,13.3272],[99.108,13.3308],[99.1006,13.333],[99.0964,13.3396],[99.0915,13.3388],[99.0716,13.3308],[99.0659,13.3243],[99.0566,13.3258],[99.0507,13.3254],[99.0412,13.329],[99.0428,13.3241],[99.0442,13.3227],[99.0314,13.3129],[99.0262,13.3159],[99.0231,13.3112],[99.0201,13.311],[99.0074,13.3132],[99.0043,13.3129],[99.0024,13.3142],[98.9953,13.3121],[98.9812,13.309],[98.9793,13.3156],[98.9821,13.3247],[98.9873,13.3338],[98.9929,13.3403],[98.9972,13.3471],[98.989,13.3561],[98.9824,13.3555],[98.981,13.3569],[98.9818,13.3606],[98.9752,13.3685],[98.9625,13.3768],[98.9563,13.3823],[98.9432,13.3858],[98.9286,13.3879],[98.911,13.3976],[98.9088,13.4029],[98.901,13.405],[98.8955,13.4046],[98.8926,13.4102],[98.8814,13.4128],[98.8742,13.4199],[98.861,13.422],[98.8477,13.4328],[98.847,13.4381],[98.838,13.4414],[98.8352,13.4461],[98.8277,13.4488],[98.8211,13.4456],[98.819,13.4473],[98.8154,13.4537],[98.8163,13.4589],[98.8131,13.4646],[98.8066,13.4676],[98.8019,13.4688],[98.7963,13.4657],[98.7878,13.4673],[98.7809,13.4711],[98.7701,13.484],[98.7636,13.4827],[98.7577,13.48],[98.751,13.4838],[98.7375,13.4844],[98.7278,13.4943],[98.7219,13.4992],[98.72,13.4975],[98.7156,13.5017],[98.7086,13.5011],[98.705,13.4975],[98.6991,13.4998],[98.6993,13.5059],[98.6905,13.516],[98.6755,13.52],[98.6713,13.524],[98.6669,13.5238],[98.6567,13.5287],[98.6568,13.5276],[98.6629,13.5207],[98.6598,13.5135],[98.6468,13.4967],[98.646,13.4878],[98.6438,13.4804],[98.6442,13.4763],[98.6366,13.4675],[98.635,13.4628],[98.633,13.4616],[98.6314,13.4586],[98.6313,13.4523],[98.626,13.445],[98.617,13.4409],[98.6155,13.4385],[98.6133,13.4312],[98.6095,13.4285],[98.6072,13.4204],[98.6117,13.4175],[98.6134,13.4155],[98.6114,13.4137],[98.6065,13.402],[98.6086,13.3994],[98.6076,13.3906],[98.6009,13.3848],[98.5955,13.3787],[98.5919,13.366],[98.5877,13.3648],[98.5852,13.3684],[98.5797,13.3727],[98.5676,13.3745],[98.564,13.3768],[98.5612,13.3777],[98.5583,13.3777],[98.5546,13.3695],[98.5549,13.3545],[98.5535,13.3487],[98.5507,13.3461],[98.5453,13.3453],[98.5429,13.3424],[98.5444,13.339],[98.543,13.3373],[98.5411,13.3323],[98.5425,13.3287],[98.5411,13.3258],[98.5347,13.325],[98.5339,13.3286],[98.5304,13.3286],[98.5287,13.3256],[98.5253,13.3228],[98.5233,13.3187],[98.5223,13.3146],[98.5189,13.312],[98.5174,13.3089],[98.5168,13.3043],[98.5126,13.3005],[98.5088,13.3002],[98.5088,13.3021],[98.5067,13.3036],[98.5059,13.3025],[98.5054,13.2994],[98.5014,13.2988],[98.5021,13.2979],[98.4988,13.2987],[98.495,13.2978],[98.4926,13.2951],[98.4911,13.2947],[98.4875,13.3015],[98.4838,13.302],[98.4831,13.3008],[98.483,13.2986],[98.4835,13.2954],[98.4767,13.2858],[98.4771,13.2826],[98.4804,13.2768],[98.4754,13.2796],[98.4755,13.2905],[98.4749,13.2935],[98.4739,13.2945],[98.4723,13.2982],[98.4693,13.2999],[98.4682,13.3176],[98.4639,13.3423],[98.459,13.3533],[98.4571,13.3596],[98.4549,13.3634],[98.4551,13.3664],[98.4583,13.3677],[98.4611,13.3715],[98.4617,13.3735],[98.4615,13.3797],[98.4646,13.3834],[98.4674,13.3889],[98.461,13.3927],[98.4545,13.3777],[98.4553,13.3762],[98.4522,13.3768],[98.4503,13.3766],[98.4493,13.3783],[98.4474,13.3879],[98.4407,13.4085],[98.4297,13.4344],[98.4282,13.4367],[98.4269,13.4374],[98.4249,13.4374],[98.4229,13.4399],[98.4191,13.4431],[98.4147,13.4426],[98.4141,13.443],[98.4173,13.4476],[98.4175,13.4487],[98.4126,13.4592],[98.4123,13.4635],[98.4135,13.4641],[98.4142,13.4687],[98.4194,13.4715],[98.4215,13.475],[98.4209,13.479],[98.4159,13.4887],[98.3959,13.5168],[98.3968,13.5196],[98.3961,13.5213],[98.3943,13.523],[98.3859,13.5339],[98.3851,13.536],[98.3816,13.5405],[98.3768,13.5454],[98.3709,13.5536],[98.3683,13.5558],[98.3671,13.5593],[98.3657,13.5611],[98.3656,13.5631],[98.3672,13.5658],[98.3669,13.5679],[98.3675,13.5691],[98.3684,13.5696],[98.3714,13.5695],[98.3727,13.5688],[98.375,13.5717],[98.3744,13.5726],[98.3743,13.5778],[98.3754,13.5795],[98.3742,13.584],[98.3721,13.5874],[98.3661,13.5942],[98.3663,13.5968],[98.3677,13.5975],[98.3678,13.5982],[98.3623,13.6033],[98.3559,13.6151],[98.3493,13.6206],[98.3476,13.6235],[98.3458,13.6246],[98.3404,13.6302],[98.3024,13.6549],[98.2957,13.6614],[98.2829,13.6713],[98.2798,13.6773],[98.2797,13.6891],[98.2822,13.692],[98.2943,13.6942],[98.2995,13.6911],[98.3024,13.6824],[98.3041,13.675],[98.3108,13.6692],[98.3129,13.6732],[98.3113,13.6737],[98.3089,13.6772],[98.3072,13.6819],[98.3066,13.6852],[98.3062,13.6946],[98.3017,13.6995],[98.2963,13.7002],[98.2863,13.6997],[98.2824,13.7075],[98.2826,13.7122],[98.2794,13.7126],[98.2777,13.7094],[98.2719,13.708],[98.2669,13.7082],[98.2625,13.7096],[98.2584,13.7091],[98.2479,13.7054],[98.2435,13.7061],[98.2376,13.711],[98.2349,13.7146],[98.2311,13.7366],[98.2319,13.7399],[98.2371,13.7491],[98.2399,13.7577],[98.2408,13.7589],[98.2427,13.7802],[98.2425,13.7836],[98.2442,13.7975],[98.246,13.8062],[98.2449,13.813],[98.2448,13.822],[98.2434,13.8366],[98.2396,13.8475],[98.2394,13.8533],[98.2422,13.8664],[98.2416,13.8726],[98.239,13.8793],[98.2387,13.8852],[98.2409,13.8943],[98.2428,13.9078],[98.2405,13.9161],[98.2368,13.9222],[98.2319,13.9253],[98.2314,13.9272],[98.2307,13.9269],[98.2303,13.9277],[98.2297,13.9326],[98.2302,13.9361],[98.2285,13.9427],[98.2302,13.9487],[98.2313,13.9607],[98.2291,13.9686],[98.2254,13.975],[98.2163,13.9842],[98.2119,13.9929],[98.2097,13.9957],[98.2068,13.998],[98.207,14.0028],[98.2049,14.0069],[98.2028,14.0092],[98.2001,14.0108],[98.1961,14.0151],[98.1882,14.0214],[98.1899,14.0287],[98.1905,14.0345],[98.1899,14.0414],[98.1959,14.0401],[98.1899,14.0414],[98.1871,14.0414],[98.1872,14.0431],[98.1871,14.0414],[98.1848,14.0414],[98.1857,14.0342],[98.1844,14.0323],[98.185,14.0312],[98.1847,14.0287],[98.1831,14.0236],[98.1854,14.0153],[98.1842,14.0124],[98.1845,14.0102],[98.1878,14.0076],[98.1889,14.0079],[98.1923,14.0042],[98.1944,14.0008],[98.2005,13.9832],[98.2036,13.9791],[98.2092,13.9747],[98.2086,13.9728],[98.2044,13.971],[98.2008,13.9631],[98.2023,13.9561],[98.2057,13.9513],[98.2074,13.9469],[98.2078,13.9362],[98.2119,13.925],[98.2131,13.9183],[98.2154,13.9105],[98.216,13.9024],[98.2148,13.8842],[98.2078,13.8745],[98.2023,13.863],[98.1974,13.8545],[98.192,13.8392],[98.1899,13.8365],[98.1807,13.8181],[98.1786,13.8156],[98.1732,13.7967],[98.171,13.7726],[98.1711,13.7597],[98.1715,13.7528],[98.1724,13.7498],[98.172,13.7489],[98.173,13.7479],[98.1749,13.7384],[98.1772,13.7328],[98.1796,13.7206],[98.1803,13.7195],[98.1815,13.7195],[98.1804,13.7176],[98.1793,13.7172],[98.1787,13.7156],[98.1794,13.7133],[98.179,13.707],[98.1801,13.7025],[98.1816,13.6996],[98.1814,13.6984],[98.1804,13.6976],[98.1793,13.6978],[98.1786,13.6987],[98.1787,13.6955],[98.1803,13.6948],[98.181,13.692],[98.1823,13.6903],[98.1877,13.6858],[98.1853,13.6819],[98.1862,13.6784],[98.1859,13.6722],[98.1835,13.6705],[98.1822,13.668],[98.1843,13.6616],[98.1841,13.6571],[98.1849,13.6515],[98.184,13.6489],[98.1747,13.6401],[98.17,13.6388],[98.1692,13.6392],[98.1686,13.6408],[98.164,13.638],[98.1634,13.6346],[98.1652,13.6315],[98.1639,13.626],[98.1625,13.6243],[98.1603,13.6252],[98.1552,13.6194],[98.1569,13.6177],[98.1567,13.6115],[98.1553,13.6078],[98.1524,13.6055],[98.1513,13.6033],[98.1526,13.5962],[98.1534,13.5949],[98.1537,13.5898],[98.1534,13.5876],[98.152,13.5849],[98.1518,13.5815],[98.1523,13.5788],[98.1546,13.5755],[98.1556,13.5763],[98.1598,13.572],[98.1603,13.5672],[98.1597,13.5634],[98.1603,13.5619],[98.1625,13.5615],[98.1648,13.5594],[98.1661,13.5598],[98.1677,13.5593],[98.1716,13.5556],[98.1738,13.5545],[98.1754,13.5508],[98.1754,13.5476],[98.1722,13.5414],[98.1696,13.5394],[98.1683,13.536],[98.1631,13.5363],[98.1593,13.5382],[98.1601,13.5405],[98.1605,13.546],[98.1599,13.5485],[98.1585,13.5508],[98.1601,13.5537],[98.1564,13.5574],[98.153,13.5587],[98.1458,13.56],[98.1371,13.5591],[98.1335,13.5564],[98.1341,13.554],[98.1325,13.55],[98.1349,13.547],[98.1341,13.5446],[98.1264,13.5489],[98.1254,13.5507],[98.1223,13.5531],[98.1245,13.5567],[98.1277,13.558],[98.1279,13.5588],[98.1267,13.5599],[98.1268,13.5608],[98.13,13.5617],[98.132,13.5649],[98.1313,13.5667],[98.1294,13.5672],[98.1303,13.5704],[98.13,13.5717],[98.1273,13.5716],[98.1263,13.5728],[98.1271,13.5758],[98.1262,13.5774],[98.1269,13.5817],[98.1263,13.5831],[98.1243,13.5831],[98.1236,13.5857],[98.1251,13.5874],[98.1234,13.5897],[98.1195,13.5902],[98.1169,13.5929],[98.1229,13.5967],[98.1246,13.5969],[98.1257,13.6003],[98.1274,13.599],[98.1297,13.5996],[98.1307,13.6017],[98.1302,13.6035],[98.1311,13.6051],[98.1324,13.6049],[98.1331,13.6025],[98.1349,13.602],[98.136,13.6007],[98.1409,13.6043],[98.1379,13.6033],[98.1368,13.6041],[98.1359,13.6072],[98.1382,13.6088],[98.1397,13.6106],[98.139,13.6151],[98.1373,13.6172],[98.1355,13.6161],[98.1344,13.6163],[98.1345,13.6197],[98.1333,13.6226],[98.1336,13.6246],[98.128,13.6294],[98.1291,13.6308],[98.1292,13.6325],[98.1276,13.6345],[98.1292,13.6354],[98.1302,13.635],[98.1307,13.6317],[98.1323,13.631],[98.139,13.6316],[98.1428,13.6359],[98.1444,13.6348],[98.1462,13.6352],[98.1477,13.639],[98.1481,13.6422],[98.148,13.6464],[98.1472,13.6479],[98.1484,13.649],[98.1514,13.6489],[98.1509,13.6545],[98.1479,13.6642],[98.1449,13.6706],[98.1404,13.6777],[98.1287,13.6881],[98.1232,13.6914],[98.1199,13.6924],[98.115,13.6927],[98.1132,13.6922],[98.1118,13.69],[98.112,13.6856],[98.1114,13.684],[98.1092,13.6816],[98.1079,13.678],[98.1067,13.6778],[98.1059,13.6784],[98.1047,13.6813],[98.1051,13.6823],[98.1046,13.6854],[98.1058,13.6879],[98.1094,13.689],[98.1095,13.6916],[98.1087,13.6937],[98.1051,13.6981],[98.1036,13.699],[98.1014,13.6989],[98.0996,13.6965],[98.0981,13.6965],[98.0968,13.6976],[98.0963,13.6989],[98.0969,13.7017],[98.0951,13.7041],[98.0935,13.7084],[98.0958,13.7106],[98.0956,13.7124],[98.0939,13.7132],[98.0902,13.7131],[98.0883,13.7149],[98.0888,13.7155],[98.0942,13.7161],[98.0972,13.7174],[98.1011,13.7177],[98.1028,13.7165],[98.1041,13.7168],[98.1055,13.7191],[98.1049,13.7242],[98.1044,13.7251],[98.1019,13.7265],[98.0976,13.7236],[98.0954,13.7239],[98.093,13.7226],[98.0902,13.7229],[98.0854,13.7218],[98.0816,13.7225],[98.0814,13.7235],[98.0836,13.7258],[98.0849,13.726],[98.0871,13.725],[98.0886,13.7265],[98.0884,13.7287],[98.0864,13.7299],[98.0857,13.7318],[98.0887,13.7333],[98.0893,13.7354],[98.0879,13.7369],[98.0851,13.7381],[98.0854,13.7412],[98.0833,13.7426],[98.0838,13.7451],[98.0822,13.7456],[98.0802,13.7443],[98.0788,13.7447],[98.0787,13.7497],[98.0765,13.7518],[98.0779,13.7537],[98.0781,13.7562],[98.0772,13.7576],[98.0752,13.7587],[98.0733,13.7571],[98.0702,13.7575],[98.068,13.7571],[98.0663,13.7614],[98.0712,13.7608],[98.0722,13.7613],[98.073,13.7635],[98.0725,13.7653],[98.0669,13.7653],[98.0662,13.7656],[98.0662,13.7664],[98.0681,13.7684],[98.068,13.7717],[98.0721,13.7721],[98.0768,13.7755],[98.0746,13.7781],[98.0751,13.7809],[98.0723,13.7842],[98.0714,13.7875],[98.0688,13.7886],[98.0671,13.7908],[98.0679,13.7917],[98.0699,13.7922],[98.0704,13.794],[98.0765,13.7986],[98.0771,13.8022],[98.0783,13.8051],[98.086,13.8022],[98.0894,13.7997],[98.0953,13.7981],[98.0977,13.7984],[98.0986,13.8],[98.0981,13.8031],[98.0954,13.8068],[98.0927,13.8094],[98.0896,13.8106],[98.0883,13.8127],[98.0889,13.8144],[98.091,13.8166],[98.0911,13.8253],[98.0925,13.8281],[98.0914,13.8318],[98.0866,13.8363],[98.0877,13.839],[98.0873,13.8421],[98.0884,13.8448],[98.0874,13.8493],[98.0886,13.8544],[98.0917,13.8561],[98.0924,13.8574],[98.0907,13.8608],[98.0889,13.8618],[98.0864,13.8646],[98.0894,13.8655],[98.09,13.8683],[98.0919,13.8694],[98.0938,13.869],[98.0947,13.8698],[98.0954,13.8783],[98.094,13.8801],[98.0938,13.8813],[98.0951,13.8827],[98.0948,13.8848],[98.0983,13.8873],[98.0984,13.8897],[98.0974,13.8923],[98.0946,13.896],[98.0844,13.9065],[98.0766,13.9126],[98.0727,13.9135],[98.0739,13.9146],[98.074,13.9167],[98.0718,13.9224],[98.0738,13.9239],[98.0759,13.9233],[98.0772,13.9244],[98.0777,13.9302],[98.0763,13.9328],[98.0771,13.9341],[98.0775,13.9374],[98.0754,13.9402],[98.0736,13.9409],[98.0725,13.9407],[98.0724,13.9394],[98.0697,13.9388],[98.0691,13.9392],[98.0696,13.9413],[98.0711,13.9426],[98.0713,13.9458],[98.0725,13.9471],[98.0719,13.949],[98.0688,13.9519],[98.0691,13.958],[98.0677,13.9628],[98.069,13.9649],[98.0643,13.9765],[98.0632,13.9781],[98.0591,13.9812],[98.0595,13.9855],[98.0586,13.9878],[98.0608,13.9886],[98.061,13.9897],[98.0605,14.0037],[98.0594,14.0119],[98.0582,14.0168],[98.0566,14.0199],[98.0566,14.0237],[98.0575,14.0251],[98.0566,14.0299],[98.0556,14.0319],[98.0559,14.0337],[98.0572,14.0352],[98.0571,14.0393],[98.058,14.0416],[98.0604,14.0416],[98.0617,14.0431],[98.0629,14.0418],[98.0638,14.0394],[98.0655,14.0396],[98.0682,14.0413],[98.0702,14.0439],[98.0733,14.0448],[98.0754,14.0495],[98.0763,14.0561],[98.0776,14.058],[98.077,14.0681],[98.0751,14.0784],[98.0738,14.0801],[98.072,14.0801],[98.0714,14.0807],[98.0711,14.0862],[98.0727,14.0849],[98.0753,14.0856],[98.0766,14.0843],[98.0775,14.082],[98.0804,14.0812],[98.085,14.0839],[98.0882,14.0871],[98.0912,14.0931],[98.0926,14.1004],[98.0952,14.1063],[98.0986,14.106],[98.1002,14.1069],[98.1002,14.1144],[98.0976,14.1277],[98.0963,14.1294],[98.0854,14.1559],[98.0829,14.1606],[98.0818,14.1646],[98.082,14.1712],[98.0831,14.1765],[98.0843,14.177],[98.0882,14.1821],[98.0916,14.1845],[98.0941,14.1917],[98.0954,14.1998],[98.0943,14.2033],[98.0846,14.214],[98.0844,14.2186],[98.0822,14.2199],[98.0802,14.2191],[98.0804,14.2165],[98.0813,14.2165],[98.0856,14.2078],[98.0886,14.2055],[98.0898,14.2025],[98.0912,14.2013],[98.0922,14.1974],[98.0898,14.193],[98.0882,14.1914],[98.0864,14.191],[98.0854,14.1901],[98.085,14.1873],[98.0807,14.1808],[98.0786,14.1801],[98.0758,14.1813],[98.0721,14.1891],[98.0649,14.2009],[98.0493,14.2238],[98.043,14.235],[98.0414,14.2365],[98.0323,14.2512],[98.0219,14.2652],[98.0109,14.2779],[98.0064,14.2839],[97.9979,14.2932],[97.997,14.2949],[97.9966,14.2972],[97.9941,14.3018],[97.9948,14.3068],[97.9957,14.3083],[97.9951,14.3113],[97.9956,14.3141],[97.9879,14.3276],[97.9838,14.333],[97.9826,14.3336],[97.9802,14.342],[97.9687,14.3644],[97.9696,14.3658],[97.9694,14.3671],[97.9706,14.3707],[97.972,14.3724],[97.9734,14.3728],[97.9738,14.3757],[97.9732,14.3787],[97.9694,14.3852],[97.9689,14.3873],[97.9702,14.3879],[97.9693,14.39],[97.9709,14.3923],[97.971,14.3938],[97.9704,14.3972],[97.9684,14.4003],[97.9704,14.4026],[97.971,14.4076],[97.9702,14.4145],[97.9671,14.4249],[97.9672,14.4266],[97.9696,14.4289],[97.9716,14.433],[97.9711,14.4384],[97.9746,14.4416],[97.9756,14.4486],[97.9798,14.4542],[97.9822,14.4599],[97.9786,14.4616],[97.9697,14.4473],[97.9681,14.4469],[97.9645,14.4438],[97.964,14.4398],[97.9647,14.4395],[97.965,14.4357],[97.9648,14.4351],[97.9641,14.4353],[97.9597,14.4452],[97.9543,14.4537],[97.9564,14.4603],[97.9565,14.4622],[97.9553,14.4654],[97.9549,14.4696],[97.9531,14.4744],[97.9532,14.4787],[97.9526,14.4814],[97.9537,14.4854],[97.9538,14.4891],[97.9547,14.4908],[97.9538,14.4925],[97.9532,14.4968],[97.9429,14.5124],[97.9422,14.5144],[97.9361,14.5239],[97.9345,14.5279],[97.9336,14.5281],[97.9299,14.5342],[97.9269,14.5373],[97.9252,14.5414],[97.9066,14.5716],[97.9031,14.5788],[97.9026,14.581],[97.9044,14.5839],[97.9048,14.5863],[97.9044,14.5906],[97.9034,14.5925],[97.9052,14.5954],[97.9035,14.6],[97.9043,14.6007],[97.9054,14.6005],[97.9059,14.6018],[97.9036,14.6065],[97.9012,14.6154],[97.8988,14.6201],[97.8981,14.624],[97.8965,14.6264],[97.8966,14.6279],[97.895,14.6306],[97.8942,14.6341],[97.895,14.6356],[97.8931,14.6373],[97.8927,14.6392],[97.8936,14.6391],[97.8932,14.6399],[97.8924,14.6401],[97.8916,14.6392],[97.8906,14.6397],[97.8893,14.6422],[97.8786,14.6541],[97.876,14.6588],[97.8758,14.6614],[97.8768,14.6644],[97.8764,14.6682],[97.8743,14.6708],[97.8721,14.6705],[97.8719,14.6719],[97.8729,14.6738],[97.8734,14.6776],[97.8745,14.68],[97.8762,14.6783],[97.8789,14.679],[97.8837,14.6887],[97.8869,14.6906],[97.8892,14.6958],[97.8897,14.6988],[97.892,14.7006],[97.8939,14.6998],[97.8949,14.7008],[97.8954,14.7026],[97.8953,14.7076],[97.8979,14.7154],[97.8993,14.716],[97.9039,14.7159],[97.9047,14.7176],[97.9066,14.7185],[97.919,14.7199],[97.926,14.7238],[97.9351,14.7251],[97.9417,14.7218],[97.9466,14.7137],[97.9488,14.7083],[97.9518,14.7053],[97.9724,14.6912],[97.9733,14.6922],[97.977,14.6887],[97.9784,14.6837],[97.9786,14.6761],[97.9797,14.6687],[97.981,14.665],[97.9852,14.6594],[97.9883,14.6565],[97.9991,14.6499],[98.0008,14.654],[97.9972,14.6582],[97.9886,14.6633],[97.9858,14.6658],[97.9845,14.6684],[97.9838,14.6717],[97.984,14.6738],[97.985,14.6741],[97.9855,14.676],[97.9865,14.6767],[97.9851,14.6787],[97.9845,14.6823],[97.9858,14.6843],[97.9878,14.6857],[97.9846,14.6841],[97.9834,14.6846],[97.9806,14.6918],[97.9772,14.6952],[97.9694,14.7049],[97.9675,14.7139],[97.9638,14.7218],[97.9589,14.7251],[97.9561,14.7315],[97.9518,14.7337],[97.9488,14.7369],[97.9499,14.745],[97.9492,14.7517],[97.9499,14.7558],[97.9473,14.7603],[97.9402,14.7866],[97.9414,14.7949],[97.9412,14.7968],[97.9382,14.8047],[97.9384,14.8106],[97.9356,14.8106],[97.9355,14.8002],[97.937,14.793],[97.9365,14.7866],[97.9346,14.7861],[97.9329,14.7905],[97.9301,14.8056],[97.9269,14.8051],[97.9264,14.8012],[97.9271,14.7908],[97.9327,14.7744],[97.9385,14.7641],[97.9381,14.7566],[97.9351,14.7558],[97.9353,14.7497],[97.9297,14.7394],[97.9237,14.7387],[97.919,14.7403],[97.9089,14.7513],[97.8971,14.7686],[97.8954,14.7805],[97.8982,14.7877],[97.9047,14.7968],[97.9106,14.8079],[97.913,14.8141],[97.9138,14.8195],[97.9132,14.8241],[97.9117,14.8281],[97.9028,14.8412],[97.8955,14.8363],[97.9006,14.8296],[97.9065,14.8192],[97.907,14.8147],[97.9058,14.8114],[97.8968,14.7992],[97.8909,14.7951],[97.8886,14.7926],[97.8871,14.7891],[97.8855,14.7734],[97.8898,14.7626],[97.8975,14.7487],[97.8997,14.7375],[97.8971,14.7344],[97.8945,14.7336],[97.8926,14.7319],[97.8916,14.7261],[97.8869,14.7206],[97.8851,14.7198],[97.8832,14.7169],[97.8788,14.7151],[97.8711,14.7148],[97.8652,14.7078],[97.8618,14.7073],[97.8598,14.7086],[97.8519,14.7107],[97.8371,14.7118],[97.8355,14.713],[97.8343,14.7155],[97.8325,14.7283],[97.8267,14.7458],[97.8257,14.7466],[97.8251,14.7499],[97.8218,14.7551],[97.8216,14.7582],[97.8244,14.7617],[97.8189,14.7749],[97.8168,14.7754],[97.8165,14.776],[97.8176,14.7775],[97.8184,14.7808],[97.8172,14.7838],[97.8195,14.7871],[97.818,14.7916],[97.8164,14.7933],[97.8168,14.7941],[97.8181,14.7942],[97.8189,14.7953],[97.8192,14.798],[97.8154,14.8064],[97.8134,14.8086],[97.8121,14.809],[97.8112,14.8084],[97.8096,14.8096],[97.8107,14.8134],[97.8077,14.8201],[97.8092,14.8212],[97.8111,14.8241],[97.8063,14.8323],[97.8071,14.8345],[97.8023,14.8439],[97.8015,14.8471],[97.7993,14.8483],[97.8013,14.8513],[97.8009,14.8561],[97.7948,14.8683],[97.7926,14.8681],[97.7892,14.8692],[97.7885,14.8738],[97.7895,14.8767],[97.7924,14.8779],[97.7914,14.883],[97.7895,14.8854],[97.7937,14.8841],[97.7951,14.8843],[97.7975,14.8855],[97.798,14.8877],[97.8,14.8876],[97.8008,14.8863],[97.8028,14.887],[97.8062,14.8909],[97.8082,14.8903],[97.8069,14.8888],[97.8071,14.8881],[97.8084,14.8884],[97.8091,14.8873],[97.8105,14.8874],[97.8107,14.8863],[97.8099,14.8856],[97.8104,14.8851],[97.8121,14.8851],[97.8123,14.8859],[97.8137,14.8848],[97.8153,14.8848],[97.8175,14.8837],[97.8193,14.8843],[97.8233,14.8827],[97.8249,14.8832],[97.8293,14.8803],[97.8329,14.8803],[97.8359,14.8812],[97.8391,14.8868],[97.8388,14.8877],[97.8345,14.89],[97.8313,14.8938],[97.8284,14.8999],[97.8276,14.9046],[97.8307,14.9122],[97.8318,14.9131],[97.8354,14.9134],[97.836,14.9142],[97.8382,14.9221],[97.835,14.9282],[97.8357,14.9297],[97.8386,14.9315],[97.8471,14.9314],[97.8537,14.9302],[97.8574,14.9287],[97.8609,14.9316],[97.8656,14.9334],[97.8676,14.9367],[97.8659,14.9437],[97.8664,14.9492],[97.8668,14.9507],[97.87,14.9511],[97.8703,14.9565],[97.8664,14.9619],[97.8653,14.9654],[97.8668,14.9706],[97.8686,14.9721],[97.8699,14.9782],[97.8695,14.9804],[97.8656,14.986],[97.8643,14.9901],[97.8647,14.992],[97.8673,14.9939],[97.8677,14.995],[97.8674,15.0011],[97.8659,15.0038],[97.8659,15.007],[97.868,15.0126],[97.8717,15.0163],[97.8737,15.0201],[97.8713,15.0281],[97.8714,15.0297],[97.8725,15.033],[97.8734,15.0394],[97.8759,15.0426],[97.8767,15.0451],[97.8768,15.0511],[97.8794,15.0556],[97.8794,15.0627],[97.8818,15.0672],[97.8795,15.0724],[97.8796,15.074],[97.8826,15.0801],[97.8848,15.0807],[97.8964,15.0749],[97.8992,15.0717],[97.9026,15.0704],[97.9083,15.0694],[97.9122,15.0764],[97.9132,15.0771],[97.916,15.0764],[97.92,15.0769],[97.9217,15.0763],[97.9248,15.0736],[97.9275,15.0672],[97.9331,15.0661],[97.9354,15.0619],[97.9378,15.0602],[97.9389,15.0562],[97.9427,15.0581],[97.9438,15.0614],[97.949,15.0589],[97.95,15.0608],[97.9478,15.0739],[97.9541,15.0754],[97.9585,15.082],[97.9609,15.0835],[97.9646,15.085],[97.97,15.0851],[97.9728,15.0859],[97.9778,15.0878],[97.9792,15.0871],[97.9796,15.0858],[97.9805,15.0857],[97.9877,15.0902],[97.9905,15.0913],[98.0015,15.093],[98.0043,15.0927],[98.0058,15.0934],[98.0065,15.0958],[98.01,15.0992],[98.0181,15.1034],[98.0253,15.0965],[98.0277,15.0898],[98.0275,15.0824]],[[98.4308,14.5964],[98.4324,14.5978],[98.4308,14.5964],[98.4308,14.5964]],[[98.4247,14.5951],[98.4302,14.5963],[98.4247,14.5951],[98.4247,14.5951]],[[98.4133,14.5904],[98.4119,14.5918],[98.4133,14.5904],[98.4153,14.591],[98.4179,14.5918],[98.4133,14.5904]],[[98.4077,14.5942],[98.3972,14.5857],[98.3881,14.5907],[98.3876,14.5905],[98.3972,14.5857],[98.4077,14.5942],[98.4117,14.5919],[98.4077,14.5942]],[[98.38,14.5837],[98.38,14.5837],[98.3798,14.5856],[98.38,14.5837]],[[98.3733,14.5814],[98.3747,14.5813],[98.3733,14.5814],[98.3733,14.5814]],[[98.3705,14.5843],[98.3722,14.5835],[98.3729,14.5822],[98.3722,14.5835],[98.3705,14.5843]],[[98.3628,14.5809],[98.3628,14.5809],[98.3639,14.5819],[98.3628,14.5809]],[[98.3541,14.5774],[98.3518,14.5743],[98.3541,14.5774],[98.3575,14.5774],[98.3602,14.5792],[98.3575,14.5774],[98.3541,14.5774]],[[98.3434,14.5754],[98.3493,14.5718],[98.3503,14.5728],[98.3493,14.5718],[98.3434,14.5754]],[[98.3398,14.57],[98.3403,14.5715],[98.3414,14.5729],[98.3403,14.5715],[98.3398,14.57]],[[98.3338,14.5473],[98.3345,14.545],[98.3338,14.5473],[98.3346,14.5541],[98.3338,14.5473]],[[98.3309,14.5268],[98.3283,14.5231],[98.3309,14.5268],[98.3314,14.5339],[98.3309,14.5268]],[[98.3327,14.5189],[98.3322,14.5199],[98.3321,14.5203],[98.3322,14.5199],[98.3327,14.5189]],[[98.3307,14.4908],[98.3325,14.4923],[98.3327,14.4942],[98.3325,14.4923],[98.3307,14.4908]],[[98.329,14.4745],[98.3264,14.4782],[98.3264,14.4782],[98.329,14.4745]],[[98.3369,14.4699],[98.3366,14.4705],[98.3364,14.4716],[98.3366,14.4705],[98.3369,14.4699]],[[98.3453,14.4636],[98.3403,14.4646],[98.3389,14.4666],[98.3403,14.4646],[98.3453,14.4636]],[[98.351,14.4592],[98.3544,14.4585],[98.351,14.4592],[98.3453,14.4636],[98.351,14.4592]],[[98.3594,14.4498],[98.3595,14.4516],[98.3593,14.4531],[98.3595,14.4516],[98.3594,14.4498]],[[98.3521,14.4261],[98.3506,14.4249],[98.3521,14.4261],[98.356,14.4254],[98.3583,14.4273],[98.356,14.4254],[98.3521,14.4261]],[[98.3467,14.4225],[98.3475,14.4229],[98.3467,14.4225],[98.3467,14.4225]],[[98.346,14.4173],[98.3453,14.4106],[98.3464,14.4202],[98.346,14.4173]],[[98.3407,14.3988],[98.3425,14.402],[98.3432,14.4032],[98.3425,14.402],[98.3407,14.3988]],[[98.3348,14.3874],[98.3347,14.3894],[98.3357,14.3901],[98.3347,14.3894],[98.3348,14.3874]],[[98.3351,14.385],[98.3351,14.385],[98.3349,14.3853],[98.3351,14.385]],[[98.347,14.3747],[98.342,14.3748],[98.3415,14.3759],[98.342,14.3748],[98.347,14.3747]],[[98.3695,14.3449],[98.3665,14.3392],[98.3695,14.3449],[98.3686,14.3496],[98.3664,14.352],[98.3686,14.3496],[98.3695,14.3449]],[[98.3663,14.3388],[98.368,14.3316],[98.3663,14.3388],[98.3663,14.3388]],[[98.3759,14.3256],[98.3744,14.3263],[98.3692,14.3306],[98.3744,14.3263],[98.3759,14.3256]],[[98.3753,14.3129],[98.3753,14.3042],[98.3743,14.3028],[98.3753,14.3042],[98.3753,14.3129],[98.3768,14.3219],[98.3753,14.3129]],[[98.3743,14.2982],[98.3736,14.2997],[98.3736,14.2999],[98.3736,14.2997],[98.3743,14.2982]],[[98.3794,14.2943],[98.3838,14.2885],[98.3845,14.2864],[98.3838,14.2885],[98.3794,14.2943],[98.3757,14.2948],[98.3745,14.2976],[98.3757,14.2948],[98.3794,14.2943]],[[98.3869,14.2796],[98.3864,14.2804],[98.3862,14.2808],[98.3864,14.2804],[98.3869,14.2796]],[[98.3924,14.2717],[98.3922,14.274],[98.391,14.2748],[98.3922,14.274],[98.3924,14.2717]],[[98.3938,14.2693],[98.3925,14.2701],[98.3925,14.2701],[98.3938,14.2693]],[[98.3997,14.2609],[98.3984,14.2625],[98.3997,14.2609],[98.3997,14.2609]],[[98.4059,14.2575],[98.4056,14.2589],[98.4027,14.2598],[98.4056,14.2589],[98.4059,14.2575]],[[98.4045,14.251],[98.4047,14.246],[98.4047,14.2467],[98.4045,14.251],[98.4058,14.2533],[98.4045,14.251]],[[98.3919,14.2371],[98.3888,14.2318],[98.3919,14.2371],[98.3984,14.2406],[98.3986,14.2407],[98.3919,14.2371]],[[98.3793,14.2343],[98.3829,14.234],[98.3886,14.2319],[98.3829,14.234],[98.3793,14.2343]],[[98.3672,14.2334],[98.3645,14.2347],[98.3672,14.2334],[98.3733,14.2323],[98.3734,14.2327],[98.3672,14.2334]],[[98.3598,14.2377],[98.3546,14.2385],[98.3548,14.2382],[98.3598,14.2377],[98.3597,14.2371],[98.3598,14.2377]],[[98.3511,14.2567],[98.3509,14.2547],[98.3516,14.2534],[98.3509,14.2547],[98.3511,14.2567]],[[98.3462,14.2557],[98.3513,14.2587],[98.3513,14.2587],[98.3462,14.2557]],[[98.3461,14.2556],[98.3461,14.2556],[98.3415,14.2588],[98.3461,14.2556]],[[98.3441,14.2706],[98.3398,14.2642],[98.3415,14.2589],[98.3398,14.2642],[98.3441,14.2706]],[[98.3425,14.2753],[98.3432,14.2734],[98.3439,14.2714],[98.3432,14.2734],[98.3425,14.2753]],[[98.3417,14.2761],[98.3421,14.2765],[98.3421,14.2765],[98.3417,14.2761]],[[98.319,14.2797],[98.3198,14.2783],[98.3224,14.2766],[98.3198,14.2783],[98.319,14.2797]],[[98.3119,14.2795],[98.3113,14.2816],[98.3119,14.2795],[98.3145,14.2792],[98.316,14.2799],[98.3145,14.2792],[98.3119,14.2795]],[[98.3103,14.2828],[98.3111,14.2827],[98.3111,14.2827],[98.3103,14.2828]],[[98.2988,14.2751],[98.301,14.2714],[98.3015,14.2632],[98.3015,14.2627],[98.301,14.2714],[98.2988,14.2751],[98.2977,14.2795],[98.2988,14.2751]],[[98.3078,14.2441],[98.3061,14.2446],[98.3048,14.2487],[98.3061,14.2446],[98.3078,14.2441]],[[98.3096,14.2434],[98.3096,14.2434],[98.309,14.2385],[98.3096,14.2434]],[[98.3085,14.2347],[98.3085,14.2347],[98.3006,14.2379],[98.3085,14.2347]],[[98.2871,14.2296],[98.285,14.2278],[98.2874,14.2303],[98.2871,14.2296]],[[98.2826,14.2238],[98.2831,14.2262],[98.2831,14.2262],[98.2826,14.2238]],[[98.2773,14.2136],[98.2773,14.2136],[98.2771,14.2133],[98.2773,14.2136]],[[98.2567,14.192],[98.2567,14.1934],[98.2581,14.197],[98.2567,14.1934],[98.2567,14.192]],[[98.255,14.1862],[98.2568,14.1874],[98.255,14.1862],[98.255,14.1862]],[[98.2433,14.1923],[98.2409,14.1897],[98.2452,14.1933],[98.2433,14.1923]],[[98.2278,14.1843],[98.2298,14.184],[98.2334,14.1827],[98.2298,14.184],[98.2278,14.1843]],[[98.2135,14.1892],[98.2165,14.188],[98.2135,14.1892],[98.2135,14.1892]],[[98.2089,14.1798],[98.2096,14.1827],[98.2099,14.1874],[98.2096,14.1827],[98.2089,14.1798]],[[98.1969,14.1709],[98.1911,14.1747],[98.1969,14.1709],[98.2041,14.1735],[98.2055,14.1749],[98.2041,14.1735],[98.1969,14.1709]],[[98.2183,14.0041],[98.219,14.0042],[98.2119,14.0031],[98.2183,14.0041]],[[98.1911,14.1744],[98.1911,14.1745],[98.1908,14.1725],[98.1911,14.1744]],[[98.1888,14.1673],[98.1906,14.1716],[98.1888,14.1673],[98.1888,14.1673]],[[98.1886,14.1514],[98.1884,14.1531],[98.1887,14.1502],[98.1886,14.1514]],[[98.192,14.1274],[98.1938,14.118],[98.1936,14.1211],[98.192,14.1274]],[[98.1915,14.1131],[98.194,14.1155],[98.194,14.1155],[98.1915,14.1131]],[[98.1892,14.1104],[98.1894,14.1106],[98.1891,14.1103],[98.1892,14.1104]],[[98.1881,14.1091],[98.1885,14.1096],[98.1874,14.1086],[98.1881,14.1091]],[[98.1803,14.1009],[98.1834,14.1047],[98.18,14.1005],[98.1803,14.1009]],[[98.179,14.0993],[98.1795,14.1],[98.1785,14.0987],[98.179,14.0993]],[[98.177,14.0967],[98.177,14.0967],[98.177,14.0967],[98.177,14.0967]],[[98.1768,14.0966],[98.1769,14.0967],[98.1765,14.0962],[98.1768,14.0966]],[[98.1765,14.0962],[98.1765,14.0962],[98.1765,14.0962],[98.1765,14.0962]],[[98.1764,14.0962],[98.1765,14.0962],[98.1765,14.0962],[98.1764,14.0962]],[[98.1752,14.0942],[98.1746,14.0934],[98.1748,14.0937],[98.1752,14.0942]],[[98.1751,14.0883],[98.1751,14.0883],[98.1754,14.0882],[98.1751,14.0883]],[[98.1845,14.0687],[98.1843,14.0693],[98.1829,14.0721],[98.1822,14.0748],[98.1829,14.0721],[98.1845,14.0687]],[[98.1852,14.0663],[98.1851,14.0667],[98.1854,14.0649],[98.1852,14.0663]],[[98.1859,14.06],[98.1858,14.062],[98.1859,14.0598],[98.1859,14.06]],[[98.1868,14.0494],[98.186,14.0586],[98.1869,14.0492],[98.1868,14.0494]],[[98.2217,14.0062],[98.2219,14.0078],[98.2214,14.0056],[98.2217,14.0062]],[[98.2216,14.0102],[98.2209,14.0114],[98.2196,14.0116],[98.2209,14.0114],[98.2216,14.0102]],[[98.213,14.013],[98.2117,14.0131],[98.214,14.0128],[98.213,14.013]],[[98.2013,14.0145],[98.2046,14.0151],[98.2,14.0146],[98.2013,14.0145]],[[98.2,14.0146],[98.1983,14.0156],[98.1972,14.0165],[98.1983,14.0156],[98.2,14.0146]],[[98.1961,14.0249],[98.1967,14.0284],[98.1961,14.0249],[98.1969,14.0235],[98.198,14.0221],[98.1983,14.0212],[98.1975,14.0186],[98.1983,14.0212],[98.198,14.0221],[98.1961,14.0249]],[[98.1976,14.0304],[98.1979,14.0309],[98.1974,14.0302],[98.1976,14.0304]],[[98.199,14.0379],[98.1993,14.0331],[98.1983,14.0316],[98.1981,14.0312],[98.1993,14.0331],[98.199,14.0379]]],[[[98.1278,13.5335],[98.1309,13.5346],[98.1323,13.5341],[98.1322,13.5315],[98.1306,13.5294],[98.1284,13.5314],[98.1278,13.5335]]],[[[98.2017,13.6039],[98.2037,13.6096],[98.2045,13.6146],[98.2067,13.6129],[98.2082,13.6094],[98.2082,13.6073],[98.2061,13.6033],[98.2064,13.6005],[98.2055,13.5994],[98.2031,13.5993],[98.2001,13.5976],[98.1996,13.5979],[98.1996,13.6002],[98.2017,13.6039]]],[[[98.1956,13.6344],[98.1979,13.6328],[98.1961,13.6294],[98.1957,13.6253],[98.1938,13.6221],[98.1949,13.6189],[98.1929,13.6174],[98.1923,13.6133],[98.1904,13.6131],[98.1887,13.612],[98.1886,13.6134],[98.1871,13.6147],[98.1874,13.6175],[98.1859,13.6198],[98.1847,13.6194],[98.1835,13.6202],[98.1824,13.6223],[98.1824,13.6242],[98.181,13.6251],[98.1796,13.6281],[98.1793,13.6305],[98.1802,13.6358],[98.1826,13.6398],[98.1872,13.6446],[98.1872,13.6453],[98.193,13.6497],[98.1934,13.648],[98.1914,13.644],[98.19,13.6426],[98.1899,13.6375],[98.1936,13.6331],[98.1956,13.6344]]],[[[98.1934,13.6622],[98.1919,13.6607],[98.1925,13.6581],[98.192,13.6564],[98.1883,13.6576],[98.1871,13.6587],[98.1873,13.66],[98.1845,13.6667],[98.1846,13.6684],[98.1889,13.6686],[98.1907,13.6694],[98.1945,13.6692],[98.1934,13.6622]]],[[[98.2201,13.771],[98.2256,13.7896],[98.2298,13.8094],[98.231,13.8111],[98.2315,13.8102],[98.2317,13.7968],[98.2304,13.7832],[98.2269,13.7726],[98.2237,13.7658],[98.2224,13.7647],[98.2206,13.7669],[98.2201,13.771]]],[[[98.1933,13.7559],[98.1907,13.7587],[98.1871,13.7669],[98.1858,13.7736],[98.1853,13.7847],[98.1944,13.8073],[98.2103,13.8513],[98.2175,13.8653],[98.2196,13.8679],[98.2259,13.8611],[98.2267,13.8527],[98.2259,13.8461],[98.2246,13.8432],[98.2216,13.8293],[98.22,13.8148],[98.2186,13.8079],[98.2152,13.7965],[98.2098,13.7843],[98.2047,13.7634],[98.2018,13.7557],[98.198,13.7518],[98.196,13.7546],[98.1933,13.7559]]],[[[98.2281,13.8159],[98.2287,13.8213],[98.2309,13.8235],[98.2304,13.8176],[98.2288,13.8148],[98.2281,13.8159]]],[[[98.2299,13.8384],[98.2309,13.8389],[98.2314,13.8375],[98.2312,13.8315],[98.2297,13.8289],[98.228,13.8274],[98.2283,13.8343],[98.2299,13.8384]]],[[[98.1951,13.8317],[98.1944,13.8288],[98.1913,13.825],[98.1921,13.8285],[98.1982,13.8418],[98.2008,13.8505],[98.2038,13.8562],[98.2057,13.8571],[98.206,13.856],[98.2049,13.8527],[98.2017,13.8448],[98.1992,13.8401],[98.1981,13.8394],[98.1986,13.8385],[98.1976,13.8359],[98.196,13.8344],[98.1963,13.8337],[98.1958,13.8319],[98.1956,13.8327],[98.1951,13.8317]]],[[[98.2078,13.8672],[98.2108,13.8693],[98.2107,13.8671],[98.2085,13.8614],[98.2069,13.8589],[98.2049,13.8584],[98.2078,13.8672]]],[[[98.224,13.8734],[98.224,13.8796],[98.2248,13.8845],[98.2257,13.8854],[98.2271,13.8852],[98.2289,13.8816],[98.2302,13.8753],[98.2305,13.8714],[98.2292,13.8644],[98.2249,13.8699],[98.224,13.8734]]],[[[98.227,13.9097],[98.2275,13.8982],[98.2268,13.8944],[98.2248,13.8966],[98.2238,13.901],[98.2225,13.9139],[98.2226,13.9161],[98.2232,13.9168],[98.2256,13.9142],[98.227,13.9097]]],[[[98.2338,13.893],[98.23,13.9224],[98.2273,13.9307],[98.2273,13.9343],[98.2282,13.9359],[98.229,13.9352],[98.2286,13.9316],[98.2301,13.9258],[98.2313,13.9241],[98.2371,13.9194],[98.2394,13.9141],[98.2402,13.9095],[98.2402,13.9027],[98.2385,13.8984],[98.2374,13.8923],[98.2359,13.8899],[98.2349,13.8905],[98.2338,13.893]]],[[[98.2135,13.9324],[98.2113,13.9392],[98.2109,13.9458],[98.2096,13.9509],[98.2041,13.9596],[98.2033,13.9631],[98.2033,13.9648],[98.2047,13.9662],[98.2053,13.9679],[98.2099,13.9706],[98.2131,13.9693],[98.2154,13.9666],[98.2215,13.9511],[98.2174,13.9315],[98.2159,13.9291],[98.2135,13.9324]]]]}}]}