{"type":"FeatureCollection","features":[{"type":"Feature","properties":{"nmHsp_eng":"Dawei General Hospital","nmHsp_mya":"ထားဝယ်ပြည်သူ့ဆေးရုံကြီး","lvlHsp_eng":"General","bedClass":"200","TS_en":"Dawei"},"geometry":{"type":"Point","coordinates":[98.20311,14.07923]}},{"type":"Feature","properties":{"nmHsp_eng":"Metta Station Hospital","nmHsp_mya":"မေတ္တာတိုက်နယ်ဆေးရုံ","lvlHsp_eng":"Station","bedClass":"16","TS_en":"Dawei"},"geometry":{"type":"Point","coordinates":[98.51531,14.1645]}},{"type":"Feature","properties":{"nmHsp_eng":"Launglon Township Hospital","nmHsp_mya":"လောင်းလုံမြို့နယ်ဆေးရုံ","lvlHsp_eng":"Township","bedClass":"25","TS_en":"Launglon"},"geometry":{"type":"Point","coordinates":[98.12451,13.98502]}},{"type":"Feature","properties":{"nmHsp_eng":"Maung Ma Kan Station Hospital","nmHsp_mya":"မောင်းမကန်တိုက်နယ်ဆေးရုံ","lvlHsp_eng":"Station","bedClass":"16","TS_en":"Launglon"},"geometry":{"type":"Point","coordinates":[98.09929,14.14462]}},{"type":"Feature","properties":{"nmHsp_eng":"Tha Kyet Taw Station Hospital","nmHsp_mya":"သကြက်တောတိုက်နယ်ဆေးရုံ","lvlHsp_eng":"Station","bedClass":"16","TS_en":"Launglon"},"geometry":{"type":"Point","coordinates":[98.15112,13.75557]}},{"type":"Feature","properties":{"nmHsp_eng":"Thayetchaung Township Hospital","nmHsp_mya":"သရက်ချောင်းမြို့နယ်ဆေးရုံ","lvlHsp_eng":"Township","bedClass":"25","TS_en":"Thayetchaung"},"geometry":{"type":"Point","coordinates":[98.2641,13.86664]}},{"type":"Feature","properties":{"nmHsp_eng":"Yae Nge (Ya Nge) Station Hospital","nmHsp_mya":"ရငဲတိုက်နယ်ဆေးရုံ","lvlHsp_eng":"Station","bedClass":"16","TS_en":"Thayetchaung"},"geometry":{"type":"Point","coordinates":[98.38329,13.64174]}},{"type":"Feature","properties":{"nmHsp_eng":"Pe Det Station Hospital","nmHsp_mya":"ပဲဒက်တိုက်နယ်ဆေးရုံ","lvlHsp_eng":"Station","bedClass":"16","TS_en":"Thayetchaung"},"geometry":{"type":"Point","coordinates":[98.50688,13.45014]}},{"type":"Feature","properties":{"nmHsp_eng":"Yebyu Township Hospital","nmHsp_mya":"ရေဖြူမြို့နယ်ဆေးရုံ","lvlHsp_eng":"Township","bedClass":"25","TS_en":"Yebyu"},"geometry":{"type":"Point","coordinates":[98.19598,14.24587]}},{"type":"Feature","properties":{"nmHsp_eng":"Kalein Aung Station Hospital","nmHsp_mya":"ကလိန်အောင်တိုက်နယ်ဆေးရုံ","lvlHsp_eng":"Station","bedClass":"16","TS_en":"Yebyu"},"geometry":{"type":"Point","coordinates":[98.15793,14.6235]}},{"type":"Feature","properties":{"nmHsp_eng":"Kan Pauk Station Hospital","nmHsp_mya":"ကန်ပေါက်တိုက်နယ်ဆေးရုံ","lvlHsp_eng":"Station","bedClass":"16","TS_en":"Yebyu"},"geometry":{"type":"Point","coordinates":[98.02556,14.59802]}},{"type":"Feature","properties":{"nmHsp_eng":"Pa Rar Station Hospital","nmHsp_mya":"ဘဝါတိုက်နယ်ဆေးရုံ","lvlHsp_eng":"Station","bedClass":"16","TS_en":"Yebyu"},"geometry":{"type":"Point","coordinates":[98.01319,14.34406]}},{"type":"Feature","properties":{"nmHsp_eng":"Palaw Township Hospital","nmHsp_mya":"ပုလောမြို့နယ်ဆေးရုံ","lvlHsp_eng":"Township","bedClass":"50","TS_en":"Palaw"},"geometry":{"type":"Point","coordinates":[98.64943,12.97267]}},{"type":"Feature","properties":{"nmHsp_eng":"Pa La Station Hospital","nmHsp_mya":"ပလတိုက်နယ်ဆေးရုံ","lvlHsp_eng":"Station","bedClass":"16","TS_en":"Palaw"},"geometry":{"type":"Point","coordinates":[98.66275,12.84605]}},{"type":"Feature","properties":{"nmHsp_eng":"Palauk Station Hospital","nmHsp_mya":"ပလောက်တိုက်နယ်ဆေးရုံ","lvlHsp_eng":"Station","bedClass":"16","TS_en":"Palaw"},"geometry":{"type":"Point","coordinates":[98.62584,13.26496]}},{"type":"Feature","properties":{"nmHsp_eng":"Kyauk Kar Station Hospital","nmHsp_mya":"ကျောက်ကာတိုက်နယ်ဆေးရုံ","lvlHsp_eng":"Station","bedClass":"16","TS_en":"Palaw"},"geometry":{"type":"Point","coordinates":[98.63411,12.75371]}},{"type":"Feature","properties":{"nmHsp_eng":"Ma Li Kyun Station Hospital","nmHsp_mya":"မလိကျွန်းတိုက်နယ်ဆေးရုံ","lvlHsp_eng":"Station","bedClass":"16","TS_en":"Palaw"},"geometry":{"type":"Point","coordinates":[98.28505,13.10419]}},{"type":"Feature","properties":{"nmHsp_eng":"Pyin Bu Gyi Station Hospital","nmHsp_mya":"ပြင်ဘုကြီးတိုက်နယ်ဆေးရုံ","lvlHsp_eng":"Station","bedClass":"16","TS_en":"Palaw"},"geometry":{"type":"Point","coordinates":[98.49335,13.1825]}},{"type":"Feature","properties":{"nmHsp_eng":"Tanintharyi Township Hospital","nmHsp_mya":"တနင်္သာရီမြို့နယ်ဆေးရုံ","lvlHsp_eng":"Township","bedClass":"50","TS_en":"Tanintharyi"},"geometry":{"type":"Point","coordinates":[99.01111,12.0888]}},{"type":"Feature","properties":{"nmHsp_eng":"Ta Gu Station Hospital","nmHsp_mya":"တကူတိုက်နယ်ဆေးရုံ","lvlHsp_eng":"Station","bedClass":"16","TS_en":"Tanintharyi"},"geometry":{"type":"Point","coordinates":[99.03868,12.25729]}},{"type":"Feature","properties":{"nmHsp_eng":"Nyaung Pin Kwin Station Hospital","nmHsp_mya":"ညောင်ပင်ကွင်းတိုက်နယ်ဆေးရုံ","lvlHsp_eng":"Station","bedClass":"NA","TS_en":"Tanintharyi"},"geometry":{"type":"Point","coordinates":[99.09586,12.05469]}},{"type":"Feature","properties":{"nmHsp_eng":"Bokpyin Township Hospital","nmHsp_mya":"ဘုတ်ပြင်းမြို့နယ်ဆေးရုံ","lvlHsp_eng":"Township","bedClass":"50","TS_en":"Bokpyin"},"geometry":{"type":"Point","coordinates":[98.76188,11.26305]}},{"type":"Feature","properties":{"nmHsp_eng":"Pyi Gyi Mandaing Station Hospital","nmHsp_mya":"ပြည်ကြီးမဏ္ဍိုင်တိုက်နယ်ဆေးရုံ","lvlHsp_eng":"Station","bedClass":"16","TS_en":"Bokpyin"},"geometry":{"type":"Point","coordinates":[99.00157,11.47099]}},{"type":"Feature","properties":{"nmHsp_eng":"Ka Ra Thuri Station Hospital","nmHsp_mya":"ကရသူရိတိုက်နယ်ဆေးရုံ","lvlHsp_eng":"Station","bedClass":"16","TS_en":"Bokpyin"},"geometry":{"type":"Point","coordinates":[98.76254,10.93509]}}]}