{"type":"FeatureCollection","features":[{"type":"Feature","properties":{"Township":"Yebyu","Notes":"Le Shaung","Area_hect":0.14,"Certainty":"low","ImageYear1":2014},"geometry":{"type":"MultiPolygon","coordinates":[[[[98.0436,14.3065],[98.0434,14.3064],[98.0434,14.3063],[98.0432,14.3065],[98.0432,14.3066],[98.0434,14.3067],[98.0435,14.3068],[98.0436,14.3068],[98.0436,14.3065]]]]}},{"type":"Feature","properties":{"Township":"Yebyu","Notes":"Le Shaung","Area_hect":4.77,"Certainty":"medium","ImageYear1":2014},"geometry":{"type":"MultiPolygon","coordinates":[[[[98.0293,14.2695],[98.0289,14.2682],[98.0287,14.2672],[98.0283,14.2666],[98.0281,14.2666],[98.0271,14.2669],[98.0271,14.267],[98.0276,14.2676],[98.028,14.2693],[98.0284,14.2701],[98.0293,14.2695]]]]}},{"type":"Feature","properties":{"Township":"Yebyu","Notes":"Pu Gaw Zun","Area_hect":0.93,"Certainty":"low","ImageYear1":2015},"geometry":{"type":"MultiPolygon","coordinates":[[[[98.0842,14.2676],[98.084,14.2676],[98.0829,14.2678],[98.0828,14.268],[98.0828,14.2683],[98.0828,14.2689],[98.0831,14.2684],[98.0833,14.2682],[98.0833,14.2682],[98.0835,14.2682],[98.0838,14.2681],[98.0841,14.2681],[98.0842,14.2676]]]]}},{"type":"Feature","properties":{"Township":"Dawei","Notes":"Za Har","Area_hect":0.81,"Certainty":"medium","ImageYear1":2015},"geometry":{"type":"MultiPolygon","coordinates":[[[[98.1983,14.1608],[98.1985,14.1607],[98.1985,14.1605],[98.1984,14.1603],[98.1983,14.1603],[98.1981,14.1601],[98.1979,14.1602],[98.1978,14.1603],[98.1978,14.1604],[98.1977,14.1605],[98.1974,14.1606],[98.1976,14.1608],[98.1979,14.1608],[98.1981,14.161],[98.1981,14.1612],[98.1981,14.1613],[98.1984,14.1612],[98.1985,14.161],[98.1983,14.1608]]]]}},{"type":"Feature","properties":{"Township":"Yebyu","Notes":"mi kyaung hlaing","Area_hect":49.0,"Certainty":"low","ImageYear1":2014},"geometry":{"type":"MultiPolygon","coordinates":[[[[97.9304,15.0168],[97.9303,15.0171],[97.9313,15.0177],[97.9317,15.0185],[97.9321,15.0191],[97.9326,15.0199],[97.9331,15.0204],[97.9342,15.021],[97.9347,15.0211],[97.9352,15.0211],[97.9359,15.0202],[97.9362,15.0194],[97.9363,15.0185],[97.9364,15.0176],[97.9363,15.0171],[97.9356,15.0164],[97.9342,15.0156],[97.9336,15.0151],[97.9331,15.0143],[97.9324,15.0138],[97.9314,15.0137],[97.93,15.0139],[97.9299,15.0135],[97.93,15.0126],[97.9301,15.0117],[97.9303,15.011],[97.9304,15.0103],[97.9304,15.0099],[97.9303,15.0097],[97.9299,15.0098],[97.9298,15.0103],[97.9296,15.011],[97.9294,15.0117],[97.9292,15.0124],[97.9289,15.0135],[97.9289,15.0144],[97.9288,15.0154],[97.9285,15.0165],[97.9277,15.0168],[97.9263,15.0172],[97.9261,15.0166],[97.9259,15.0162],[97.9255,15.016],[97.9248,15.0159],[97.9246,15.0166],[97.9246,15.0173],[97.9248,15.0176],[97.9254,15.0178],[97.9256,15.0175],[97.9258,15.0177],[97.9261,15.0181],[97.9267,15.0179],[97.9274,15.0176],[97.9285,15.0175],[97.9292,15.0172],[97.9297,15.0166],[97.9304,15.0168]]]]}},{"type":"Feature","properties":{"Township":"Yebyu","Area_hect":11.99,"Certainty":"low","ImageYear1":2014},"geometry":{"type":"MultiPolygon","coordinates":[[[[97.9895,14.9816],[97.9903,14.9816],[97.9903,14.9814],[97.9896,14.981],[97.9892,14.9808],[97.989,14.9808],[97.9886,14.981],[97.9885,14.9814],[97.9884,14.9816],[97.9884,14.9818],[97.9882,14.9824],[97.9882,14.9827],[97.9882,14.9832],[97.9881,14.9836],[97.9883,14.9845],[97.9885,14.9848],[97.9886,14.9851],[97.989,14.9855],[97.9898,14.9864],[97.9904,14.9871],[97.9906,14.9876],[97.9907,14.9879],[97.9907,14.9881],[97.9905,14.9884],[97.9903,14.9886],[97.9901,14.9891],[97.9901,14.9892],[97.9901,14.9898],[97.9902,14.99],[97.9903,14.9901],[97.9904,14.9903],[97.9905,14.9898],[97.9904,14.9893],[97.9904,14.989],[97.9908,14.9892],[97.991,14.9894],[97.9913,14.9892],[97.9914,14.9886],[97.9918,14.9895],[97.9918,14.9898],[97.9915,14.99],[97.9914,14.99],[97.9911,14.9903],[97.9909,14.9906],[97.9907,14.9908],[97.9906,14.9909],[97.9905,14.9912],[97.9906,14.9915],[97.991,14.9913],[97.9913,14.9912],[97.9916,14.991],[97.992,14.9907],[97.9923,14.9905],[97.9922,14.9901],[97.9922,14.9899],[97.9922,14.9895],[97.9925,14.9893],[97.993,14.9893],[97.9932,14.9893],[97.9935,14.9892],[97.9937,14.9892],[97.994,14.9894],[97.9941,14.9892],[97.9938,14.9892],[97.9935,14.989],[97.9932,14.9888],[97.9931,14.9887],[97.9931,14.9887],[97.9928,14.9886],[97.9925,14.9887],[97.9923,14.9889],[97.992,14.9891],[97.9919,14.989],[97.9917,14.9885],[97.9915,14.9883],[97.9915,14.9882],[97.9913,14.9878],[97.991,14.9874],[97.9907,14.9871],[97.9904,14.9865],[97.9902,14.9861],[97.9898,14.9857],[97.9896,14.9854],[97.9896,14.9854],[97.9896,14.9851],[97.9903,14.9851],[97.9907,14.9851],[97.9909,14.9852],[97.991,14.9852],[97.9909,14.985],[97.9901,14.9847],[97.9901,14.9847],[97.9896,14.9847],[97.9894,14.9846],[97.9893,14.9844],[97.9889,14.984],[97.9887,14.9837],[97.9887,14.9833],[97.9887,14.983],[97.9888,14.9824],[97.9888,14.982],[97.989,14.982],[97.9895,14.9816]]]]}},{"type":"Feature","properties":{"Township":"Yebyu","Notes":"Rar Hpu","Area_hect":1.86,"Certainty":"low","ImageYear1":2014},"geometry":{"type":"MultiPolygon","coordinates":[[[[97.9991,14.9035],[97.999,14.9034],[97.9987,14.9031],[97.9983,14.9031],[97.998,14.9031],[97.9978,14.9036],[97.9976,14.9036],[97.9975,14.9033],[97.9972,14.9035],[97.9973,14.9038],[97.9976,14.9039],[97.998,14.904],[97.998,14.9038],[97.9981,14.9036],[97.9982,14.9035],[97.9985,14.9036],[97.9989,14.9039],[97.999,14.9042],[97.999,14.9043],[97.9989,14.9045],[97.9988,14.9048],[97.9987,14.9051],[97.9986,14.9054],[97.9987,14.9056],[97.999,14.9056],[97.999,14.9054],[97.999,14.9052],[97.9991,14.9049],[97.9992,14.9047],[97.9993,14.9045],[97.9993,14.9043],[97.9993,14.9041],[97.9993,14.904],[97.9991,14.9035]]]]}},{"type":"Feature","properties":{"Township":"Yebyu","Notes":"Rar Hpu","Area_hect":1.36,"Certainty":"low","ImageYear1":2014},"geometry":{"type":"MultiPolygon","coordinates":[[[[98.1016,14.7439],[98.1014,14.7439],[98.1013,14.7435],[98.1012,14.7433],[98.1011,14.7435],[98.1009,14.7436],[98.1009,14.7438],[98.1009,14.7443],[98.1011,14.7446],[98.1012,14.7448],[98.1014,14.7451],[98.1015,14.7453],[98.1018,14.7455],[98.1023,14.7455],[98.1019,14.745],[98.1017,14.7448],[98.1017,14.7445],[98.1016,14.7439]]]]}},{"type":"Feature","properties":{"Township":"Yebyu","Notes":"Kywe Thone Nyi Ma","Area_hect":1.44,"Certainty":"low","ImageYear1":2015},"geometry":{"type":"MultiPolygon","coordinates":[[[[98.1001,14.7608],[98.1002,14.7606],[98.1002,14.7605],[98.1,14.7604],[98.0998,14.7605],[98.0997,14.7606],[98.0997,14.7608],[98.0994,14.7609],[98.0991,14.7609],[98.0987,14.7611],[98.0989,14.7614],[98.0992,14.7617],[98.0993,14.762],[98.0993,14.7622],[98.0993,14.7623],[98.0993,14.7626],[98.0992,14.7628],[98.0992,14.763],[98.0994,14.7632],[98.0996,14.7632],[98.0996,14.7629],[98.0996,14.7628],[98.0998,14.7627],[98.1,14.7625],[98.0998,14.7623],[98.0997,14.7623],[98.0996,14.7621],[98.0995,14.7619],[98.0994,14.7617],[98.0992,14.7613],[98.099,14.7612],[98.0991,14.7611],[98.0993,14.7612],[98.0996,14.7611],[98.0998,14.7611],[98.1001,14.7608]]]]}},{"type":"Feature","properties":{"Township":"Yebyu","Notes":"Thea Chaung","Area_hect":0.27,"Certainty":"low","ImageYear1":2015},"geometry":{"type":"MultiPolygon","coordinates":[[[[98.0771,14.7618],[98.0771,14.7616],[98.0771,14.7614],[98.077,14.7614],[98.0768,14.7614],[98.0766,14.7615],[98.0764,14.7616],[98.0762,14.7617],[98.0761,14.7618],[98.0761,14.7619],[98.0761,14.7621],[98.0762,14.7621],[98.0763,14.7619],[98.0763,14.7618],[98.0764,14.7616],[98.0767,14.7616],[98.0767,14.7616],[98.0769,14.7616],[98.077,14.7618],[98.0771,14.7618]]]]}},{"type":"Feature","properties":{"Township":"Yebyu","Notes":"zin bar, kalaine naung sub-township","Area_hect":0.09,"Certainty":"medium","ImageYear1":2014},"geometry":{"type":"MultiPolygon","coordinates":[[[[98.0793,14.7514],[98.0792,14.7512],[98.0791,14.7512],[98.0791,14.7512],[98.0791,14.7513],[98.0789,14.7513],[98.0788,14.7515],[98.0789,14.7515],[98.079,14.7515],[98.0791,14.7515],[98.0792,14.7514],[98.0793,14.7514]]]]}},{"type":"Feature","properties":{"Township":"Yebyu","Area_hect":5.07,"Certainty":"medium","ImageYear1":2015},"geometry":{"type":"MultiPolygon","coordinates":[[[[97.881,14.7229],[97.8805,14.7229],[97.8798,14.7231],[97.8792,14.723],[97.879,14.7227],[97.8783,14.7225],[97.8778,14.7224],[97.8773,14.7223],[97.8767,14.7222],[97.877,14.7233],[97.8777,14.7236],[97.878,14.7237],[97.8786,14.7238],[97.8794,14.7239],[97.8802,14.7238],[97.8813,14.7233],[97.881,14.7229]]]]}},{"type":"Feature","properties":{"Township":"Yebyu","Notes":"Thea Chaung","Area_hect":2.73,"Certainty":"low","ImageYear1":2015},"geometry":{"type":"MultiPolygon","coordinates":[[[[97.9591,14.6644],[97.9587,14.6642],[97.9584,14.6641],[97.9584,14.6641],[97.9584,14.6642],[97.9582,14.6645],[97.958,14.6649],[97.958,14.6652],[97.9579,14.6655],[97.958,14.6659],[97.9593,14.6657],[97.9599,14.6651],[97.9591,14.6644]]]]}},{"type":"Feature","properties":{"Township":"Dawei","Notes":"Pa Kar Ri","Area_hect":0.39,"Certainty":"high","ImageYear1":2015},"geometry":{"type":"MultiPolygon","coordinates":[[[[98.2289,14.1373],[98.2288,14.1373],[98.2287,14.1373],[98.2284,14.1373],[98.2282,14.1372],[98.2281,14.1374],[98.2281,14.1375],[98.228,14.1376],[98.2282,14.1377],[98.2286,14.1377],[98.2287,14.1377],[98.229,14.1375],[98.229,14.1374],[98.2289,14.1373]]]]}},{"type":"Feature","properties":{"Township":"Yebyu","Notes":"Ohn Pin Kwin","Area_hect":14.03,"Certainty":"high","ImageYear1":2014},"geometry":{"type":"MultiPolygon","coordinates":[[[[98.3431,14.6817],[98.3431,14.6815],[98.3428,14.6813],[98.3427,14.6814],[98.3423,14.6815],[98.3419,14.6817],[98.3417,14.6819],[98.3417,14.6823],[98.3419,14.6825],[98.3417,14.6826],[98.3414,14.6828],[98.3407,14.6831],[98.3406,14.6832],[98.3405,14.6835],[98.3404,14.6837],[98.3405,14.684],[98.3407,14.6842],[98.3408,14.6842],[98.3411,14.684],[98.3413,14.684],[98.3419,14.6838],[98.3422,14.6838],[98.3423,14.6838],[98.3425,14.6838],[98.3427,14.6839],[98.3428,14.6839],[98.3431,14.684],[98.3434,14.6841],[98.3435,14.6843],[98.3439,14.6846],[98.3444,14.6845],[98.3447,14.6844],[98.3452,14.6842],[98.3456,14.6841],[98.3466,14.684],[98.3476,14.6838],[98.3486,14.6838],[98.3493,14.6839],[98.3498,14.684],[98.3502,14.6839],[98.3503,14.6836],[98.3506,14.6832],[98.3511,14.6827],[98.3516,14.6825],[98.3518,14.6824],[98.3522,14.6824],[98.3526,14.6825],[98.3528,14.6825],[98.3533,14.6825],[98.3532,14.6824],[98.3531,14.6823],[98.3527,14.6822],[98.3524,14.6821],[98.3522,14.682],[98.3518,14.682],[98.3512,14.6821],[98.351,14.6824],[98.3508,14.6825],[98.3505,14.6828],[98.3501,14.683],[98.35,14.6833],[98.3499,14.6835],[98.3498,14.6837],[98.3496,14.6837],[98.3491,14.6837],[98.3484,14.6836],[98.3478,14.6835],[98.3471,14.6835],[98.3466,14.6837],[98.3465,14.6833],[98.3464,14.6831],[98.3463,14.6831],[98.3463,14.6828],[98.3463,14.6825],[98.346,14.6824],[98.346,14.6824],[98.3458,14.6823],[98.3458,14.6823],[98.3455,14.6825],[98.3452,14.6828],[98.3449,14.6831],[98.3444,14.6832],[98.3443,14.6832],[98.3445,14.683],[98.3446,14.6828],[98.3443,14.6827],[98.3441,14.6828],[98.3441,14.683],[98.3438,14.6827],[98.3439,14.6826],[98.3434,14.6828],[98.3431,14.6829],[98.3428,14.6828],[98.3426,14.6827],[98.3426,14.6826],[98.3429,14.6823],[98.3431,14.6817]]]]}},{"type":"Feature","properties":{"Township":"Yebyu","Notes":"Ohn Pin Kwin","Area_hect":19.27,"Certainty":"high","ImageYear1":2014},"geometry":{"type":"MultiPolygon","coordinates":[[[[97.9753,14.5997],[97.9746,14.5996],[97.9729,14.5997],[97.9726,14.5998],[97.9717,14.5998],[97.9713,14.6001],[97.971,14.6004],[97.9713,14.6009],[97.9719,14.6004],[97.9721,14.6014],[97.9721,14.6016],[97.9721,14.6022],[97.9722,14.6027],[97.9725,14.6029],[97.9731,14.603],[97.9738,14.6033],[97.9755,14.6033],[97.9762,14.6033],[97.9777,14.6031],[97.9776,14.6023],[97.9773,14.6019],[97.9766,14.6017],[97.9763,14.6015],[97.9757,14.6005],[97.9756,14.6004],[97.9753,14.5997]]]]}},{"type":"Feature","properties":{"Township":"Yebyu","Notes":"Ohn Pin Kwin","Area_hect":0.35,"Certainty":"high","ImageYear1":2014},"geometry":{"type":"MultiPolygon","coordinates":[[[[97.9125,14.6494],[97.9123,14.6493],[97.9122,14.6493],[97.912,14.6494],[97.912,14.6495],[97.9119,14.6495],[97.9119,14.6497],[97.9119,14.6499],[97.9117,14.6501],[97.9117,14.6502],[97.9115,14.6503],[97.9114,14.6505],[97.9117,14.6505],[97.9118,14.6503],[97.9118,14.6502],[97.9119,14.6499],[97.912,14.6498],[97.9121,14.6497],[97.9122,14.6496],[97.9125,14.6494]]]]}},{"type":"Feature","properties":{"Township":"Yebyu","Area_hect":22.12,"Certainty":"low","ImageYear1":2014},"geometry":{"type":"MultiPolygon","coordinates":[[[[97.997,14.6028],[97.9956,14.6024],[97.994,14.6028],[97.9938,14.6028],[97.9933,14.6031],[97.9922,14.6036],[97.9917,14.6039],[97.9916,14.6042],[97.9913,14.6048],[97.9907,14.6048],[97.9896,14.6042],[97.9883,14.6041],[97.9878,14.6049],[97.9873,14.6054],[97.9874,14.6058],[97.9878,14.6061],[97.9883,14.6063],[97.9891,14.6074],[97.99,14.6075],[97.9918,14.6071],[97.9913,14.6056],[97.9917,14.6053],[97.993,14.605],[97.9935,14.6046],[97.9953,14.6043],[97.9959,14.6039],[97.997,14.6028]]]]}},{"type":"Feature","properties":{"Township":"Yebyu","Area_hect":5.01,"Certainty":"low","ImageYear1":2014},"geometry":{"type":"MultiPolygon","coordinates":[[[[98.0057,14.6258],[98.0052,14.6256],[98.0047,14.6253],[98.0045,14.6253],[98.0043,14.6253],[98.0039,14.6257],[98.0037,14.6261],[98.0033,14.6266],[98.0034,14.627],[98.0038,14.6273],[98.0048,14.6275],[98.0052,14.6275],[98.0058,14.6266],[98.0062,14.6262],[98.0057,14.6258]]]]}},{"type":"Feature","properties":{"Township":"Yebyu","Notes":"Ohn Pin Kwin","Area_hect":5.51,"Certainty":"low","ImageYear1":2014},"geometry":{"type":"MultiPolygon","coordinates":[[[[98.0094,14.6222],[98.0092,14.622],[98.0087,14.622],[98.008,14.622],[98.0072,14.6221],[98.0071,14.6222],[98.0068,14.6226],[98.0067,14.6228],[98.0066,14.6232],[98.0065,14.6234],[98.0064,14.6236],[98.0062,14.6239],[98.006,14.6242],[98.0061,14.6246],[98.0068,14.6245],[98.007,14.6241],[98.0071,14.6239],[98.0074,14.6236],[98.0077,14.6236],[98.008,14.6238],[98.0086,14.6239],[98.0088,14.6237],[98.0088,14.6236],[98.0087,14.6233],[98.0084,14.6232],[98.0082,14.623],[98.0081,14.6229],[98.008,14.6226],[98.008,14.6226],[98.008,14.6225],[98.008,14.6224],[98.008,14.6222],[98.0081,14.6222],[98.0083,14.6223],[98.0083,14.6224],[98.0085,14.6226],[98.0089,14.6226],[98.0091,14.6225],[98.0091,14.6227],[98.009,14.623],[98.0091,14.6234],[98.0096,14.6234],[98.0097,14.6234],[98.0097,14.6229],[98.0095,14.6226],[98.0094,14.6222]]]]}},{"type":"Feature","properties":{"Township":"Yebyu","Notes":"Ein Da Rar Zar","Area_hect":4.18,"Certainty":"low","ImageYear1":2014},"geometry":{"type":"MultiPolygon","coordinates":[[[[98.0169,14.6018],[98.0167,14.6014],[98.0166,14.6011],[98.0161,14.6009],[98.0156,14.6006],[98.0153,14.6005],[98.0147,14.6005],[98.0136,14.6007],[98.0132,14.6006],[98.0138,14.6003],[98.0141,14.6001],[98.014,14.6],[98.0138,14.5999],[98.0137,14.5998],[98.0132,14.6],[98.0127,14.5999],[98.0127,14.5996],[98.0127,14.6003],[98.0128,14.6005],[98.013,14.6008],[98.0133,14.6009],[98.0134,14.6009],[98.0138,14.601],[98.0143,14.601],[98.0153,14.6008],[98.0155,14.6013],[98.0155,14.6015],[98.0155,14.6017],[98.0154,14.602],[98.0157,14.6023],[98.016,14.6025],[98.0163,14.6026],[98.0167,14.6025],[98.0169,14.6018]]]]}},{"type":"Feature","properties":{"Township":"Yebyu","Notes":"Thea Chaung","Area_hect":2.41,"Certainty":"medium","ImageYear1":2014},"geometry":{"type":"MultiPolygon","coordinates":[[[[98.0149,14.6105],[98.015,14.6104],[98.0147,14.6103],[98.0139,14.6099],[98.0138,14.61],[98.0138,14.6103],[98.0137,14.6106],[98.0134,14.6107],[98.013,14.6107],[98.0126,14.6109],[98.0126,14.6109],[98.0123,14.6111],[98.0124,14.6112],[98.0125,14.6114],[98.0126,14.6114],[98.0128,14.6116],[98.013,14.6119],[98.013,14.6119],[98.013,14.6115],[98.013,14.6111],[98.0133,14.6109],[98.0136,14.6106],[98.0138,14.6106],[98.014,14.6108],[98.014,14.6109],[98.0137,14.6111],[98.0137,14.6114],[98.0137,14.6115],[98.0139,14.6117],[98.0141,14.6118],[98.0144,14.6118],[98.0148,14.6116],[98.015,14.6116],[98.0151,14.6115],[98.0149,14.6114],[98.0148,14.6113],[98.0148,14.6111],[98.015,14.6111],[98.0153,14.611],[98.0153,14.6109],[98.0152,14.6108],[98.0151,14.6107],[98.015,14.6105],[98.0149,14.6109],[98.0148,14.611],[98.0147,14.6111],[98.0144,14.6111],[98.0142,14.6111],[98.0141,14.6107],[98.0141,14.6106],[98.0141,14.6103],[98.0142,14.6103],[98.0142,14.6105],[98.0145,14.6107],[98.0147,14.6107],[98.0148,14.6106],[98.0149,14.6105]]]]}},{"type":"Feature","properties":{"Township":"Yebyu","Notes":"Thea Chaung","Area_hect":10.98,"Certainty":"low","ImageYear1":2014},"geometry":{"type":"MultiPolygon","coordinates":[[[[98.0321,14.611],[98.0326,14.6102],[98.0325,14.6098],[98.032,14.6094],[98.0312,14.6095],[98.0307,14.61],[98.0301,14.6108],[98.0297,14.6116],[98.0297,14.6123],[98.0297,14.6129],[98.0298,14.6135],[98.0301,14.6143],[98.0305,14.6146],[98.031,14.6143],[98.031,14.6135],[98.0316,14.6125],[98.0318,14.6121],[98.032,14.6125],[98.0323,14.6127],[98.0326,14.6126],[98.0331,14.6122],[98.0328,14.612],[98.0321,14.6118],[98.032,14.6116],[98.0321,14.611]]]]}},{"type":"Feature","properties":{"Township":"Yebyu","Area_hect":0.86,"Certainty":"low","ImageYear1":2014},"geometry":{"type":"MultiPolygon","coordinates":[[[[97.9158,14.5774],[97.9157,14.5775],[97.9156,14.5775],[97.9153,14.5776],[97.9151,14.5776],[97.9151,14.5777],[97.915,14.5779],[97.9149,14.578],[97.9148,14.5782],[97.9149,14.5784],[97.9152,14.5783],[97.9154,14.5783],[97.9155,14.5783],[97.9157,14.5783],[97.9159,14.5782],[97.9159,14.578],[97.9158,14.5774]]]]}},{"type":"Feature","properties":{"Township":"Yebyu","Notes":"kan pauk","Area_hect":0.91,"Certainty":"low","ImageYear1":2014},"geometry":{"type":"MultiPolygon","coordinates":[[[[97.9114,14.5774],[97.9114,14.5772],[97.9115,14.5766],[97.9115,14.5763],[97.9111,14.5764],[97.911,14.5765],[97.9107,14.5766],[97.9107,14.5768],[97.9107,14.5769],[97.9108,14.5771],[97.9111,14.5774],[97.9111,14.5778],[97.9114,14.5779],[97.9114,14.5774]]]]}},{"type":"Feature","properties":{"Township":"Yebyu","Notes":"Kayin Shin Ta bi; name from mining-atlas.com","Mineral1":"Tin","Area_hect":93.03,"Certainty":"high","ImageYear1":2014},"geometry":{"type":"MultiPolygon","coordinates":[[[[98.0245,14.577],[98.0228,14.577],[98.0221,14.5784],[98.0213,14.5784],[98.0213,14.5789],[98.0213,14.5797],[98.0213,14.5804],[98.0205,14.5816],[98.0209,14.5826],[98.0216,14.5842],[98.0218,14.5851],[98.0219,14.5855],[98.0223,14.586],[98.0231,14.5867],[98.0231,14.5867],[98.0233,14.5882],[98.0234,14.5883],[98.0242,14.5882],[98.0242,14.5873],[98.0245,14.5872],[98.0248,14.5871],[98.0251,14.5862],[98.0257,14.5859],[98.0267,14.5861],[98.0284,14.5855],[98.0288,14.5845],[98.0287,14.5837],[98.0286,14.5829],[98.0286,14.5824],[98.0285,14.5821],[98.028,14.5817],[98.0274,14.5811],[98.0272,14.5807],[98.027,14.58],[98.0274,14.5796],[98.0276,14.5788],[98.0278,14.5785],[98.0278,14.5781],[98.0278,14.5778],[98.0274,14.5769],[98.0273,14.5768],[98.0272,14.5759],[98.027,14.575],[98.0274,14.5749],[98.0276,14.5748],[98.0285,14.5742],[98.0285,14.5742],[98.0291,14.5742],[98.0299,14.574],[98.0307,14.5733],[98.0316,14.5731],[98.0323,14.5726],[98.0327,14.5722],[98.0327,14.5718],[98.0326,14.5718],[98.0324,14.5717],[98.0323,14.5717],[98.0319,14.5717],[98.0317,14.5717],[98.0313,14.5724],[98.0312,14.5726],[98.0304,14.5727],[98.0303,14.5727],[98.0299,14.573],[98.0298,14.5731],[98.0296,14.5734],[98.0291,14.5737],[98.0277,14.5737],[98.028,14.573],[98.0277,14.5725],[98.0273,14.5725],[98.027,14.5725],[98.0263,14.5722],[98.0259,14.5724],[98.0254,14.5724],[98.0249,14.5717],[98.0254,14.5709],[98.0262,14.571],[98.0267,14.5709],[98.0275,14.5707],[98.0275,14.5707],[98.0278,14.5706],[98.0281,14.5699],[98.0276,14.5695],[98.0274,14.5695],[98.0265,14.5697],[98.0265,14.5702],[98.0257,14.5703],[98.0254,14.5706],[98.0249,14.5706],[98.0245,14.571],[98.0241,14.5715],[98.0241,14.5723],[98.0248,14.5723],[98.0258,14.573],[98.0257,14.5733],[98.0265,14.5729],[98.0252,14.5734],[98.0257,14.5739],[98.026,14.5744],[98.0263,14.575],[98.0263,14.5756],[98.0261,14.5761],[98.026,14.5765],[98.0245,14.577]]]]}},{"type":"Feature","properties":{"Township":"Yebyu","Notes":"Hnan Kye","Area_hect":8.21,"Certainty":"medium","ImageYear1":2014},"geometry":{"type":"MultiPolygon","coordinates":[[[[98.0557,14.5742],[98.0555,14.5732],[98.055,14.5728],[98.0547,14.5728],[98.0543,14.5728],[98.0542,14.573],[98.0544,14.5734],[98.0549,14.574],[98.0551,14.5743],[98.0551,14.5745],[98.0553,14.5749],[98.0554,14.5753],[98.0557,14.5758],[98.0559,14.5761],[98.0567,14.5751],[98.0576,14.5742],[98.0581,14.5742],[98.0581,14.5741],[98.0581,14.5736],[98.0581,14.5733],[98.0581,14.573],[98.058,14.5728],[98.0583,14.5724],[98.0585,14.5721],[98.0587,14.5716],[98.059,14.5711],[98.059,14.5708],[98.0588,14.5701],[98.0586,14.5703],[98.0585,14.5706],[98.0584,14.5708],[98.0582,14.571],[98.0577,14.5714],[98.0577,14.5721],[98.0577,14.5726],[98.0573,14.5733],[98.0571,14.5737],[98.0569,14.574],[98.0564,14.5744],[98.0561,14.5747],[98.0557,14.5742]]]]}},{"type":"Feature","properties":{"Township":"Yebyu","Notes":"Wun Hpoet","Area_hect":5.12,"Certainty":"low","ImageYear1":2014},"geometry":{"type":"MultiPolygon","coordinates":[[[[98.052,14.5845],[98.0515,14.5845],[98.0513,14.5845],[98.0509,14.5845],[98.0504,14.5848],[98.0504,14.5852],[98.0504,14.5854],[98.0503,14.5855],[98.0501,14.586],[98.0499,14.5867],[98.0502,14.5862],[98.0504,14.5861],[98.0506,14.5862],[98.0508,14.5865],[98.051,14.5867],[98.0512,14.5868],[98.0513,14.5868],[98.0515,14.5871],[98.0518,14.5871],[98.052,14.5867],[98.0519,14.5862],[98.0522,14.5861],[98.0524,14.5859],[98.0531,14.5854],[98.0534,14.5853],[98.0535,14.5849],[98.0536,14.5846],[98.0537,14.5844],[98.0537,14.5843],[98.0537,14.5839],[98.0541,14.5834],[98.0542,14.5834],[98.0545,14.5829],[98.0547,14.5826],[98.0548,14.5825],[98.0548,14.5822],[98.0548,14.582],[98.0543,14.5824],[98.0542,14.5826],[98.054,14.5828],[98.0537,14.583],[98.0534,14.5832],[98.0532,14.5832],[98.0532,14.5836],[98.0532,14.5837],[98.0532,14.5841],[98.0532,14.5844],[98.0531,14.5847],[98.0531,14.5849],[98.0528,14.585],[98.0526,14.5851],[98.0524,14.5854],[98.0522,14.5855],[98.0518,14.5858],[98.0517,14.5859],[98.0517,14.5861],[98.0517,14.5864],[98.0516,14.5867],[98.0512,14.5863],[98.051,14.5862],[98.0509,14.5862],[98.0507,14.5859],[98.0507,14.5855],[98.0508,14.5853],[98.0512,14.5848],[98.0513,14.5848],[98.052,14.5845]]]]}},{"type":"Feature","properties":{"Township":"Yebyu","Notes":"Wun Hpoet","Area_hect":2.37,"Certainty":"low","ImageYear1":2014},"geometry":{"type":"MultiPolygon","coordinates":[[[[98.1824,14.5126],[98.182,14.512],[98.1811,14.512],[98.1805,14.5127],[98.181,14.5132],[98.1815,14.5136],[98.1824,14.513],[98.1824,14.5126]]]]}},{"type":"Feature","properties":{"Township":"Yebyu","Notes":"Pa Ra Dat","Area_hect":2.5,"Certainty":"medium","ImageYear1":2013},"geometry":{"type":"MultiPolygon","coordinates":[[[[98.2108,14.4705],[98.2105,14.4705],[98.2103,14.4708],[98.2101,14.4711],[98.2099,14.4707],[98.2098,14.4707],[98.2092,14.4709],[98.209,14.4712],[98.2087,14.4715],[98.2082,14.4718],[98.2081,14.4721],[98.208,14.4718],[98.208,14.4715],[98.2077,14.4715],[98.2074,14.4717],[98.2075,14.4719],[98.2077,14.472],[98.2078,14.4722],[98.2079,14.4724],[98.2079,14.4729],[98.2079,14.4734],[98.2079,14.4735],[98.2079,14.4736],[98.208,14.4736],[98.208,14.4736],[98.2082,14.4736],[98.2086,14.4734],[98.2089,14.4733],[98.2087,14.4731],[98.2086,14.4731],[98.2085,14.4732],[98.2082,14.4731],[98.2083,14.4728],[98.2083,14.4725],[98.2083,14.4724],[98.2084,14.4721],[98.2085,14.4719],[98.2086,14.4717],[98.209,14.4715],[98.2094,14.4713],[98.2096,14.4713],[98.2098,14.4713],[98.2101,14.4713],[98.2106,14.4711],[98.2106,14.4711],[98.2108,14.4705]]]]}},{"type":"Feature","properties":{"Township":"Yebyu","Notes":"between wun hpoet and tha ran","Area_hect":1.94,"Certainty":"high","ImageYear1":2014},"geometry":{"type":"MultiPolygon","coordinates":[[[[98.1831,14.4175],[98.183,14.4175],[98.183,14.4177],[98.183,14.4179],[98.1832,14.4179],[98.1834,14.4177],[98.1834,14.4177],[98.1836,14.4175],[98.1837,14.4175],[98.1838,14.4175],[98.1838,14.4177],[98.1838,14.4178],[98.1837,14.418],[98.1837,14.4182],[98.184,14.4182],[98.1841,14.4181],[98.1844,14.4181],[98.1844,14.4181],[98.1847,14.418],[98.1846,14.4178],[98.1846,14.4178],[98.1845,14.4177],[98.1844,14.4178],[98.1843,14.4179],[98.1841,14.4179],[98.1842,14.4176],[98.1842,14.4175],[98.1841,14.4173],[98.1841,14.4171],[98.1841,14.4169],[98.1842,14.4167],[98.1842,14.4162],[98.1842,14.416],[98.1842,14.4158],[98.1845,14.4157],[98.1847,14.4154],[98.1846,14.4154],[98.1844,14.4154],[98.1841,14.4154],[98.1839,14.4153],[98.1839,14.4152],[98.184,14.4151],[98.1845,14.415],[98.1846,14.4147],[98.1845,14.4147],[98.1843,14.4148],[98.1841,14.4148],[98.1839,14.4149],[98.1838,14.4151],[98.1837,14.4153],[98.1837,14.4154],[98.1838,14.4156],[98.184,14.4157],[98.184,14.4157],[98.1839,14.4159],[98.184,14.4162],[98.184,14.4164],[98.184,14.4165],[98.1841,14.4167],[98.184,14.417],[98.1839,14.417],[98.1837,14.417],[98.1835,14.4172],[98.1831,14.4175]]]]}},{"type":"Feature","properties":{"Township":"Yebyu","Notes":"U Tha Ran","Area_hect":0.99,"Certainty":"high","ImageYear1":2014},"geometry":{"type":"MultiPolygon","coordinates":[[[[98.1834,14.4225],[98.1832,14.4226],[98.1828,14.4227],[98.1827,14.4224],[98.1825,14.422],[98.1823,14.422],[98.1824,14.4229],[98.1825,14.4231],[98.1827,14.4234],[98.1827,14.4234],[98.1835,14.4229],[98.1834,14.4225]]]]}},{"type":"Feature","properties":{"Township":"Yebyu","Notes":"wun hpoet","Area_hect":1.9,"Certainty":"medium","ImageYear1":2010},"geometry":{"type":"MultiPolygon","coordinates":[[[[97.9915,14.345],[97.9913,14.345],[97.991,14.3452],[97.9908,14.345],[97.9908,14.3448],[97.9906,14.3446],[97.9902,14.3446],[97.9897,14.345],[97.99,14.3453],[97.9902,14.3455],[97.9904,14.3456],[97.9906,14.3457],[97.9906,14.3457],[97.9911,14.3458],[97.9916,14.3459],[97.9916,14.3456],[97.9918,14.3453],[97.9919,14.3448],[97.9915,14.345]]]]}},{"type":"Feature","properties":{"Township":"Yebyu","Notes":"Le Shaung","Area_hect":21.43,"Certainty":"medium","ImageYear1":2014},"geometry":{"type":"MultiPolygon","coordinates":[[[[98.0755,14.2581],[98.0745,14.2572],[98.0744,14.2571],[98.0737,14.257],[98.0732,14.2571],[98.0735,14.2582],[98.0733,14.2584],[98.0726,14.2587],[98.0722,14.2589],[98.0714,14.2591],[98.0708,14.2591],[98.0707,14.2591],[98.0703,14.2592],[98.0693,14.2588],[98.0689,14.2586],[98.0682,14.2583],[98.0677,14.2587],[98.0678,14.2593],[98.0673,14.2596],[98.0672,14.2598],[98.0675,14.2601],[98.0682,14.2601],[98.0687,14.26],[98.0698,14.2601],[98.0702,14.2601],[98.0705,14.2605],[98.0711,14.2613],[98.0718,14.2615],[98.073,14.2615],[98.0735,14.2605],[98.0735,14.2602],[98.0744,14.26],[98.0757,14.2595],[98.0761,14.2596],[98.0767,14.2593],[98.077,14.259],[98.0755,14.2581]]]]}},{"type":"Feature","properties":{"Township":"Yebyu","Notes":"Thu Ran","Area_hect":85.7,"Certainty":"high","ImageYear1":2014},"geometry":{"type":"MultiPolygon","coordinates":[[[[98.1914,14.3455],[98.1907,14.3435],[98.191,14.3438],[98.1917,14.344],[98.1927,14.3438],[98.1937,14.343],[98.1936,14.3433],[98.1929,14.3445],[98.193,14.3455],[98.1933,14.3462],[98.1944,14.3448],[98.195,14.345],[98.195,14.3455],[98.1957,14.3462],[98.197,14.3455],[98.1975,14.3454],[98.1988,14.3452],[98.201,14.3447],[98.2019,14.3446],[98.2024,14.3441],[98.2027,14.3434],[98.2028,14.343],[98.2033,14.3418],[98.2038,14.341],[98.2038,14.3406],[98.2032,14.3391],[98.2026,14.3398],[98.2016,14.3399],[98.2011,14.3396],[98.2009,14.339],[98.2004,14.3383],[98.1995,14.3383],[98.1992,14.3379],[98.199,14.3373],[98.1984,14.3372],[98.1974,14.3375],[98.1971,14.3376],[98.1967,14.3379],[98.196,14.3392],[98.1955,14.3402],[98.1952,14.3408],[98.1946,14.3414],[98.1936,14.3418],[98.1925,14.3417],[98.1919,14.3416],[98.1915,14.3413],[98.1915,14.3408],[98.1919,14.3406],[98.192,14.3405],[98.1922,14.3402],[98.1922,14.3401],[98.192,14.3398],[98.1916,14.3394],[98.1916,14.3392],[98.1911,14.3389],[98.1911,14.3392],[98.1907,14.3403],[98.1905,14.341],[98.1902,14.342],[98.1901,14.3428],[98.1899,14.3437],[98.1896,14.3445],[98.1897,14.3452],[98.1903,14.3456],[98.1908,14.3457],[98.1914,14.3455]]]]}},{"type":"Feature","properties":{"Township":"Yebyu","Notes":"Thu Ran","Area_hect":29.47,"Certainty":"high","ImageYear1":2004},"geometry":{"type":"MultiPolygon","coordinates":[[[[98.1915,14.3359],[98.1921,14.3359],[98.1923,14.3356],[98.1926,14.3358],[98.1928,14.3361],[98.193,14.3361],[98.1932,14.3368],[98.194,14.337],[98.1944,14.3366],[98.1943,14.3363],[98.1941,14.3359],[98.1938,14.3357],[98.1933,14.3357],[98.1929,14.3355],[98.1924,14.3351],[98.1924,14.3351],[98.1923,14.3349],[98.1918,14.3344],[98.1918,14.3337],[98.1918,14.3332],[98.1918,14.3326],[98.1918,14.3324],[98.1916,14.3318],[98.1917,14.3318],[98.1921,14.3319],[98.1926,14.3317],[98.1926,14.3313],[98.1924,14.331],[98.1919,14.3306],[98.1918,14.3303],[98.1918,14.3298],[98.1918,14.3289],[98.1918,14.3288],[98.1918,14.3287],[98.1922,14.3287],[98.193,14.3283],[98.193,14.3279],[98.193,14.3279],[98.1927,14.3277],[98.1923,14.3279],[98.192,14.3283],[98.1918,14.3284],[98.1917,14.3274],[98.1917,14.3271],[98.1918,14.3271],[98.1921,14.3263],[98.1925,14.3261],[98.1927,14.326],[98.1931,14.3253],[98.1932,14.3251],[98.1932,14.3244],[98.1929,14.3241],[98.1926,14.3241],[98.1927,14.3233],[98.1927,14.3225],[98.1929,14.3235],[98.1933,14.3239],[98.1937,14.3232],[98.1941,14.323],[98.1946,14.3229],[98.1955,14.3226],[98.1957,14.3221],[98.196,14.3214],[98.1961,14.3213],[98.197,14.3212],[98.1977,14.3207],[98.1974,14.3195],[98.1971,14.3194],[98.1965,14.3197],[98.196,14.3202],[98.1958,14.3205],[98.1953,14.3212],[98.1947,14.3217],[98.1945,14.3217],[98.1944,14.3217],[98.1939,14.3221],[98.1932,14.3218],[98.1928,14.3218],[98.1922,14.3219],[98.192,14.3224],[98.192,14.3246],[98.1918,14.3255],[98.191,14.3263],[98.1908,14.3269],[98.1906,14.3279],[98.1906,14.3289],[98.1907,14.3299],[98.1908,14.331],[98.1908,14.3316],[98.1908,14.3323],[98.1908,14.3342],[98.1908,14.3353],[98.1915,14.3359]]]]}},{"type":"Feature","properties":{"Township":"Yebyu","Notes":"Myay Khan Baw","Area_hect":9.75,"Certainty":"low","ImageYear1":2014},"geometry":{"type":"MultiPolygon","coordinates":[[[[98.1751,14.3238],[98.1759,14.3241],[98.1764,14.3242],[98.1765,14.3236],[98.1763,14.323],[98.1758,14.3229],[98.1753,14.3231],[98.1749,14.3232],[98.1749,14.3228],[98.1746,14.3223],[98.1742,14.3226],[98.1741,14.3232],[98.174,14.3238],[98.1735,14.3248],[98.1732,14.3255],[98.1726,14.3258],[98.1718,14.3257],[98.1711,14.3257],[98.171,14.3261],[98.1704,14.3269],[98.1697,14.3277],[98.1695,14.328],[98.1697,14.3282],[98.1703,14.3285],[98.1709,14.3287],[98.1713,14.3287],[98.1714,14.3287],[98.172,14.3285],[98.1724,14.3278],[98.1722,14.3276],[98.1721,14.3276],[98.1717,14.328],[98.1711,14.3278],[98.1709,14.3272],[98.1709,14.3271],[98.171,14.3265],[98.1713,14.3267],[98.1715,14.3267],[98.1722,14.3264],[98.1725,14.3264],[98.1727,14.3264],[98.1729,14.3263],[98.173,14.3261],[98.1734,14.3254],[98.1737,14.3251],[98.1739,14.3245],[98.1745,14.3244],[98.1752,14.3241],[98.1753,14.324],[98.1754,14.324],[98.1751,14.3238]]]]}},{"type":"Feature","properties":{"Township":"Yebyu","Notes":"Pa Ra Dat","Area_hect":7.28,"Certainty":"high","ImageYear1":2015},"geometry":{"type":"MultiPolygon","coordinates":[[[[98.1994,14.3105],[98.199,14.3103],[98.1989,14.3103],[98.1988,14.3108],[98.1986,14.3111],[98.1982,14.3112],[98.1981,14.3112],[98.1978,14.3114],[98.1971,14.3124],[98.1968,14.3126],[98.1964,14.3126],[98.1961,14.3125],[98.1955,14.3129],[98.195,14.3133],[98.1945,14.3134],[98.1942,14.3134],[98.1938,14.3135],[98.1939,14.3139],[98.194,14.3142],[98.1942,14.3139],[98.1944,14.3137],[98.1947,14.3136],[98.1948,14.3136],[98.1951,14.3135],[98.1953,14.3135],[98.1956,14.3135],[98.1959,14.3134],[98.1962,14.3132],[98.1967,14.3131],[98.1968,14.313],[98.197,14.313],[98.1971,14.3128],[98.1973,14.3126],[98.1974,14.3124],[98.1975,14.3123],[98.1976,14.3121],[98.1976,14.3121],[98.1977,14.312],[98.1977,14.3125],[98.1978,14.3129],[98.1978,14.313],[98.198,14.3135],[98.1981,14.3136],[98.1979,14.314],[98.1976,14.3148],[98.1975,14.3151],[98.1975,14.3154],[98.1974,14.3156],[98.1977,14.3156],[98.1984,14.3157],[98.1993,14.3156],[98.1989,14.3151],[98.1986,14.3149],[98.1986,14.3149],[98.1984,14.3149],[98.1979,14.315],[98.1979,14.3148],[98.1981,14.3141],[98.1984,14.3138],[98.1985,14.3135],[98.1984,14.3131],[98.1983,14.3128],[98.1983,14.3124],[98.1982,14.312],[98.1982,14.3119],[98.1983,14.312],[98.1984,14.312],[98.1985,14.312],[98.199,14.3118],[98.1992,14.3116],[98.1995,14.3113],[98.1999,14.311],[98.1994,14.3105]]]]}},{"type":"Feature","properties":{"Township":"Yebyu","Notes":"Pa Ra Dat","Area_hect":0.48,"Certainty":"low","ImageYear1":2014},"geometry":{"type":"MultiPolygon","coordinates":[[[[98.1955,14.3075],[98.195,14.3075],[98.1948,14.3075],[98.1947,14.3081],[98.1949,14.3083],[98.1952,14.308],[98.1955,14.3075]]]]}},{"type":"Feature","properties":{"Township":"Dawei","Notes":"Pa Ra Dat","Area_hect":8.61,"Certainty":"low","ImageYear1":2014},"geometry":{"type":"MultiPolygon","coordinates":[[[[98.4472,14.3266],[98.447,14.3264],[98.4469,14.3264],[98.4465,14.3265],[98.4466,14.327],[98.4467,14.3273],[98.447,14.3278],[98.4472,14.3282],[98.4474,14.3286],[98.4475,14.3289],[98.4475,14.3294],[98.4475,14.3301],[98.4475,14.3307],[98.4475,14.3313],[98.4475,14.3316],[98.4475,14.332],[98.448,14.3326],[98.4481,14.3326],[98.4482,14.3325],[98.4483,14.3324],[98.4483,14.3323],[98.4484,14.3321],[98.4484,14.3316],[98.4485,14.3313],[98.4485,14.3312],[98.4485,14.3309],[98.4485,14.3307],[98.4486,14.3302],[98.4487,14.3294],[98.4489,14.3289],[98.4489,14.3283],[98.4488,14.3278],[98.4479,14.327],[98.4478,14.3269],[98.4472,14.3266]]]]}},{"type":"Feature","properties":{"Township":"Yebyu","Notes":"Na Bu Tal","Area_hect":78.93,"Certainty":"low","ImageYear1":2014},"geometry":{"type":"MultiPolygon","coordinates":[[[[98.0201,14.3109],[98.0196,14.3105],[98.0189,14.3113],[98.0188,14.3118],[98.0179,14.3128],[98.0174,14.3132],[98.0166,14.3138],[98.0159,14.3138],[98.0154,14.3138],[98.0151,14.3137],[98.0143,14.3133],[98.0134,14.3132],[98.0127,14.3139],[98.0126,14.3148],[98.0119,14.316],[98.0116,14.3167],[98.0111,14.3179],[98.0109,14.3185],[98.0111,14.3193],[98.0114,14.3195],[98.0124,14.3193],[98.013,14.3193],[98.0139,14.3196],[98.0151,14.3197],[98.0157,14.3192],[98.0158,14.3188],[98.0159,14.3179],[98.016,14.3174],[98.0155,14.3177],[98.0153,14.3181],[98.0151,14.3188],[98.0144,14.3186],[98.014,14.3184],[98.0138,14.318],[98.0138,14.3173],[98.0146,14.3171],[98.0153,14.3169],[98.0156,14.3169],[98.0159,14.3171],[98.016,14.3171],[98.016,14.3171],[98.0166,14.3173],[98.0173,14.3173],[98.0182,14.3173],[98.0191,14.3176],[98.0177,14.3179],[98.0176,14.318],[98.017,14.3183],[98.0176,14.3189],[98.0183,14.3191],[98.0186,14.3191],[98.02,14.3184],[98.0201,14.3181],[98.0204,14.3181],[98.0209,14.3183],[98.0212,14.3185],[98.0212,14.3187],[98.0205,14.3195],[98.0202,14.3196],[98.0201,14.3202],[98.0202,14.3207],[98.0209,14.321],[98.0219,14.3214],[98.0222,14.3215],[98.0243,14.3202],[98.0243,14.3202],[98.0249,14.3189],[98.0246,14.3181],[98.0243,14.318],[98.0242,14.318],[98.0246,14.3171],[98.0248,14.3167],[98.0249,14.3163],[98.0249,14.3159],[98.0248,14.3152],[98.0246,14.3146],[98.0244,14.314],[98.0241,14.3137],[98.0235,14.3137],[98.023,14.3136],[98.0225,14.3138],[98.0222,14.3144],[98.0222,14.3145],[98.0212,14.3146],[98.0191,14.3148],[98.019,14.3148],[98.0187,14.315],[98.0188,14.3157],[98.0189,14.316],[98.018,14.3165],[98.0178,14.3164],[98.0172,14.3161],[98.017,14.316],[98.017,14.3153],[98.0169,14.3148],[98.0176,14.3139],[98.0181,14.3133],[98.0186,14.3126],[98.0189,14.3124],[98.0201,14.3109]]]]}},{"type":"Feature","properties":{"Township":"Yebyu","Notes":"Pu Gaw Zun","Area_hect":2.44,"Certainty":"low","ImageYear1":2014},"geometry":{"type":"MultiPolygon","coordinates":[[[[98.0926,14.2859],[98.093,14.2855],[98.093,14.2855],[98.0927,14.2854],[98.0923,14.2854],[98.0921,14.2854],[98.0919,14.2858],[98.0922,14.2861],[98.0923,14.2862],[98.0926,14.2865],[98.0926,14.287],[98.0924,14.2875],[98.0921,14.2878],[98.0917,14.2878],[98.0915,14.2877],[98.0912,14.2875],[98.0909,14.2873],[98.0907,14.2872],[98.0903,14.287],[98.0898,14.2868],[98.0895,14.2868],[98.0892,14.2868],[98.0897,14.2869],[98.0901,14.287],[98.0902,14.2871],[98.0902,14.2873],[98.0904,14.2877],[98.0905,14.2878],[98.0908,14.2878],[98.091,14.2878],[98.0914,14.288],[98.0918,14.2881],[98.0923,14.288],[98.0925,14.2875],[98.0927,14.2872],[98.0928,14.2871],[98.093,14.2868],[98.093,14.2866],[98.0929,14.2864],[98.093,14.2863],[98.093,14.2862],[98.093,14.2861],[98.093,14.286],[98.0926,14.2859]]]]}},{"type":"Feature","properties":{"Township":"Yebyu","Notes":"near U Tha Ran, Pale Gu, Ta Laing Yar","Area_hect":1.0,"Certainty":"medium","ImageYear1":2014},"geometry":{"type":"MultiPolygon","coordinates":[[[[98.0978,14.2912],[98.0974,14.2909],[98.0973,14.2909],[98.0971,14.291],[98.097,14.2911],[98.0967,14.2912],[98.0965,14.2913],[98.0965,14.2916],[98.0969,14.2918],[98.0972,14.2919],[98.0973,14.2917],[98.0975,14.2916],[98.0979,14.2915],[98.0978,14.2912]]]]}},{"type":"Feature","properties":{"Township":"Yebyu","Notes":"Ta Laing Yar","Mineral1":"Tin","Area_hect":2.87,"Certainty":"high","ImageYear1":2014},"geometry":{"type":"MultiPolygon","coordinates":[[[[98.135,14.2979],[98.1349,14.2977],[98.1348,14.2976],[98.1345,14.2976],[98.1344,14.2977],[98.134,14.2979],[98.1338,14.2981],[98.1336,14.2984],[98.1335,14.2986],[98.1334,14.2989],[98.133,14.2991],[98.1329,14.2992],[98.1326,14.2992],[98.1325,14.2991],[98.1321,14.2991],[98.1322,14.2993],[98.1323,14.2994],[98.1325,14.2993],[98.1327,14.2993],[98.1328,14.2994],[98.1329,14.2994],[98.1331,14.2995],[98.1333,14.2995],[98.1335,14.2995],[98.1336,14.2994],[98.1338,14.2994],[98.1339,14.2994],[98.135,14.2993],[98.1352,14.2995],[98.1354,14.2995],[98.1356,14.2996],[98.136,14.2996],[98.1365,14.2994],[98.1366,14.2991],[98.1365,14.299],[98.1361,14.2991],[98.1354,14.2992],[98.1347,14.2993],[98.1345,14.2993],[98.1341,14.2991],[98.1342,14.2989],[98.1343,14.2988],[98.1344,14.2987],[98.1345,14.2986],[98.1344,14.2985],[98.1343,14.2984],[98.1341,14.2983],[98.1341,14.2982],[98.1344,14.298],[98.1347,14.2981],[98.135,14.2979]]]]}},{"type":"Feature","properties":{"Township":"Yebyu","Notes":"Ta Laing Yar","Area_hect":127.64,"Certainty":"low","ImageYear1":2015},"geometry":{"type":"MultiPolygon","coordinates":[[[[98.168,14.2847],[98.167,14.2844],[98.1654,14.2845],[98.164,14.2846],[98.1637,14.2846],[98.1618,14.2847],[98.1614,14.2852],[98.1595,14.287],[98.1592,14.2899],[98.16,14.2914],[98.1598,14.2926],[98.1569,14.2945],[98.1554,14.2957],[98.1537,14.2958],[98.1523,14.2954],[98.1496,14.2956],[98.149,14.2968],[98.149,14.2973],[98.1499,14.2985],[98.1515,14.2992],[98.1532,14.2993],[98.1555,14.2987],[98.1577,14.2979],[98.1589,14.2973],[98.1606,14.2962],[98.1609,14.296],[98.1619,14.2946],[98.1629,14.2939],[98.1638,14.2938],[98.1644,14.2938],[98.165,14.2938],[98.1656,14.2938],[98.1657,14.2927],[98.166,14.2923],[98.1662,14.2918],[98.166,14.2905],[98.1666,14.2886],[98.167,14.2884],[98.1683,14.2866],[98.1689,14.2866],[98.168,14.2847]]]]}},{"type":"Feature","properties":{"Township":"Yebyu","Notes":"Ta Laing Yar","Area_hect":6.96,"Certainty":"low","ImageYear1":2014},"geometry":{"type":"MultiPolygon","coordinates":[[[[98.1994,14.2931],[98.1991,14.293],[98.1987,14.293],[98.1982,14.293],[98.1977,14.2932],[98.1963,14.2929],[98.1955,14.2929],[98.1948,14.2927],[98.1943,14.2926],[98.194,14.2925],[98.1934,14.2924],[98.1926,14.2922],[98.1921,14.2921],[98.1918,14.2923],[98.1922,14.2925],[98.1926,14.2927],[98.1927,14.2929],[98.1929,14.293],[98.1934,14.2934],[98.1938,14.2935],[98.1942,14.2934],[98.1946,14.2932],[98.1949,14.2932],[98.1953,14.2932],[98.1955,14.2933],[98.1956,14.2934],[98.1959,14.2938],[98.1961,14.2938],[98.1965,14.2939],[98.1972,14.2939],[98.1975,14.2939],[98.1981,14.2938],[98.1984,14.2937],[98.1991,14.2937],[98.1995,14.2937],[98.1996,14.2937],[98.2002,14.2936],[98.2006,14.2936],[98.2006,14.2936],[98.2007,14.2934],[98.1994,14.2931]]]]}},{"type":"Feature","properties":{"Township":"Yebyu","Notes":"Ta Laing Yar","Area_hect":1.03,"Certainty":"low","ImageYear1":2014},"geometry":{"type":"MultiPolygon","coordinates":[[[[98.2477,14.2783],[98.2477,14.2783],[98.2473,14.2783],[98.2473,14.2783],[98.2472,14.2784],[98.2471,14.2786],[98.2471,14.2786],[98.2471,14.2786],[98.2469,14.2787],[98.247,14.2789],[98.2471,14.2792],[98.2472,14.2795],[98.2473,14.2798],[98.2473,14.2801],[98.2473,14.2803],[98.2474,14.2806],[98.2475,14.2808],[98.2476,14.2809],[98.2479,14.2808],[98.248,14.2805],[98.248,14.2804],[98.248,14.2803],[98.2478,14.2805],[98.2478,14.2806],[98.2478,14.2806],[98.2476,14.2806],[98.2476,14.2806],[98.2475,14.2805],[98.2475,14.2803],[98.2475,14.2801],[98.2475,14.28],[98.2474,14.2797],[98.2474,14.2796],[98.2473,14.2792],[98.2473,14.279],[98.2473,14.2789],[98.2474,14.2788],[98.2476,14.2788],[98.2479,14.2787],[98.2477,14.2783]]]]}},{"type":"Feature","properties":{"Township":"Yebyu","Notes":"Laung Lone","Area_hect":7.74,"Certainty":"low","ImageYear1":2014},"geometry":{"type":"MultiPolygon","coordinates":[[[[98.2764,14.2906],[98.2755,14.2907],[98.2744,14.2907],[98.274,14.2906],[98.2734,14.2899],[98.2732,14.2892],[98.2725,14.2889],[98.2716,14.2882],[98.2712,14.2885],[98.2715,14.2891],[98.2722,14.2895],[98.2728,14.2899],[98.273,14.2904],[98.2731,14.2906],[98.2733,14.291],[98.2736,14.2914],[98.2741,14.2916],[98.2744,14.2917],[98.2749,14.2918],[98.2754,14.292],[98.2758,14.292],[98.2766,14.292],[98.2769,14.2917],[98.2771,14.2916],[98.2772,14.2913],[98.2772,14.2909],[98.2764,14.2906]]]]}},{"type":"Feature","properties":{"Township":"Yebyu","Notes":"mu du","Area_hect":1.48,"Certainty":"medium","ImageYear1":2015},"geometry":{"type":"MultiPolygon","coordinates":[[[[98.2597,14.2689],[98.2595,14.2687],[98.2594,14.2687],[98.2593,14.2687],[98.2593,14.2691],[98.2593,14.2693],[98.2594,14.2697],[98.2594,14.27],[98.2595,14.2704],[98.2598,14.2708],[98.2599,14.2712],[98.2602,14.2716],[98.2602,14.2715],[98.2601,14.2712],[98.2601,14.2708],[98.2602,14.2705],[98.26,14.2702],[98.26,14.2701],[98.2599,14.2697],[98.2599,14.2696],[98.2597,14.2689]]]]}},{"type":"Feature","properties":{"Township":"Yebyu","Notes":"between Mu Du and Thit to Htaungt","Area_hect":3.12,"Certainty":"low","ImageYear1":2015},"geometry":{"type":"MultiPolygon","coordinates":[[[[98.2611,14.265],[98.2609,14.2648],[98.2608,14.2649],[98.2608,14.2654],[98.2609,14.2658],[98.2609,14.2658],[98.2611,14.2664],[98.2614,14.2667],[98.2613,14.2668],[98.2608,14.2671],[98.2608,14.2675],[98.2609,14.2679],[98.261,14.2683],[98.2609,14.2689],[98.2608,14.2698],[98.2611,14.2703],[98.2612,14.2701],[98.2613,14.2695],[98.2613,14.2688],[98.2614,14.2684],[98.2614,14.2678],[98.2615,14.2675],[98.2616,14.2671],[98.2618,14.2665],[98.2618,14.2663],[98.2616,14.2659],[98.2615,14.2657],[98.2611,14.265]]]]}},{"type":"Feature","properties":{"Township":"Launglon","Notes":"Urban","Area_hect":0.47,"Certainty":"low","ImageYear1":2015},"geometry":{"type":"MultiPolygon","coordinates":[[[[98.0672,14.2007],[98.0672,14.2006],[98.0672,14.2006],[98.0671,14.2006],[98.0671,14.2005],[98.067,14.2005],[98.0669,14.2005],[98.0668,14.2006],[98.0667,14.2006],[98.0667,14.2007],[98.0667,14.2008],[98.0666,14.2009],[98.0666,14.201],[98.0665,14.201],[98.0664,14.201],[98.0664,14.2011],[98.0664,14.2011],[98.0664,14.2012],[98.0664,14.2013],[98.0664,14.2013],[98.0665,14.2013],[98.0666,14.2014],[98.0666,14.2014],[98.0667,14.2014],[98.0668,14.2013],[98.0668,14.2013],[98.0669,14.2012],[98.067,14.2012],[98.067,14.2011],[98.0671,14.2011],[98.0671,14.2011],[98.0671,14.201],[98.0672,14.2007]]]]}},{"type":"Feature","properties":{"Township":"Dawei","Notes":"Za Har","Area_hect":1.26,"Certainty":"medium","ImageYear1":2015},"geometry":{"type":"MultiPolygon","coordinates":[[[[98.2275,14.1472],[98.2272,14.1477],[98.2271,14.1479],[98.227,14.1481],[98.2269,14.1481],[98.2268,14.1482],[98.2267,14.1483],[98.2266,14.1483],[98.2266,14.1486],[98.2267,14.1488],[98.2267,14.1489],[98.2266,14.149],[98.2265,14.1492],[98.2265,14.1492],[98.2264,14.1493],[98.2262,14.1494],[98.2263,14.1495],[98.2263,14.1496],[98.2264,14.1496],[98.2265,14.1495],[98.2266,14.1493],[98.2268,14.1492],[98.2269,14.149],[98.227,14.1487],[98.2271,14.1485],[98.2271,14.1484],[98.2271,14.1483],[98.2272,14.1481],[98.2274,14.148],[98.2275,14.1478],[98.2276,14.1476],[98.2277,14.1474],[98.2278,14.1472],[98.2277,14.1471],[98.2276,14.147],[98.2276,14.1469],[98.2274,14.1468],[98.2273,14.1466],[98.2271,14.1466],[98.2271,14.1466],[98.2269,14.1469],[98.2272,14.147],[98.2275,14.1471],[98.2275,14.1472]]]]}},{"type":"Feature","properties":{"Township":"Yebyu","Notes":"Pin Shaung","Area_hect":4.17,"Certainty":"low","ImageYear1":2015},"geometry":{"type":"MultiPolygon","coordinates":[[[[98.1257,14.2473],[98.1256,14.2472],[98.1253,14.247],[98.1251,14.2469],[98.125,14.2466],[98.1246,14.2462],[98.1245,14.2461],[98.1244,14.2458],[98.1241,14.2457],[98.1237,14.2456],[98.1234,14.2456],[98.1235,14.2457],[98.1236,14.246],[98.1238,14.2462],[98.124,14.2462],[98.1241,14.2464],[98.1241,14.2464],[98.1243,14.2465],[98.1246,14.2467],[98.1247,14.2469],[98.1248,14.2472],[98.1249,14.2474],[98.1251,14.2475],[98.125,14.2478],[98.1249,14.2478],[98.1248,14.2481],[98.1247,14.2484],[98.1245,14.2483],[98.1245,14.2481],[98.1242,14.2478],[98.1241,14.2476],[98.124,14.2473],[98.1239,14.2472],[98.1238,14.247],[98.1236,14.2467],[98.1234,14.2467],[98.1233,14.2467],[98.1231,14.2468],[98.1231,14.247],[98.123,14.2475],[98.1232,14.2476],[98.1235,14.2477],[98.1235,14.2477],[98.1237,14.2479],[98.1238,14.248],[98.1237,14.2481],[98.1237,14.2484],[98.1237,14.2486],[98.1238,14.2487],[98.124,14.2487],[98.1241,14.2488],[98.1243,14.2488],[98.1244,14.2489],[98.1246,14.2489],[98.1248,14.2488],[98.1257,14.2473]]]]}},{"type":"Feature","properties":{"Township":"Yebyu","Notes":"Kyauk Htauk","Area_hect":4.87,"Certainty":"medium","ImageYear1":2015},"geometry":{"type":"MultiPolygon","coordinates":[[[[98.1303,14.2267],[98.13,14.2269],[98.1298,14.227],[98.1297,14.2267],[98.1295,14.2267],[98.1289,14.2271],[98.1286,14.2272],[98.1283,14.2272],[98.1281,14.2272],[98.1278,14.2272],[98.1276,14.2274],[98.1271,14.2276],[98.1266,14.2278],[98.1263,14.2281],[98.1262,14.2282],[98.1258,14.228],[98.1256,14.2279],[98.1254,14.2277],[98.1252,14.2273],[98.1251,14.2273],[98.1248,14.2271],[98.1246,14.2271],[98.1244,14.2271],[98.1239,14.2272],[98.1238,14.227],[98.1235,14.2272],[98.1235,14.2275],[98.1235,14.2278],[98.1234,14.2281],[98.1234,14.2282],[98.1237,14.2284],[98.124,14.2285],[98.124,14.2282],[98.1238,14.2279],[98.1238,14.2279],[98.1239,14.2276],[98.124,14.2275],[98.1241,14.2277],[98.1241,14.2278],[98.1242,14.2278],[98.1244,14.2278],[98.1247,14.2276],[98.1249,14.2277],[98.125,14.2278],[98.1251,14.228],[98.1252,14.2281],[98.1255,14.2283],[98.1257,14.2284],[98.1259,14.2286],[98.1262,14.2287],[98.1264,14.2287],[98.1267,14.2283],[98.1267,14.2283],[98.1271,14.2283],[98.1273,14.2283],[98.1277,14.228],[98.1278,14.228],[98.1281,14.228],[98.1284,14.2278],[98.1285,14.2277],[98.1288,14.2276],[98.129,14.2276],[98.1293,14.2274],[98.1293,14.2274],[98.1303,14.2267]]]]}},{"type":"Feature","properties":{"Township":"Yebyu","Notes":"Pale Gu","Area_hect":0.51,"Certainty":"low","ImageYear1":2015},"geometry":{"type":"MultiPolygon","coordinates":[[[[98.1811,14.2321],[98.1811,14.2321],[98.181,14.2322],[98.181,14.2323],[98.181,14.2323],[98.1809,14.2324],[98.1808,14.2324],[98.1807,14.2324],[98.1807,14.2324],[98.1806,14.2323],[98.1806,14.2323],[98.1803,14.2323],[98.1801,14.2323],[98.18,14.2323],[98.18,14.2323],[98.18,14.2324],[98.1801,14.2324],[98.1801,14.2324],[98.1802,14.2324],[98.1803,14.2324],[98.1803,14.2324],[98.1805,14.2324],[98.1805,14.2324],[98.1805,14.2325],[98.1806,14.2325],[98.1806,14.2326],[98.1807,14.2326],[98.1808,14.2326],[98.1808,14.2326],[98.1808,14.2326],[98.1809,14.2326],[98.1811,14.2326],[98.1812,14.2325],[98.1814,14.2325],[98.1815,14.2325],[98.1816,14.2324],[98.1816,14.2324],[98.1816,14.2323],[98.1816,14.2322],[98.1816,14.2322],[98.1814,14.2321],[98.1811,14.2321]]]]}},{"type":"Feature","properties":{"Township":"Yebyu","Notes":"urban","Area_hect":0.66,"Certainty":"medium","ImageYear1":2015},"geometry":{"type":"MultiPolygon","coordinates":[[[[98.1438,14.2058],[98.1438,14.2058],[98.1437,14.2057],[98.1436,14.2057],[98.1433,14.2059],[98.1433,14.206],[98.1433,14.2062],[98.1433,14.2065],[98.1434,14.2066],[98.1436,14.2067],[98.1438,14.2067],[98.1439,14.2067],[98.144,14.2066],[98.144,14.2064],[98.144,14.2064],[98.144,14.206],[98.1438,14.2058]]]]}},{"type":"Feature","properties":{"Township":"Yebyu","Notes":"Kyauk Ka Nyar","Area_hect":0.97,"Certainty":"medium","ImageYear1":2015},"geometry":{"type":"MultiPolygon","coordinates":[[[[98.1796,14.2145],[98.1792,14.2145],[98.1793,14.2148],[98.1795,14.2149],[98.1799,14.2148],[98.1805,14.2147],[98.1805,14.2147],[98.1808,14.2146],[98.1805,14.2146],[98.1804,14.2144],[98.1806,14.2144],[98.1806,14.2143],[98.1802,14.2142],[98.1801,14.2141],[98.1799,14.2138],[98.18,14.2136],[98.1799,14.2135],[98.1796,14.2136],[98.1794,14.2136],[98.1793,14.2137],[98.1793,14.2139],[98.1796,14.214],[98.1797,14.2141],[98.1798,14.2141],[98.1799,14.2141],[98.1801,14.2142],[98.1801,14.2143],[98.1802,14.2143],[98.1801,14.2144],[98.18,14.2144],[98.18,14.2145],[98.1801,14.2145],[98.1802,14.2146],[98.1803,14.2146],[98.1802,14.2147],[98.18,14.2147],[98.1798,14.2147],[98.1798,14.2147],[98.1798,14.2145],[98.1796,14.2145]]]]}},{"type":"Feature","properties":{"Township":"Yebyu","Notes":"HarMyin Gyi","Area_hect":0.68,"Certainty":"high","ImageYear1":2015},"geometry":{"type":"MultiPolygon","coordinates":[[[[98.1902,14.2472],[98.1899,14.2471],[98.1895,14.2469],[98.1892,14.2468],[98.1891,14.2472],[98.1891,14.2473],[98.1892,14.2476],[98.1897,14.2477],[98.1902,14.2472]]]]}},{"type":"Feature","properties":{"Township":"Yebyu","Area_hect":0.7,"Certainty":"medium","ImageYear1":2015},"geometry":{"type":"MultiPolygon","coordinates":[[[[98.2081,14.2427],[98.2081,14.2426],[98.208,14.2425],[98.208,14.2425],[98.208,14.2425],[98.2079,14.2424],[98.2079,14.2424],[98.2079,14.2422],[98.2079,14.2422],[98.2079,14.2421],[98.208,14.242],[98.208,14.2419],[98.2079,14.2418],[98.2079,14.2418],[98.2078,14.2417],[98.2077,14.2418],[98.2077,14.2418],[98.2075,14.242],[98.2075,14.2421],[98.2074,14.2422],[98.2075,14.2423],[98.2076,14.2424],[98.2076,14.2425],[98.2076,14.2427],[98.2076,14.2428],[98.2077,14.243],[98.2078,14.2432],[98.2078,14.2433],[98.2078,14.2434],[98.2079,14.2433],[98.208,14.2432],[98.2081,14.2431],[98.2081,14.2431],[98.2081,14.243],[98.2082,14.2429],[98.2081,14.2427]]]]}},{"type":"Feature","properties":{"Township":"Yebyu","Area_hect":0.7,"Certainty":"medium","ImageYear1":2015},"geometry":{"type":"MultiPolygon","coordinates":[[[[98.2088,14.2119],[98.2087,14.2118],[98.2086,14.2118],[98.2085,14.2118],[98.2084,14.2118],[98.2083,14.212],[98.2081,14.2121],[98.2078,14.2121],[98.2075,14.2121],[98.2075,14.2122],[98.2074,14.2123],[98.2074,14.2124],[98.2073,14.2125],[98.2074,14.2126],[98.2075,14.2126],[98.2076,14.2126],[98.2077,14.2125],[98.2077,14.2125],[98.2078,14.2124],[98.2079,14.2125],[98.208,14.2125],[98.208,14.2126],[98.2081,14.2127],[98.2084,14.2125],[98.2084,14.2125],[98.2085,14.2124],[98.2085,14.2124],[98.2085,14.2121],[98.2088,14.2121],[98.2088,14.2119]]]]}},{"type":"Feature","properties":{"Township":"Dawei","Notes":"Pa Kar Ri","Area_hect":1.77,"Certainty":"high","ImageYear1":2015},"geometry":{"type":"MultiPolygon","coordinates":[[[[98.2325,14.132],[98.2323,14.132],[98.2321,14.132],[98.2319,14.132],[98.2316,14.1321],[98.2315,14.1321],[98.2313,14.1321],[98.2312,14.1319],[98.2311,14.1317],[98.2311,14.1317],[98.2309,14.1316],[98.2306,14.1315],[98.2304,14.1316],[98.2302,14.1318],[98.2299,14.1322],[98.2301,14.1323],[98.2304,14.1323],[98.2306,14.1323],[98.2308,14.1324],[98.2312,14.1324],[98.2315,14.1325],[98.2318,14.1325],[98.2321,14.1326],[98.2324,14.1326],[98.2326,14.1326],[98.2325,14.132]]]]}},{"type":"Feature","properties":{"Township":"Dawei","Notes":"Pa Kar Ri","Area_hect":2.6,"Certainty":"medium","ImageYear1":2015},"geometry":{"type":"MultiPolygon","coordinates":[[[[98.2355,14.1338],[98.2352,14.1338],[98.235,14.1337],[98.2349,14.1337],[98.2347,14.1338],[98.2346,14.134],[98.2346,14.1342],[98.2349,14.1344],[98.235,14.1345],[98.235,14.1347],[98.2349,14.135],[98.2348,14.1353],[98.2347,14.1356],[98.2346,14.136],[98.2346,14.1363],[98.2346,14.1366],[98.2346,14.1368],[98.2345,14.1372],[98.2343,14.1374],[98.2342,14.1375],[98.2341,14.1375],[98.2341,14.1376],[98.234,14.1378],[98.234,14.1379],[98.234,14.138],[98.2342,14.1379],[98.2343,14.1377],[98.2344,14.1375],[98.2345,14.1375],[98.2348,14.1375],[98.2351,14.1375],[98.2353,14.1376],[98.2355,14.1378],[98.2355,14.138],[98.2356,14.1381],[98.2357,14.1383],[98.2358,14.1383],[98.236,14.1384],[98.236,14.1382],[98.236,14.1381],[98.2358,14.1378],[98.2356,14.1376],[98.2355,14.1375],[98.2352,14.1374],[98.2351,14.1372],[98.2353,14.137],[98.2359,14.1367],[98.2357,14.1365],[98.2354,14.1364],[98.235,14.1363],[98.2349,14.1365],[98.2349,14.1366],[98.2349,14.1369],[98.2349,14.1371],[98.2346,14.1374],[98.2346,14.1371],[98.2347,14.137],[98.2348,14.1367],[98.2348,14.1363],[98.2349,14.1359],[98.2349,14.1357],[98.2349,14.1353],[98.2351,14.1349],[98.2352,14.1348],[98.2354,14.1343],[98.2355,14.1338]]]]}},{"type":"Feature","properties":{"Township":"Dawei","Notes":"Pan Det Inn; name from mining-atlas.com","Mineral1":"Tin","Area_hect":10.56,"Certainty":"high","ImageYear1":2015},"geometry":{"type":"MultiPolygon","coordinates":[[[[98.3408,14.2465],[98.3408,14.2463],[98.3405,14.2462],[98.3404,14.2461],[98.3404,14.2461],[98.3403,14.2462],[98.3403,14.2462],[98.3405,14.2464],[98.3405,14.2466],[98.3406,14.2469],[98.3407,14.247],[98.3407,14.2471],[98.3407,14.2472],[98.3407,14.2473],[98.3407,14.2475],[98.3407,14.2476],[98.3406,14.2477],[98.3406,14.2479],[98.3406,14.2481],[98.3405,14.2484],[98.3405,14.2487],[98.3404,14.249],[98.3406,14.2493],[98.3408,14.2494],[98.341,14.2497],[98.3412,14.2498],[98.3416,14.2499],[98.3417,14.2499],[98.3421,14.25],[98.3425,14.25],[98.3428,14.2499],[98.343,14.2498],[98.3433,14.2497],[98.3436,14.2495],[98.3438,14.2494],[98.3441,14.2493],[98.3443,14.2492],[98.3444,14.2493],[98.3445,14.2493],[98.3445,14.2494],[98.3444,14.2497],[98.3444,14.2498],[98.3443,14.2501],[98.3443,14.2504],[98.3443,14.2506],[98.3441,14.2508],[98.3441,14.251],[98.3441,14.2515],[98.3442,14.2518],[98.3446,14.2516],[98.3448,14.2515],[98.3449,14.2517],[98.3449,14.2518],[98.3451,14.252],[98.3451,14.2525],[98.345,14.2528],[98.3451,14.2533],[98.3456,14.2532],[98.3457,14.2531],[98.3456,14.253],[98.3456,14.2524],[98.3456,14.2521],[98.3458,14.2518],[98.3463,14.2518],[98.3471,14.2519],[98.3474,14.2519],[98.3477,14.2519],[98.3479,14.2517],[98.3479,14.2517],[98.3478,14.2516],[98.3477,14.2515],[98.3469,14.2516],[98.3469,14.2516],[98.3466,14.2515],[98.3458,14.2513],[98.3456,14.2512],[98.3453,14.2512],[98.3452,14.2512],[98.3453,14.251],[98.3456,14.251],[98.3458,14.251],[98.3459,14.251],[98.346,14.251],[98.346,14.2512],[98.3462,14.2514],[98.3463,14.2514],[98.3464,14.2509],[98.3464,14.2509],[98.3466,14.2509],[98.3468,14.2509],[98.3471,14.2508],[98.3471,14.2507],[98.347,14.2505],[98.3468,14.2505],[98.3466,14.2505],[98.3465,14.2505],[98.3464,14.2505],[98.3462,14.2503],[98.3462,14.2502],[98.3461,14.2501],[98.3457,14.25],[98.3455,14.2499],[98.3453,14.2498],[98.3452,14.2498],[98.3452,14.2497],[98.3451,14.2496],[98.3451,14.2494],[98.345,14.2493],[98.3448,14.2492],[98.3445,14.249],[98.3444,14.2489],[98.3442,14.2489],[98.3441,14.2489],[98.3438,14.2488],[98.3438,14.2489],[98.3437,14.249],[98.3436,14.2491],[98.3436,14.2493],[98.3435,14.2493],[98.3434,14.2493],[98.3433,14.2493],[98.3431,14.2492],[98.3429,14.2491],[98.3427,14.2489],[98.3425,14.2489],[98.3423,14.2489],[98.3421,14.2492],[98.3421,14.2495],[98.3422,14.2496],[98.342,14.2498],[98.3419,14.2498],[98.3416,14.2496],[98.3413,14.2494],[98.3411,14.2492],[98.341,14.2491],[98.3409,14.249],[98.3407,14.2487],[98.3407,14.2484],[98.341,14.2479],[98.3411,14.2477],[98.3411,14.2473],[98.3411,14.2469],[98.3408,14.2465]]]]}},{"type":"Feature","properties":{"Township":"Dawei","Notes":"Kha Maung Tone","Area_hect":1.68,"Certainty":"medium","ImageYear1":2015},"geometry":{"type":"MultiPolygon","coordinates":[[[[98.3441,14.2545],[98.3438,14.2545],[98.3433,14.2544],[98.3429,14.2543],[98.3428,14.254],[98.3427,14.2539],[98.3426,14.2539],[98.3423,14.2541],[98.3424,14.2544],[98.3425,14.2546],[98.3426,14.255],[98.3428,14.2554],[98.3432,14.2557],[98.3436,14.256],[98.344,14.2563],[98.3441,14.2561],[98.344,14.2559],[98.3439,14.2558],[98.3439,14.2558],[98.3437,14.2557],[98.3435,14.2555],[98.3435,14.2553],[98.3436,14.255],[98.3436,14.255],[98.3434,14.255],[98.3427,14.255],[98.3427,14.2547],[98.3429,14.2545],[98.3431,14.2546],[98.3434,14.2547],[98.3436,14.2547],[98.3437,14.2548],[98.344,14.2548],[98.3441,14.2545]]]]}},{"type":"Feature","properties":{"Township":"Launglon","Notes":"Maung Mei Shaung","Area_hect":1.15,"Certainty":"medium","ImageYear1":2015},"geometry":{"type":"MultiPolygon","coordinates":[[[[98.1573,14.1742],[98.1573,14.174],[98.1573,14.1738],[98.1573,14.1736],[98.1572,14.1734],[98.157,14.1733],[98.1569,14.1733],[98.1567,14.1733],[98.1566,14.1734],[98.1565,14.1736],[98.1564,14.1738],[98.1565,14.1741],[98.1565,14.1743],[98.1565,14.1745],[98.1566,14.1746],[98.1569,14.1746],[98.1573,14.1745],[98.1573,14.1742]]]]}},{"type":"Feature","properties":{"Township":"Launglon","Notes":"Maung Mei Shaung","Area_hect":0.48,"Certainty":"high","ImageYear1":2015},"geometry":{"type":"MultiPolygon","coordinates":[[[[98.1283,14.1804],[98.1283,14.1804],[98.1282,14.1804],[98.1281,14.1803],[98.1281,14.1802],[98.128,14.1801],[98.128,14.18],[98.128,14.1799],[98.128,14.1798],[98.128,14.1798],[98.1279,14.1796],[98.1278,14.1796],[98.1278,14.1796],[98.1278,14.1796],[98.1278,14.1796],[98.1278,14.1797],[98.1278,14.1797],[98.1279,14.1798],[98.1279,14.1799],[98.1279,14.1799],[98.1279,14.18],[98.1279,14.1801],[98.1279,14.1802],[98.1279,14.1803],[98.128,14.1803],[98.128,14.1804],[98.128,14.1805],[98.128,14.1805],[98.128,14.1807],[98.1279,14.1809],[98.1279,14.1809],[98.1279,14.181],[98.1279,14.1811],[98.1278,14.1812],[98.1279,14.1813],[98.1279,14.1813],[98.128,14.1813],[98.1282,14.1813],[98.1282,14.1812],[98.1282,14.1812],[98.1283,14.1811],[98.1282,14.181],[98.1282,14.1809],[98.1282,14.1808],[98.1282,14.1807],[98.1283,14.1807],[98.1283,14.1807],[98.1283,14.1806],[98.1283,14.1804]]]]}},{"type":"Feature","properties":{"Township":"Launglon","Notes":"Maung Mei Saung","Area_hect":8.63,"Certainty":"medium","ImageYear1":2015},"geometry":{"type":"MultiPolygon","coordinates":[[[[98.1752,14.1204],[98.1753,14.1196],[98.1753,14.119],[98.1753,14.1186],[98.1749,14.1183],[98.1744,14.1185],[98.1742,14.1191],[98.174,14.1193],[98.1739,14.1194],[98.1738,14.1196],[98.1736,14.1199],[98.1734,14.1203],[98.1734,14.1206],[98.1734,14.1209],[98.1734,14.1213],[98.1734,14.1219],[98.1741,14.122],[98.1742,14.122],[98.1744,14.1223],[98.1745,14.1223],[98.175,14.1223],[98.1751,14.1227],[98.1751,14.1231],[98.1751,14.1232],[98.1748,14.1237],[98.1747,14.1238],[98.1746,14.1242],[98.1748,14.1243],[98.175,14.1243],[98.1757,14.124],[98.1759,14.1239],[98.1758,14.1234],[98.1755,14.1231],[98.1752,14.1224],[98.1752,14.122],[98.1751,14.1216],[98.1755,14.1213],[98.1755,14.1208],[98.1755,14.1208],[98.1752,14.1204]]]]}},{"type":"Feature","properties":{"Township":"Dawei","Notes":"Maung Mei Shaung","Area_hect":0.84,"Certainty":"low","ImageYear1":2015},"geometry":{"type":"MultiPolygon","coordinates":[[[[98.2196,14.1673],[98.2194,14.1673],[98.2194,14.1674],[98.2193,14.1676],[98.219,14.1678],[98.2188,14.1679],[98.2188,14.1682],[98.2189,14.1685],[98.2189,14.1686],[98.2189,14.1688],[98.2189,14.1689],[98.2188,14.1691],[98.2188,14.1692],[98.2188,14.1694],[98.2188,14.1696],[98.2188,14.1697],[98.219,14.1699],[98.2191,14.1698],[98.2192,14.1697],[98.2192,14.1696],[98.2192,14.1694],[98.2192,14.1693],[98.2192,14.1692],[98.2192,14.1688],[98.2191,14.1687],[98.2191,14.1685],[98.219,14.1683],[98.219,14.1681],[98.219,14.168],[98.2192,14.1679],[98.2194,14.1676],[98.2196,14.1673]]]]}},{"type":"Feature","properties":{"Township":"Dawei","Area_hect":3.76,"Certainty":"medium","ImageYear1":2015},"geometry":{"type":"MultiPolygon","coordinates":[[[[98.2205,14.1676],[98.2203,14.1675],[98.2202,14.1675],[98.22,14.1674],[98.22,14.1676],[98.22,14.1678],[98.2202,14.1679],[98.2202,14.1678],[98.2206,14.1678],[98.2206,14.1678],[98.2208,14.1679],[98.2209,14.1681],[98.221,14.1682],[98.2211,14.1685],[98.221,14.1685],[98.2209,14.1687],[98.2208,14.1688],[98.2207,14.169],[98.2206,14.1694],[98.2206,14.1695],[98.2205,14.1696],[98.2205,14.1697],[98.2206,14.17],[98.2207,14.17],[98.2208,14.17],[98.2209,14.1698],[98.2209,14.1698],[98.2211,14.1698],[98.2211,14.1698],[98.2212,14.1698],[98.2213,14.1699],[98.2214,14.1702],[98.2216,14.1702],[98.222,14.1701],[98.2223,14.1704],[98.2219,14.1708],[98.2218,14.1712],[98.2215,14.1715],[98.2214,14.1714],[98.2212,14.1716],[98.2209,14.1717],[98.2208,14.1719],[98.2209,14.1721],[98.2211,14.1723],[98.2212,14.1723],[98.2213,14.1723],[98.2214,14.1722],[98.2214,14.172],[98.2215,14.1718],[98.2215,14.1717],[98.2216,14.1716],[98.2217,14.1715],[98.2218,14.1714],[98.2219,14.1713],[98.222,14.1711],[98.2222,14.1708],[98.2223,14.1705],[98.2224,14.1703],[98.2225,14.1702],[98.2227,14.1698],[98.2228,14.1697],[98.2229,14.1695],[98.2229,14.1693],[98.2229,14.1693],[98.2227,14.1697],[98.2223,14.1697],[98.222,14.1698],[98.222,14.1698],[98.2219,14.1697],[98.2219,14.1696],[98.2217,14.1696],[98.2216,14.1696],[98.2216,14.1695],[98.2217,14.1693],[98.2217,14.1693],[98.2218,14.1691],[98.2218,14.169],[98.2218,14.1689],[98.2219,14.1687],[98.222,14.1686],[98.2219,14.1685],[98.2214,14.1683],[98.2205,14.1676]]]]}},{"type":"Feature","properties":{"Township":"Dawei","Notes":"Za Har","Area_hect":0.57,"Certainty":"high","ImageYear1":2015},"geometry":{"type":"MultiPolygon","coordinates":[[[[98.2163,14.1658],[98.2163,14.1657],[98.2163,14.1656],[98.2163,14.1655],[98.2163,14.1653],[98.2163,14.1652],[98.2161,14.1652],[98.216,14.1653],[98.216,14.1654],[98.216,14.1655],[98.2158,14.1656],[98.2156,14.1657],[98.2156,14.1658],[98.2156,14.1659],[98.2156,14.166],[98.2156,14.166],[98.2157,14.1661],[98.2158,14.1662],[98.2159,14.1663],[98.2161,14.1662],[98.2163,14.1658]]]]}},{"type":"Feature","properties":{"Township":"Dawei","Notes":"near Pa Kar","Area_hect":4.21,"Certainty":"low","ImageYear1":2014},"geometry":{"type":"MultiPolygon","coordinates":[[[[98.2942,14.1487],[98.294,14.1488],[98.2938,14.1487],[98.2936,14.1485],[98.2935,14.1484],[98.2935,14.1483],[98.2936,14.1481],[98.2937,14.148],[98.2938,14.148],[98.2939,14.1481],[98.294,14.1481],[98.294,14.1481],[98.2942,14.1481],[98.2942,14.1481],[98.2944,14.1482],[98.2945,14.1483],[98.2945,14.1484],[98.2946,14.1485],[98.2946,14.1485],[98.2946,14.1487],[98.2948,14.1488],[98.2949,14.1487],[98.2949,14.1486],[98.295,14.1484],[98.295,14.1482],[98.295,14.1482],[98.2951,14.1484],[98.2951,14.1485],[98.2952,14.1486],[98.2953,14.1487],[98.2955,14.1486],[98.2956,14.1485],[98.2956,14.1483],[98.2957,14.1481],[98.2958,14.1479],[98.2958,14.1476],[98.2957,14.1475],[98.2956,14.1474],[98.2955,14.1473],[98.2953,14.1473],[98.2951,14.1473],[98.2949,14.1474],[98.2947,14.1476],[98.2946,14.1477],[98.2944,14.1479],[98.2943,14.1479],[98.2942,14.1478],[98.2941,14.1478],[98.2939,14.1478],[98.2937,14.1478],[98.2935,14.1478],[98.2934,14.1479],[98.2933,14.1479],[98.2931,14.1479],[98.2929,14.1482],[98.2928,14.1483],[98.2929,14.1484],[98.2932,14.1486],[98.2933,14.1488],[98.2934,14.1489],[98.2935,14.149],[98.2937,14.1491],[98.2937,14.1492],[98.2938,14.1494],[98.2939,14.1495],[98.2939,14.1497],[98.2936,14.1502],[98.2935,14.1505],[98.2936,14.1506],[98.2937,14.1507],[98.2939,14.1506],[98.294,14.1505],[98.2941,14.1502],[98.2945,14.15],[98.2944,14.1498],[98.2944,14.1496],[98.2944,14.1495],[98.2946,14.1494],[98.2946,14.1493],[98.2946,14.1492],[98.2945,14.149],[98.2945,14.1488],[98.2942,14.1487]]]]}},{"type":"Feature","properties":{"Township":"Dawei","Notes":"Wa Kone","Area_hect":0.84,"Certainty":"high","ImageYear1":2014},"geometry":{"type":"MultiPolygon","coordinates":[[[[98.2933,14.1466],[98.2935,14.1465],[98.2936,14.1464],[98.2935,14.1462],[98.2934,14.146],[98.2929,14.1461],[98.2927,14.1462],[98.2926,14.1464],[98.2926,14.1464],[98.2926,14.1466],[98.2928,14.147],[98.2929,14.147],[98.293,14.1471],[98.2932,14.1471],[98.2933,14.1466]]]]}},{"type":"Feature","properties":{"Township":"Dawei","Notes":"Wa Kone","Area_hect":7.15,"Certainty":"high","ImageYear1":2015},"geometry":{"type":"MultiPolygon","coordinates":[[[[98.3018,14.1344],[98.3014,14.1343],[98.3011,14.1344],[98.3008,14.1344],[98.3003,14.1346],[98.3001,14.1346],[98.2997,14.135],[98.2996,14.1352],[98.2996,14.1356],[98.2996,14.1359],[98.2995,14.1362],[98.2995,14.1365],[98.2995,14.1368],[98.2993,14.137],[98.2991,14.1371],[98.2986,14.1371],[98.2984,14.1372],[98.2982,14.1372],[98.2981,14.1373],[98.298,14.1373],[98.298,14.1375],[98.298,14.1377],[98.298,14.1378],[98.298,14.138],[98.298,14.1381],[98.2981,14.1384],[98.2981,14.1387],[98.2981,14.1389],[98.2982,14.139],[98.2983,14.1391],[98.2983,14.1391],[98.2985,14.1391],[98.2987,14.139],[98.2989,14.139],[98.299,14.139],[98.299,14.139],[98.299,14.1394],[98.299,14.1398],[98.2988,14.1399],[98.2987,14.1399],[98.2987,14.1402],[98.2987,14.1405],[98.2987,14.141],[98.2986,14.1412],[98.2986,14.1415],[98.2986,14.1417],[98.2986,14.1418],[98.2987,14.142],[98.2988,14.1421],[98.299,14.1422],[98.2992,14.1422],[98.2994,14.142],[98.2992,14.1419],[98.299,14.1418],[98.2989,14.1418],[98.2989,14.1416],[98.2988,14.1414],[98.2988,14.141],[98.2988,14.1407],[98.2989,14.1404],[98.2989,14.1402],[98.2991,14.1402],[98.2992,14.1405],[98.2993,14.1406],[98.2994,14.1408],[98.2996,14.1408],[98.2999,14.1407],[98.2998,14.1406],[98.2997,14.1405],[98.2995,14.1404],[98.2995,14.1402],[98.2995,14.14],[98.2995,14.14],[98.2994,14.1397],[98.2994,14.1394],[98.2994,14.1392],[98.2994,14.1391],[98.2994,14.1389],[98.2995,14.1389],[98.2997,14.1389],[98.2998,14.1391],[98.3,14.1392],[98.3001,14.1392],[98.3002,14.1393],[98.3004,14.1394],[98.3005,14.1395],[98.3006,14.1395],[98.3007,14.1394],[98.3006,14.1392],[98.3004,14.1391],[98.3003,14.1391],[98.3003,14.1389],[98.3003,14.1388],[98.3003,14.1386],[98.3003,14.1384],[98.3001,14.1384],[98.3,14.1384],[98.2996,14.1384],[98.2994,14.1384],[98.2992,14.1385],[98.2991,14.1385],[98.299,14.1385],[98.299,14.1385],[98.2987,14.1385],[98.2986,14.1383],[98.2986,14.1381],[98.2985,14.1379],[98.2985,14.1377],[98.2986,14.1375],[98.2989,14.1375],[98.2992,14.1375],[98.2994,14.1374],[98.2996,14.1372],[98.2997,14.1368],[98.2999,14.1365],[98.3,14.1361],[98.3,14.1358],[98.3001,14.1357],[98.3003,14.1354],[98.3004,14.1352],[98.3008,14.135],[98.301,14.1349],[98.3012,14.1349],[98.3013,14.1349],[98.3016,14.1349],[98.3018,14.135],[98.302,14.1347],[98.3022,14.1346],[98.3021,14.1344],[98.3018,14.1344]]]]}},{"type":"Feature","properties":{"Township":"Dawei","Notes":"near wa kone adn heindar , Kyauk Me Taung","Area_hect":19.34,"Certainty":"high","ImageYear1":2015},"geometry":{"type":"MultiPolygon","coordinates":[[[[98.3219,14.1472],[98.3211,14.147],[98.32,14.1467],[98.3189,14.1464],[98.3173,14.1455],[98.3159,14.1447],[98.3151,14.1447],[98.3152,14.1455],[98.3155,14.1457],[98.3168,14.146],[98.3175,14.1463],[98.3189,14.1469],[98.3196,14.1473],[98.3206,14.1477],[98.3214,14.148],[98.3227,14.1487],[98.3234,14.149],[98.3243,14.1494],[98.3237,14.15],[98.3227,14.1503],[98.3222,14.1506],[98.322,14.1512],[98.323,14.1525],[98.3255,14.1536],[98.3283,14.1552],[98.3275,14.1541],[98.3267,14.1536],[98.3255,14.1533],[98.3244,14.1523],[98.3236,14.1516],[98.3235,14.1514],[98.3238,14.1507],[98.325,14.1499],[98.3254,14.1495],[98.3254,14.149],[98.3249,14.1484],[98.3237,14.1478],[98.3219,14.1472]]]]}},{"type":"Feature","properties":{"Township":"Dawei","Notes":"Hein Dar","Area_hect":6.41,"Certainty":"high","ImageYear1":2015},"geometry":{"type":"MultiPolygon","coordinates":[[[[98.349,14.1711],[98.3487,14.1706],[98.3481,14.1703],[98.3478,14.1703],[98.3476,14.1703],[98.3475,14.1705],[98.3474,14.1707],[98.3474,14.1707],[98.3474,14.1709],[98.3474,14.1711],[98.3474,14.1712],[98.3474,14.1713],[98.3475,14.1716],[98.3476,14.1718],[98.3477,14.172],[98.3478,14.1722],[98.3475,14.1725],[98.3472,14.1726],[98.3471,14.1726],[98.347,14.1726],[98.347,14.1728],[98.347,14.1729],[98.3466,14.1728],[98.3465,14.1727],[98.3465,14.1726],[98.3464,14.1725],[98.3462,14.1724],[98.3459,14.1723],[98.3457,14.1722],[98.3455,14.1722],[98.3452,14.1724],[98.345,14.1723],[98.3449,14.1724],[98.345,14.1725],[98.3454,14.1725],[98.3456,14.1725],[98.3458,14.1726],[98.3458,14.1728],[98.3458,14.1728],[98.3459,14.1729],[98.346,14.1729],[98.3461,14.1733],[98.3462,14.1733],[98.3465,14.1734],[98.3465,14.1734],[98.3468,14.1732],[98.347,14.1732],[98.3472,14.1732],[98.3474,14.173],[98.3477,14.173],[98.3478,14.173],[98.348,14.1733],[98.3481,14.1733],[98.3482,14.1734],[98.3485,14.1735],[98.349,14.1732],[98.3488,14.1731],[98.3487,14.1731],[98.3487,14.1729],[98.3485,14.1727],[98.3485,14.1726],[98.3486,14.1724],[98.3487,14.1724],[98.3491,14.1723],[98.3493,14.1721],[98.3493,14.1719],[98.3493,14.1717],[98.3491,14.1716],[98.349,14.1711]]]]}},{"type":"Feature","properties":{"Township":"Dawei","Area_hect":50.44,"Certainty":"low","ImageYear1":2015},"geometry":{"type":"MultiPolygon","coordinates":[[[[98.385,14.1792],[98.3851,14.1781],[98.3851,14.1781],[98.3843,14.178],[98.3836,14.1777],[98.3829,14.1771],[98.3829,14.1771],[98.3821,14.1771],[98.3812,14.1769],[98.3806,14.1772],[98.3802,14.1774],[98.3791,14.1778],[98.3787,14.1737],[98.3767,14.1748],[98.3766,14.1782],[98.377,14.179],[98.3792,14.1787],[98.3798,14.1787],[98.3809,14.1782],[98.3809,14.1782],[98.3813,14.1782],[98.3819,14.1782],[98.3821,14.1782],[98.3828,14.1783],[98.3832,14.1785],[98.3833,14.1786],[98.3833,14.1787],[98.3829,14.1794],[98.383,14.1796],[98.3835,14.1801],[98.3837,14.1805],[98.3838,14.1809],[98.384,14.1812],[98.3841,14.1814],[98.3842,14.1821],[98.3842,14.1824],[98.384,14.1827],[98.3835,14.1828],[98.3827,14.1826],[98.3824,14.1821],[98.3809,14.1819],[98.3801,14.1816],[98.3798,14.1814],[98.3789,14.1808],[98.3787,14.1808],[98.3782,14.1808],[98.3777,14.1809],[98.3763,14.1812],[98.3753,14.1813],[98.3744,14.181],[98.3728,14.1805],[98.3725,14.1803],[98.3712,14.1799],[98.3704,14.1798],[98.369,14.1796],[98.3688,14.1796],[98.3678,14.1793],[98.3668,14.179],[98.3663,14.1786],[98.366,14.1783],[98.3655,14.1781],[98.3655,14.1781],[98.365,14.1783],[98.3648,14.1788],[98.3654,14.1791],[98.3662,14.1795],[98.367,14.1798],[98.3679,14.1799],[98.3689,14.1803],[98.3697,14.1804],[98.3701,14.1805],[98.371,14.1807],[98.3722,14.1811],[98.3731,14.1813],[98.3742,14.1815],[98.3754,14.1816],[98.3769,14.1816],[98.3782,14.1819],[98.3796,14.1821],[98.3808,14.1823],[98.3812,14.1827],[98.3812,14.1828],[98.3813,14.1832],[98.3813,14.1839],[98.3813,14.1843],[98.3813,14.1847],[98.3815,14.1847],[98.3822,14.185],[98.3826,14.1843],[98.3826,14.1839],[98.3828,14.1836],[98.3834,14.1836],[98.384,14.1835],[98.3845,14.1832],[98.385,14.1827],[98.3852,14.1825],[98.3858,14.182],[98.3864,14.1814],[98.386,14.1808],[98.3854,14.1801],[98.3851,14.1799],[98.3862,14.1791],[98.385,14.1792]]]]}},{"type":"Feature","properties":{"Township":"Dawei","Notes":"Pyar Tar Chaung village","Area_hect":52.24,"Certainty":"high","ImageYear1":2014},"geometry":{"type":"MultiPolygon","coordinates":[[[[98.4046,14.1515],[98.4041,14.1514],[98.4031,14.1513],[98.4025,14.1508],[98.4024,14.1504],[98.4024,14.1499],[98.4023,14.149],[98.4023,14.1488],[98.4023,14.1486],[98.402,14.1489],[98.4016,14.1492],[98.4018,14.1499],[98.4018,14.1509],[98.4018,14.1513],[98.4018,14.1517],[98.4017,14.1519],[98.4018,14.1523],[98.4016,14.1526],[98.4014,14.1526],[98.4014,14.1527],[98.4015,14.153],[98.4017,14.1533],[98.4018,14.1536],[98.4018,14.154],[98.4017,14.1548],[98.4015,14.1555],[98.4009,14.1561],[98.4005,14.1563],[98.4001,14.1567],[98.3998,14.1573],[98.3997,14.1578],[98.3997,14.1582],[98.3995,14.159],[98.3991,14.1597],[98.3987,14.1602],[98.3984,14.1608],[98.3977,14.1611],[98.3972,14.1608],[98.3972,14.1605],[98.3972,14.1603],[98.397,14.1602],[98.3966,14.1602],[98.3964,14.1601],[98.3964,14.1601],[98.3961,14.1598],[98.3959,14.1595],[98.3956,14.1593],[98.3955,14.1598],[98.3954,14.1603],[98.3954,14.1605],[98.3955,14.1613],[98.3957,14.1616],[98.3961,14.1613],[98.3962,14.1611],[98.3963,14.161],[98.3966,14.1606],[98.3968,14.1606],[98.397,14.1609],[98.3971,14.1613],[98.3972,14.1616],[98.3973,14.1624],[98.3975,14.1627],[98.3975,14.1628],[98.3975,14.162],[98.3976,14.1616],[98.398,14.1613],[98.3984,14.1613],[98.3989,14.1611],[98.399,14.161],[98.3995,14.161],[98.4004,14.161],[98.4005,14.1614],[98.4003,14.162],[98.4003,14.1625],[98.4009,14.163],[98.4011,14.1627],[98.401,14.162],[98.4009,14.1618],[98.4012,14.1616],[98.4011,14.161],[98.4011,14.161],[98.401,14.1606],[98.402,14.1609],[98.4025,14.1609],[98.4029,14.1612],[98.4035,14.1617],[98.4038,14.1618],[98.4046,14.162],[98.4055,14.1618],[98.4057,14.1609],[98.4049,14.1604],[98.4046,14.1604],[98.404,14.1604],[98.4032,14.1602],[98.4028,14.16],[98.403,14.1595],[98.4034,14.1594],[98.4034,14.1588],[98.404,14.1583],[98.4052,14.1581],[98.4054,14.1578],[98.4053,14.1574],[98.405,14.1568],[98.405,14.1563],[98.4044,14.1558],[98.4041,14.1557],[98.4036,14.1561],[98.403,14.1568],[98.4024,14.157],[98.4024,14.157],[98.4025,14.1564],[98.4033,14.156],[98.4042,14.1556],[98.4044,14.1551],[98.4039,14.1548],[98.4034,14.1548],[98.4033,14.1548],[98.4042,14.154],[98.4043,14.1537],[98.4046,14.1529],[98.4047,14.1523],[98.4046,14.1515]]]]}},{"type":"Feature","properties":{"Township":"Dawei","Notes":"mining-atlas.com says gold mine","Mineral1":"Tin","Area_hect":572.28,"Certainty":"high","ImageYear1":2013},"geometry":{"type":"MultiPolygon","coordinates":[[[[98.4325,14.139],[98.4322,14.1404],[98.4326,14.1418],[98.4336,14.1426],[98.4359,14.1436],[98.4394,14.1447],[98.4394,14.1447],[98.4362,14.1458],[98.4362,14.1458],[98.4335,14.1466],[98.4335,14.1466],[98.4335,14.1466],[98.4283,14.1466],[98.4291,14.1479],[98.429,14.1479],[98.4311,14.1483],[98.4329,14.1485],[98.4357,14.1496],[98.4372,14.1491],[98.4372,14.1491],[98.4393,14.1487],[98.4408,14.1492],[98.4435,14.1493],[98.4461,14.1491],[98.4479,14.1489],[98.4489,14.1499],[98.4491,14.151],[98.4494,14.1517],[98.4495,14.153],[98.4495,14.1539],[98.4494,14.1554],[98.4489,14.1562],[98.4485,14.1577],[98.4482,14.1587],[98.4494,14.1607],[98.4518,14.162],[98.4534,14.1626],[98.4546,14.1614],[98.4553,14.1611],[98.4564,14.1609],[98.4572,14.1615],[98.4593,14.1622],[98.4614,14.1625],[98.463,14.1627],[98.4638,14.1628],[98.4664,14.1628],[98.4679,14.1611],[98.4709,14.1589],[98.4692,14.1588],[98.4684,14.1584],[98.4666,14.1594],[98.466,14.1596],[98.4655,14.1602],[98.4651,14.1615],[98.4637,14.1614],[98.463,14.1606],[98.4619,14.1605],[98.4604,14.1611],[98.4603,14.1611],[98.4599,14.1606],[98.4597,14.1595],[98.4594,14.1589],[98.4575,14.1588],[98.4564,14.1593],[98.4543,14.1595],[98.4543,14.1595],[98.4527,14.1594],[98.452,14.1583],[98.452,14.157],[98.452,14.1554],[98.4517,14.1532],[98.4517,14.1507],[98.4523,14.1491],[98.4518,14.146],[98.4512,14.1436],[98.4509,14.143],[98.4501,14.1416],[98.4464,14.1424],[98.4461,14.1425],[98.4436,14.1416],[98.4434,14.141],[98.4433,14.1398],[98.4429,14.1385],[98.4424,14.1366],[98.4419,14.1346],[98.4419,14.134],[98.442,14.1328],[98.4423,14.1308],[98.4409,14.1286],[98.4403,14.1279],[98.4397,14.1267],[98.4398,14.125],[98.4414,14.1223],[98.4419,14.121],[98.4431,14.1195],[98.4435,14.1184],[98.4456,14.1188],[98.4464,14.1194],[98.4484,14.1188],[98.4495,14.1177],[98.452,14.1166],[98.4538,14.1156],[98.4545,14.1139],[98.4554,14.113],[98.4562,14.1113],[98.4581,14.1092],[98.4594,14.1081],[98.4618,14.1081],[98.4631,14.1069],[98.4636,14.1058],[98.4651,14.105],[98.4665,14.1051],[98.4679,14.1055],[98.4692,14.1042],[98.4714,14.1036],[98.4725,14.1032],[98.474,14.1027],[98.4766,14.1033],[98.4784,14.1031],[98.481,14.1027],[98.4836,14.1029],[98.484,14.1037],[98.484,14.1067],[98.487,14.1086],[98.4873,14.1087],[98.4915,14.1092],[98.4919,14.1095],[98.4924,14.1103],[98.493,14.1112],[98.4935,14.1122],[98.4951,14.1133],[98.4953,14.1126],[98.4953,14.1109],[98.4943,14.1094],[98.4915,14.1078],[98.4899,14.1078],[98.4875,14.1074],[98.4873,14.1073],[98.4873,14.1055],[98.4864,14.1045],[98.4854,14.1038],[98.485,14.1026],[98.4832,14.1016],[98.4809,14.1017],[98.4785,14.1019],[98.4763,14.1012],[98.4747,14.1011],[98.4729,14.1008],[98.4717,14.1012],[98.4702,14.1021],[98.4697,14.1029],[98.4681,14.1035],[98.4664,14.103],[98.4658,14.1029],[98.4643,14.1031],[98.4638,14.1038],[98.4629,14.1051],[98.4594,14.1064],[98.4593,14.1068],[98.4583,14.1068],[98.4569,14.1081],[98.456,14.1097],[98.4553,14.1108],[98.454,14.1119],[98.4534,14.1125],[98.4518,14.1132],[98.4501,14.1143],[98.4496,14.1146],[98.4474,14.116],[98.4468,14.1163],[98.4456,14.1168],[98.4445,14.1156],[98.4434,14.1154],[98.442,14.1156],[98.4401,14.1181],[98.4387,14.1203],[98.4366,14.1236],[98.4358,14.1246],[98.4355,14.1272],[98.4358,14.1295],[98.4359,14.1299],[98.4359,14.1314],[98.4349,14.1336],[98.4336,14.1346],[98.4336,14.1346],[98.4325,14.139]]]]}},{"type":"Feature","properties":{"Township":"Dawei","Notes":"KaLitKyi_Dawei","Area_hect":1.64,"Certainty":"low","ImageYear1":2015},"geometry":{"type":"MultiPolygon","coordinates":[[[[98.2492,14.0706],[98.2492,14.0706],[98.2487,14.0706],[98.2481,14.071],[98.2483,14.0716],[98.2492,14.0715],[98.2501,14.071],[98.2496,14.0705],[98.2492,14.0706]]]]}},{"type":"Feature","properties":{"Township":"Dawei","Notes":"TharyarKone(LaungLone)","Mineral1":"Coal","Area_hect":13.15,"Certainty":"high","ImageYear1":2015},"geometry":{"type":"MultiPolygon","coordinates":[[[[98.6892,13.8335],[98.6892,13.8335],[98.6865,13.8323],[98.6851,13.833],[98.6859,13.8343],[98.6862,13.835],[98.6891,13.8356],[98.6913,13.8345],[98.6892,13.8335]]]]}},{"type":"Feature","properties":{"Township":"Tanintharyi","Notes":"MaKarYi, Dawei; name from mining-atlas.com","Mineral1":"Coal","Area_hect":293.86,"Certainty":"high","ImageYear1":2015},"geometry":{"type":"MultiPolygon","coordinates":[[[[99.4834,11.8525],[99.4768,11.8502],[99.4772,11.8464],[99.4707,11.8464],[99.4684,11.8512],[99.4656,11.855],[99.4608,11.8547],[99.4572,11.8574],[99.4545,11.8621],[99.4517,11.8669],[99.4547,11.8678],[99.4585,11.8656],[99.4613,11.8602],[99.4619,11.8626],[99.4651,11.8592],[99.4755,11.8588],[99.4824,11.8574],[99.4834,11.8525]]]]}},{"type":"Feature","properties":{"Township":"Dawei","Notes":"SinPhyuTaing(Dawei)","Area_hect":8.83,"Certainty":"medium","ImageYear1":2016},"geometry":{"type":"MultiPolygon","coordinates":[[[[98.51,14.1689],[98.5115,14.1685],[98.5118,14.1683],[98.5117,14.1679],[98.5095,14.1677],[98.5085,14.1677],[98.5075,14.1679],[98.5068,14.1682],[98.5066,14.1687],[98.5073,14.1699],[98.5082,14.17],[98.5093,14.1695],[98.51,14.1689]]]]}},{"type":"Feature","properties":{"Township":"Launglon","Notes":"SinPhyuTaing","Area_hect":1.63,"Certainty":"low","ImageYear1":2016},"geometry":{"type":"MultiPolygon","coordinates":[[[[98.1381,14.0688],[98.1399,14.0697],[98.1404,14.0696],[98.1404,14.0695],[98.1405,14.0692],[98.1405,14.0689],[98.1402,14.0689],[98.1399,14.0689],[98.1398,14.0689],[98.14,14.0688],[98.1401,14.0686],[98.1398,14.0685],[98.1395,14.0687],[98.1394,14.069],[98.1394,14.0692],[98.1387,14.0689],[98.1383,14.0685],[98.138,14.0685],[98.138,14.0687],[98.1381,14.0688]]]]}},{"type":"Feature","properties":{"Township":"Dawei","Notes":"HeinDar,Dawei","Area_hect":14.31,"Certainty":"low","ImageYear1":2015},"geometry":{"type":"MultiPolygon","coordinates":[[[[98.3197,14.0973],[98.3183,14.0971],[98.3161,14.0984],[98.3163,14.0991],[98.3191,14.0981],[98.3206,14.0984],[98.3232,14.0963],[98.3232,14.0946],[98.3227,14.0942],[98.3217,14.0943],[98.3214,14.0952],[98.3212,14.0954],[98.3204,14.0963],[98.3201,14.0966],[98.3197,14.0973]]]]}},{"type":"Feature","properties":{"Township":"Dawei","Notes":"Amyar, Dawei","Area_hect":3.91,"Certainty":"medium","ImageYear1":2014},"geometry":{"type":"MultiPolygon","coordinates":[[[[98.9466,14.0649],[98.9473,14.0649],[98.9474,14.0647],[98.9471,14.0645],[98.9465,14.0646],[98.9461,14.0648],[98.9459,14.065],[98.9457,14.065],[98.9453,14.065],[98.9449,14.0652],[98.9449,14.0654],[98.9449,14.0656],[98.9449,14.0659],[98.9451,14.0662],[98.9455,14.0664],[98.9458,14.0667],[98.9464,14.0668],[98.9467,14.0668],[98.9473,14.0665],[98.9469,14.066],[98.9464,14.0659],[98.9464,14.0657],[98.9465,14.0656],[98.9465,14.0654],[98.9465,14.0653],[98.9466,14.0649]]]]}},{"type":"Feature","properties":{"Township":"Dawei","Notes":"Amyar,Dawei","Area_hect":8.49,"Certainty":"medium","ImageYear1":2016},"geometry":{"type":"MultiPolygon","coordinates":[[[[98.9596,14.0655],[98.9592,14.0659],[98.959,14.0666],[98.9589,14.0671],[98.9592,14.0672],[98.9597,14.0671],[98.9603,14.0668],[98.9606,14.0668],[98.9608,14.0668],[98.961,14.0667],[98.9612,14.0667],[98.9616,14.0667],[98.9617,14.0667],[98.9621,14.0663],[98.9624,14.0659],[98.9624,14.0652],[98.961,14.0645],[98.9612,14.064],[98.96,14.0638],[98.9599,14.0644],[98.9597,14.0647],[98.9595,14.0651],[98.9596,14.0655]]]]}},{"type":"Feature","properties":{"Township":"Dawei","Notes":"Amyar,Dawei","Area_hect":10.82,"Certainty":"medium","ImageYear1":2016},"geometry":{"type":"MultiPolygon","coordinates":[[[[98.4281,14.04],[98.4279,14.0396],[98.4276,14.0394],[98.4271,14.0393],[98.4266,14.0392],[98.4253,14.0391],[98.4243,14.0395],[98.424,14.0397],[98.4236,14.04],[98.4235,14.0403],[98.4235,14.0405],[98.4235,14.0407],[98.4235,14.0409],[98.4237,14.0413],[98.4241,14.0413],[98.4248,14.0414],[98.4257,14.0413],[98.4273,14.0413],[98.4277,14.0412],[98.4286,14.0407],[98.4287,14.0403],[98.4283,14.0401],[98.4281,14.04]]]]}},{"type":"Feature","properties":{"Township":"Dawei","Notes":"Amyar,Dawei","Area_hect":60.51,"Certainty":"medium","ImageYear1":2016},"geometry":{"type":"MultiPolygon","coordinates":[[[[99.0053,13.9282],[99.0062,13.9278],[99.0067,13.9275],[99.007,13.9273],[99.0076,13.9268],[99.0077,13.9267],[99.0078,13.9263],[99.0078,13.926],[99.0077,13.9255],[99.0073,13.925],[99.0067,13.9248],[99.0058,13.9248],[99.0054,13.925],[99.005,13.9252],[99.0048,13.9254],[99.0046,13.9264],[99.0042,13.9272],[99.004,13.9274],[99.0035,13.9277],[99.0022,13.9284],[99.0017,13.9285],[99.0011,13.9286],[99.0008,13.9289],[99.0008,13.9295],[99.0008,13.93],[99.0019,13.931],[99.0029,13.9312],[99.0042,13.931],[99.0053,13.9308],[99.0057,13.9304],[99.0062,13.9301],[99.0071,13.9298],[99.0085,13.9299],[99.0096,13.9301],[99.0106,13.9299],[99.0116,13.9293],[99.0121,13.9291],[99.0123,13.9288],[99.0126,13.9283],[99.013,13.9277],[99.0132,13.9274],[99.0134,13.9266],[99.0133,13.9256],[99.0128,13.9245],[99.0124,13.9241],[99.0112,13.924],[99.0095,13.9247],[99.0086,13.926],[99.0085,13.9265],[99.0084,13.9272],[99.0082,13.9277],[99.0079,13.9282],[99.0074,13.9283],[99.0066,13.9283],[99.0061,13.9283],[99.0053,13.9282]]]]}},{"type":"Feature","properties":{"Township":"Dawei","Notes":"Amyar,Dawei","Area_hect":12.17,"Certainty":"medium","ImageYear1":2016},"geometry":{"type":"MultiPolygon","coordinates":[[[[99.0213,13.9045],[99.0219,13.9041],[99.0224,13.9036],[99.0219,13.9032],[99.0207,13.9031],[99.0199,13.903],[99.0187,13.9034],[99.0181,13.904],[99.0178,13.9043],[99.0172,13.9053],[99.0172,13.906],[99.0174,13.9063],[99.018,13.9063],[99.019,13.9062],[99.0192,13.9062],[99.02,13.9058],[99.0202,13.9057],[99.0202,13.9053],[99.0202,13.905],[99.0205,13.905],[99.0209,13.9047],[99.0212,13.9046],[99.0214,13.9045],[99.0213,13.9045]]]]}},{"type":"Feature","properties":{"Township":"Dawei","Notes":"BanChaung,Dawei","Mineral1":"Coal","Area_hect":24.16,"Certainty":"high","ImageYear1":2013},"geometry":{"type":"MultiPolygon","coordinates":[[[[99.036,13.8936],[99.0359,13.8933],[99.0352,13.8932],[99.0349,13.8937],[99.0347,13.8942],[99.0344,13.8949],[99.0349,13.8953],[99.0361,13.8953],[99.0378,13.894],[99.0382,13.8937],[99.0385,13.893],[99.0385,13.8929],[99.0393,13.893],[99.0399,13.893],[99.0402,13.8933],[99.0409,13.8934],[99.0416,13.8934],[99.0422,13.8934],[99.0424,13.8928],[99.0415,13.8921],[99.0414,13.8915],[99.0414,13.8915],[99.0414,13.8913],[99.0414,13.8909],[99.0413,13.8905],[99.0406,13.8905],[99.0398,13.8906],[99.0385,13.8906],[99.038,13.8898],[99.0375,13.8895],[99.037,13.8896],[99.0367,13.8904],[99.0366,13.8917],[99.0366,13.8924],[99.0366,13.8928],[99.0364,13.8932],[99.036,13.8936]]]]}},{"type":"Feature","properties":{"Township":"Dawei","Notes":"Banchaung,Dawei","Mineral1":"Coal","Area_hect":11.56,"Certainty":"high","ImageYear1":2013},"geometry":{"type":"MultiPolygon","coordinates":[[[[99.0633,13.8878],[99.0615,13.8883],[99.0604,13.8885],[99.0598,13.8886],[99.0596,13.8888],[99.0597,13.8893],[99.0608,13.8894],[99.0617,13.8893],[99.063,13.8888],[99.0638,13.8881],[99.0646,13.8879],[99.0657,13.8877],[99.0662,13.888],[99.0675,13.8876],[99.0677,13.8873],[99.067,13.8868],[99.0666,13.8867],[99.0662,13.8867],[99.0659,13.8866],[99.0659,13.8864],[99.0659,13.8863],[99.0659,13.8859],[99.0664,13.886],[99.0666,13.8856],[99.0665,13.8852],[99.0656,13.8854],[99.0653,13.8862],[99.0653,13.8867],[99.0655,13.887],[99.0654,13.8871],[99.0646,13.8872],[99.0642,13.8873],[99.0637,13.8873],[99.0634,13.8873],[99.0631,13.8874],[99.0629,13.8874],[99.0627,13.887],[99.0623,13.887],[99.062,13.887],[99.0615,13.8876],[99.0614,13.8879],[99.0614,13.8881],[99.0633,13.8878]]]]}},{"type":"Feature","properties":{"Township":"Dawei","Notes":"PyinPhyuThar,ThayetChaung","Area_hect":39.53,"Certainty":"low","ImageYear1":2015},"geometry":{"type":"MultiPolygon","coordinates":[[[[99.0725,13.8854],[99.0733,13.8854],[99.074,13.8855],[99.0741,13.886],[99.0739,13.8863],[99.0734,13.8863],[99.0729,13.8867],[99.0728,13.8873],[99.0734,13.8876],[99.074,13.8876],[99.0742,13.8875],[99.0749,13.8866],[99.0753,13.886],[99.0758,13.8857],[99.077,13.8851],[99.077,13.8848],[99.0772,13.8849],[99.0777,13.8859],[99.0782,13.8871],[99.0785,13.8873],[99.0789,13.8877],[99.0794,13.888],[99.0795,13.8881],[99.0803,13.8888],[99.0801,13.8896],[99.0797,13.8897],[99.0788,13.8889],[99.0783,13.8887],[99.0781,13.8892],[99.0781,13.8894],[99.078,13.8893],[99.0776,13.8887],[99.0769,13.8888],[99.0762,13.8897],[99.0765,13.8904],[99.077,13.8907],[99.0776,13.8908],[99.0783,13.8904],[99.0788,13.8901],[99.0792,13.8901],[99.0797,13.8903],[99.08,13.8903],[99.0804,13.8902],[99.0806,13.89],[99.0807,13.8899],[99.0809,13.8913],[99.081,13.8919],[99.0814,13.8925],[99.0816,13.8926],[99.0821,13.8923],[99.0825,13.8924],[99.0827,13.8925],[99.0827,13.8918],[99.083,13.8908],[99.0833,13.8903],[99.0827,13.8904],[99.0824,13.8908],[99.0824,13.8911],[99.0821,13.8914],[99.0818,13.8917],[99.0816,13.8915],[99.0815,13.8912],[99.0815,13.891],[99.0815,13.8906],[99.0813,13.8899],[99.0811,13.8887],[99.0803,13.888],[99.0802,13.8871],[99.0795,13.8866],[99.0793,13.8862],[99.0795,13.886],[99.0794,13.8858],[99.0794,13.8851],[99.0786,13.8842],[99.0777,13.884],[99.077,13.8829],[99.0762,13.8825],[99.0752,13.8823],[99.0741,13.8826],[99.0734,13.8831],[99.0734,13.8828],[99.0728,13.8831],[99.0723,13.8848],[99.0725,13.8854]]]]}},{"type":"Feature","properties":{"Township":"Dawei","Notes":"Amyar,Dawei","Area_hect":3.53,"Certainty":"medium","ImageYear1":2014},"geometry":{"type":"MultiPolygon","coordinates":[[[[98.7149,13.8071],[98.7143,13.8067],[98.7135,13.8066],[98.7132,13.8072],[98.7131,13.8075],[98.7135,13.8081],[98.7139,13.8082],[98.7143,13.8083],[98.7146,13.8084],[98.7152,13.8084],[98.7153,13.8084],[98.7157,13.8079],[98.7153,13.8076],[98.7149,13.8074],[98.7149,13.8071]]]]}},{"type":"Feature","properties":{"Township":"Dawei","Notes":"ThayetChaung","Area_hect":4.12,"Certainty":"medium","ImageYear1":2013},"geometry":{"type":"MultiPolygon","coordinates":[[[[98.7184,13.8045],[98.7185,13.8053],[98.719,13.8057],[98.7194,13.8056],[98.7198,13.805],[98.7203,13.804],[98.7203,13.8038],[98.72,13.8032],[98.7196,13.8029],[98.7194,13.8031],[98.719,13.8035],[98.7184,13.8039],[98.7184,13.8042],[98.7184,13.8045]]]]}},{"type":"Feature","properties":{"Township":"Thayetchaung","Notes":"SinHtooKyi, PuLaw","Area_hect":36.75,"Certainty":"low","ImageYear1":2015},"geometry":{"type":"MultiPolygon","coordinates":[[[[98.3338,13.7491],[98.333,13.748],[98.3324,13.749],[98.3325,13.7509],[98.3333,13.7512],[98.3343,13.7502],[98.3349,13.7502],[98.3405,13.7504],[98.3441,13.748],[98.3499,13.7433],[98.3521,13.7399],[98.3528,13.7393],[98.3529,13.7383],[98.3549,13.7337],[98.3542,13.7332],[98.3531,13.7337],[98.3514,13.738],[98.3506,13.7393],[98.3508,13.7406],[98.3493,13.7429],[98.3405,13.7497],[98.3351,13.7497],[98.3338,13.7491]]]]}},{"type":"Feature","properties":{"Township":"Dawei","Notes":"NangThiDar, PuLaw","Area_hect":0.19,"Certainty":"medium","ImageYear1":2015},"geometry":{"type":"MultiPolygon","coordinates":[[[[99.1384,13.672],[99.1384,13.6721],[99.1383,13.6721],[99.1382,13.6721],[99.1381,13.6722],[99.1381,13.6723],[99.1381,13.6724],[99.1382,13.6724],[99.1383,13.6724],[99.1384,13.6723],[99.1385,13.6722],[99.1386,13.6722],[99.1386,13.6721],[99.1386,13.672],[99.1386,13.672],[99.1385,13.6719],[99.1384,13.6719],[99.1384,13.6719],[99.1384,13.672],[99.1384,13.672]]]]}},{"type":"Feature","properties":{"Township":"Thayetchaung","Notes":"NangThiLar, PuLaw","Area_hect":1.44,"Certainty":"medium","ImageYear1":2014},"geometry":{"type":"MultiPolygon","coordinates":[[[[98.4463,13.5333],[98.4464,13.5329],[98.4461,13.5328],[98.4458,13.533],[98.4457,13.5334],[98.4458,13.5337],[98.4461,13.534],[98.4467,13.5341],[98.4468,13.5341],[98.4469,13.534],[98.4471,13.5335],[98.4469,13.5332],[98.4467,13.5332],[98.4463,13.5333]]]]}},{"type":"Feature","properties":{"Township":"Palaw","Notes":"NangThiLar, PuLaw","Area_hect":7.58,"Certainty":"medium","ImageYear1":2014},"geometry":{"type":"MultiPolygon","coordinates":[[[[98.6822,13.3685],[98.6817,13.3686],[98.6816,13.3688],[98.6816,13.3691],[98.6818,13.3691],[98.6821,13.3692],[98.6825,13.3694],[98.6825,13.3696],[98.6825,13.3699],[98.6825,13.37],[98.6826,13.3701],[98.6826,13.3705],[98.6821,13.3707],[98.6824,13.3711],[98.6827,13.3713],[98.6835,13.3713],[98.6841,13.3708],[98.6854,13.3702],[98.6855,13.3698],[98.6853,13.3694],[98.6845,13.3693],[98.6839,13.3692],[98.6834,13.3689],[98.6833,13.3686],[98.683,13.3684],[98.6826,13.3683],[98.6825,13.3683],[98.6822,13.3685]]]]}},{"type":"Feature","properties":{"Township":"Palaw","Notes":"NangThiLar, PuLaw","Area_hect":5.86,"Certainty":"medium","ImageYear1":2014},"geometry":{"type":"MultiPolygon","coordinates":[[[[98.7082,13.3323],[98.7083,13.3313],[98.708,13.331],[98.7074,13.3312],[98.707,13.3316],[98.7066,13.3316],[98.7057,13.3316],[98.7054,13.3318],[98.7054,13.3321],[98.7055,13.3326],[98.7057,13.3328],[98.7059,13.3331],[98.7066,13.3328],[98.7071,13.3327],[98.7073,13.3328],[98.7073,13.3331],[98.7072,13.3334],[98.7073,13.3335],[98.7075,13.3337],[98.7083,13.3334],[98.7084,13.3331],[98.7084,13.3325],[98.7082,13.3323]]]]}},{"type":"Feature","properties":{"Township":"Palaw","Notes":"MaKyiKone, PuLaw","Area_hect":115.85,"Certainty":"medium","ImageYear1":2014},"geometry":{"type":"MultiPolygon","coordinates":[[[[98.6413,13.228],[98.6392,13.2312],[98.6385,13.2323],[98.6379,13.2337],[98.6388,13.2349],[98.6401,13.2357],[98.6427,13.2363],[98.6458,13.2351],[98.6456,13.2337],[98.6453,13.2327],[98.6451,13.2316],[98.6455,13.2306],[98.6464,13.23],[98.6467,13.2288],[98.6468,13.2282],[98.6468,13.2276],[98.6469,13.2273],[98.6476,13.228],[98.6479,13.2286],[98.6491,13.229],[98.6498,13.2283],[98.6499,13.2273],[98.6498,13.2262],[98.6497,13.226],[98.6547,13.2262],[98.6562,13.2263],[98.6576,13.225],[98.6581,13.2233],[98.6587,13.221],[98.658,13.2205],[98.6562,13.2206],[98.6557,13.2218],[98.6555,13.2228],[98.6552,13.2228],[98.655,13.2213],[98.6546,13.2209],[98.6537,13.2209],[98.6535,13.223],[98.6542,13.2247],[98.6541,13.225],[98.6518,13.225],[98.6502,13.2248],[98.6489,13.2247],[98.6474,13.225],[98.6469,13.2257],[98.6451,13.2269],[98.6437,13.227],[98.6424,13.2264],[98.6421,13.2256],[98.6412,13.2258],[98.6411,13.2266],[98.6411,13.2273],[98.6413,13.228]]]]}},{"type":"Feature","properties":{"Township":"Palaw","Notes":"MaKyiKone, PuLaw","Area_hect":26.73,"Certainty":"medium","ImageYear1":2014},"geometry":{"type":"MultiPolygon","coordinates":[[[[98.6372,13.2159],[98.6335,13.2158],[98.6311,13.2164],[98.6312,13.218],[98.6323,13.2189],[98.6319,13.22],[98.6329,13.2206],[98.6339,13.2204],[98.6349,13.2195],[98.6354,13.2183],[98.6362,13.2175],[98.638,13.2178],[98.6388,13.2178],[98.639,13.2168],[98.6389,13.2161],[98.6379,13.2159],[98.6372,13.2159]]]]}},{"type":"Feature","properties":{"Township":"Palaw","Notes":"PyarTharChaung, Dawei","Area_hect":25.03,"Certainty":"medium","ImageYear1":2015},"geometry":{"type":"MultiPolygon","coordinates":[[[[98.6375,13.2004],[98.6371,13.1995],[98.6361,13.1994],[98.6359,13.2],[98.636,13.2019],[98.636,13.2031],[98.6358,13.204],[98.6357,13.205],[98.636,13.2055],[98.6381,13.2059],[98.6388,13.2056],[98.6393,13.2048],[98.6396,13.2041],[98.6398,13.203],[98.6397,13.2029],[98.6399,13.2027],[98.6403,13.2016],[98.6397,13.2013],[98.6389,13.2013],[98.6393,13.2005],[98.6388,13.2001],[98.6381,13.2002],[98.6375,13.2004]]]]}},{"type":"Feature","properties":{"Township":"Palaw","Notes":"BawWa Taung, Dawei","Area_hect":1.51,"Certainty":"low","ImageYear1":2016},"geometry":{"type":"MultiPolygon","coordinates":[[[[98.6475,12.9537],[98.6472,12.9527],[98.6467,12.9527],[98.6465,12.9527],[98.6463,12.9532],[98.6463,12.9535],[98.6463,12.9537],[98.6465,12.954],[98.6466,12.954],[98.6469,12.9538],[98.6473,12.9539],[98.6474,12.954],[98.6475,12.954],[98.6475,12.9537]]]]}},{"type":"Feature","properties":{"Township":"Palaw","Notes":"Theindaw, Dawei","Area_hect":2.75,"Certainty":"low","ImageYear1":2014},"geometry":{"type":"MultiPolygon","coordinates":[[[[98.6565,12.9605],[98.6558,12.9602],[98.6552,12.9601],[98.655,12.9603],[98.655,12.9606],[98.655,12.9609],[98.655,12.9613],[98.6551,12.9617],[98.6556,12.9618],[98.6564,12.9614],[98.657,12.9613],[98.657,12.9611],[98.6567,12.9605],[98.6565,12.9605]]]]}},{"type":"Feature","properties":{"Township":"Dawei","Notes":"Met Kay, ThayetChaung","Area_hect":6.62,"Certainty":"medium","ImageYear1":2015},"geometry":{"type":"MultiPolygon","coordinates":[[[[98.4499,14.0199],[98.4509,14.0182],[98.4508,14.0171],[98.4507,14.0169],[98.4503,14.0171],[98.4496,14.0178],[98.449,14.0191],[98.4491,14.0195],[98.4487,14.021],[98.4487,14.0214],[98.4492,14.0223],[98.4494,14.0223],[98.4498,14.0218],[98.4499,14.0206],[98.45,14.0197],[98.4499,14.0199]]]]}},{"type":"Feature","properties":{"Township":"Dawei","Notes":"MetKay, ThayetChaung","Area_hect":7.66,"Certainty":"medium","ImageYear1":2015},"geometry":{"type":"MultiPolygon","coordinates":[[[[98.5802,14.1928],[98.5802,14.1924],[98.58,14.1922],[98.5794,14.1922],[98.5794,14.1926],[98.5791,14.1931],[98.5794,14.1935],[98.5794,14.1936],[98.5795,14.1939],[98.5795,14.1942],[98.5795,14.1947],[98.5796,14.1949],[98.5801,14.1947],[98.5803,14.1943],[98.5807,14.1936],[98.581,14.1934],[98.5815,14.193],[98.5818,14.1932],[98.5818,14.1935],[98.5819,14.1937],[98.5821,14.194],[98.5822,14.1941],[98.5826,14.1942],[98.5829,14.1937],[98.5829,14.1934],[98.583,14.1933],[98.5833,14.1932],[98.5836,14.1933],[98.584,14.1934],[98.5842,14.1934],[98.5848,14.194],[98.5849,14.1941],[98.5852,14.1942],[98.5855,14.1942],[98.5855,14.1939],[98.5855,14.1933],[98.5851,14.1931],[98.5851,14.1931],[98.585,14.1932],[98.5848,14.1934],[98.5845,14.1934],[98.5846,14.1931],[98.5841,14.1925],[98.5844,14.1926],[98.5843,14.1924],[98.5839,14.1921],[98.5837,14.1921],[98.5836,14.1921],[98.5834,14.1922],[98.5833,14.1924],[98.5831,14.1925],[98.5828,14.1925],[98.5828,14.1925],[98.5825,14.1929],[98.5824,14.1933],[98.5824,14.1935],[98.5823,14.1935],[98.5823,14.1937],[98.5822,14.1933],[98.582,14.193],[98.5818,14.1929],[98.5816,14.1928],[98.5814,14.1928],[98.5811,14.1929],[98.5808,14.1931],[98.5807,14.1931],[98.5802,14.1928]]]]}},{"type":"Feature","properties":{"Township":"Tanintharyi","Area_hect":20.38,"Certainty":"medium","ImageYear1":2014},"geometry":{"type":"MultiPolygon","coordinates":[[[[99.1603,12.3287],[99.1602,12.3276],[99.1591,12.3273],[99.1587,12.3277],[99.1586,12.3284],[99.159,12.3305],[99.1591,12.3312],[99.1592,12.3321],[99.1594,12.3328],[99.1604,12.3334],[99.1611,12.3335],[99.1616,12.3335],[99.163,12.3372],[99.1631,12.3385],[99.1634,12.3397],[99.1638,12.3397],[99.1643,12.3387],[99.1645,12.3383],[99.1648,12.338],[99.1652,12.3377],[99.1648,12.3369],[99.164,12.3359],[99.1636,12.3357],[99.1632,12.3357],[99.1629,12.3352],[99.1623,12.3343],[99.1619,12.3336],[99.1614,12.3329],[99.1609,12.3324],[99.1608,12.3319],[99.1607,12.331],[99.1606,12.3293],[99.1605,12.3282],[99.1603,12.3287]]]]}},{"type":"Feature","properties":{"Township":"Thayetchaung","Area_hect":1.35,"Certainty":"medium","ImageYear1":2014},"geometry":{"type":"MultiPolygon","coordinates":[[[[98.4661,13.825],[98.4659,13.8248],[98.4659,13.8246],[98.4658,13.8246],[98.4657,13.8246],[98.4656,13.8247],[98.4656,13.8248],[98.4655,13.825],[98.4654,13.8253],[98.4652,13.8255],[98.4648,13.8258],[98.4644,13.8262],[98.4645,13.8265],[98.4646,13.8267],[98.4648,13.8266],[98.4648,13.8265],[98.4649,13.8262],[98.4654,13.8259],[98.4659,13.8257],[98.4659,13.8256],[98.4659,13.8253],[98.466,13.8252],[98.4661,13.825]]]]}},{"type":"Feature","properties":{"Township":"Thayetchaung","Area_hect":2.04,"Certainty":"medium","ImageYear1":2015},"geometry":{"type":"MultiPolygon","coordinates":[[[[98.4717,13.8237],[98.4713,13.8238],[98.4713,13.8241],[98.4715,13.8243],[98.4717,13.8244],[98.4718,13.8245],[98.4724,13.8249],[98.4725,13.8253],[98.4724,13.8256],[98.4724,13.8258],[98.4726,13.8258],[98.4729,13.8255],[98.473,13.8252],[98.4733,13.8251],[98.4736,13.8249],[98.4736,13.8247],[98.4731,13.8246],[98.4729,13.8246],[98.4727,13.8244],[98.4725,13.8242],[98.4722,13.8241],[98.472,13.824],[98.4717,13.8237]]]]}},{"type":"Feature","properties":{"Township":"Tanintharyi","Notes":"Digitized after change analysis","Area_hect":13.29,"Certainty":"high","ImageYear1":2014},"geometry":{"type":"MultiPolygon","coordinates":[[[[99.2219,12.0267],[99.224,12.0272],[99.2241,12.0274],[99.2252,12.0277],[99.2257,12.0277],[99.226,12.028],[99.2264,12.0284],[99.2268,12.0289],[99.2275,12.029],[99.2274,12.0284],[99.2274,12.028],[99.2271,12.0277],[99.2264,12.0276],[99.2251,12.0273],[99.2252,12.0271],[99.2245,12.0269],[99.2246,12.0266],[99.2246,12.0261],[99.2244,12.0262],[99.2239,12.0261],[99.2237,12.0259],[99.2233,12.0253],[99.2224,12.0245],[99.2217,12.0239],[99.2219,12.0234],[99.2215,12.0232],[99.2217,12.0228],[99.2214,12.0224],[99.2209,12.0225],[99.2205,12.0224],[99.22,12.0226],[99.2202,12.0235],[99.2207,12.0239],[99.2202,12.0243],[99.2203,12.0244],[99.2206,12.0243],[99.2211,12.0245],[99.2215,12.0248],[99.2214,12.0255],[99.221,12.0257],[99.2209,12.0263],[99.2219,12.0267]]]]}},{"type":"Feature","properties":{"Township":"Bokpyin","Notes":"Update Aug 2016","Area_hect":8.55,"Certainty":"medium","ImageYear1":2015},"geometry":{"type":"MultiPolygon","coordinates":[[[[98.9417,10.9586],[98.9421,10.9587],[98.9423,10.9584],[98.9424,10.9579],[98.9426,10.9576],[98.9434,10.9577],[98.9436,10.9574],[98.9439,10.9571],[98.9444,10.9572],[98.9447,10.9575],[98.9448,10.9581],[98.9455,10.9582],[98.9459,10.958],[98.947,10.9582],[98.9474,10.958],[98.9475,10.9577],[98.9474,10.9576],[98.9466,10.9576],[98.946,10.9576],[98.9455,10.9572],[98.9452,10.9567],[98.945,10.9559],[98.9448,10.9555],[98.9451,10.9542],[98.9459,10.9531],[98.945,10.953],[98.9445,10.953],[98.9442,10.9531],[98.9444,10.9534],[98.9447,10.9542],[98.9448,10.9544],[98.9447,10.9557],[98.9443,10.9569],[98.9437,10.9569],[98.9425,10.9569],[98.9419,10.9566],[98.9414,10.9569],[98.9417,10.9586]]]]}}]}