{"type":"FeatureCollection","features":[{"type":"Feature","properties":{"Div_Name":"Mawlamyine","Track":"Single Track"},"geometry":{"type":"LineString","coordinates":[[97.8261,15.45],[97.8258,15.4483],[97.8211,15.4379],[97.8204,15.4136],[97.8198,15.4113],[97.8059,15.3905],[97.7939,15.3804],[97.7928,15.3787],[97.7928,15.3766],[97.7967,15.3662],[97.7972,15.3464],[97.7991,15.3347],[97.8007,15.3298],[97.8006,15.3255],[97.8017,15.3183],[97.8037,15.3147],[97.8256,15.292],[97.8311,15.2803],[97.8332,15.2589],[97.8337,15.2571],[97.835,15.2555],[97.8385,15.2528],[97.8416,15.246],[97.8516,15.2341],[97.852,15.232],[97.8512,15.2271],[97.8607,15.208],[97.8691,15.1978],[97.8797,15.189],[97.8814,15.1852],[97.8825,15.1845],[97.8851,15.1845],[97.888,15.1821],[97.8921,15.1808],[97.8936,15.1786],[97.896,15.1643],[97.8969,15.1502],[97.9025,15.1291],[97.9048,15.1239],[97.9069,15.1143],[97.9057,15.101],[97.906,15.0999],[97.9103,15.0931],[97.9131,15.0914],[97.9145,15.0891],[97.9192,15.0858],[97.9239,15.0797],[97.9252,15.0769],[97.9272,15.075],[97.9248,15.0665],[97.9251,15.0612],[97.9243,15.0595],[97.9237,15.0531],[97.9224,15.0507],[97.9227,15.0451],[97.9243,15.0416],[97.9238,15.0368],[97.9226,15.0343],[97.9277,15.0232],[97.9296,15.0221],[97.9316,15.0227],[97.9346,15.0226],[97.9377,15.0194],[97.937,15.0168],[97.9347,15.015],[97.9318,15.0099],[97.9303,15.0027],[97.9293,15.0004],[97.9307,14.9968],[97.9301,14.9924],[97.9315,14.9874],[97.9323,14.9864],[97.9338,14.9823],[97.9317,14.9763],[97.93,14.9749],[97.9273,14.9717],[97.9298,14.9668],[97.935,14.9533],[97.9357,14.9488],[97.9348,14.9417],[97.9361,14.9346],[97.9374,14.9311],[97.9406,14.926],[97.9416,14.9127],[97.9488,14.8946],[97.9484,14.8884],[97.95,14.8797],[97.9498,14.8748],[97.9548,14.8689],[97.9584,14.8631],[97.9722,14.8565],[97.9764,14.8498],[97.9784,14.8454],[97.9786,14.839],[97.98,14.8365],[97.9815,14.8281],[97.9832,14.8254],[97.9852,14.8182],[97.9822,14.8059],[97.9824,14.8],[97.9821,14.7982],[97.9831,14.7944],[97.982,14.7894],[97.9836,14.7831],[97.9949,14.7713],[97.9993,14.7549],[98.0031,14.7497],[98.0031,14.7463],[98.0045,14.7429],[98.0058,14.7356],[98.006,14.7308],[98.0055,14.7278],[98.0082,14.717],[98.0077,14.7147],[98.0084,14.7094],[98.0083,14.7062],[98.0091,14.7054],[98.0113,14.705],[98.0141,14.7034],[98.0154,14.7012],[98.0173,14.6993],[98.025,14.6978],[98.0319,14.6947],[98.0388,14.6939],[98.0416,14.6922],[98.047,14.6903],[98.0531,14.6821],[98.0547,14.679],[98.0547,14.6767],[98.0582,14.671],[98.056,14.6661],[98.0563,14.6572],[98.0543,14.6533],[98.0543,14.6515],[98.058,14.647],[98.0604,14.6397],[98.0633,14.6386],[98.0678,14.6326],[98.07,14.6229],[98.0716,14.6201],[98.0745,14.6177],[98.0747,14.611],[98.0777,14.6018],[98.0757,14.5981],[98.0761,14.5967],[98.078,14.5955],[98.082,14.5941],[98.0886,14.5885],[98.0888,14.5868],[98.0865,14.5836],[98.0865,14.5825],[98.0871,14.5818],[98.0901,14.5811],[98.092,14.5801],[98.0962,14.58],[98.0981,14.5808],[98.1038,14.5811],[98.1068,14.5822],[98.1078,14.5845],[98.1092,14.5853],[98.1118,14.5847],[98.1151,14.5829],[98.1164,14.5829],[98.1174,14.5836],[98.1185,14.5862],[98.1216,14.5888],[98.1258,14.5901],[98.1297,14.5894],[98.1331,14.5899],[98.1342,14.5905],[98.1364,14.5963],[98.1365,14.5988],[98.1371,14.6001],[98.1386,14.6015],[98.1405,14.6022],[98.1463,14.6006],[98.1511,14.6006],[98.156,14.5984],[98.1671,14.5962],[98.1765,14.6015],[98.1847,14.6027],[98.1924,14.5984],[98.1943,14.5926],[98.2007,14.5873],[98.2015,14.5803],[98.2027,14.5748],[98.203,14.5689],[98.2038,14.5647],[98.2067,14.5612],[98.2068,14.5589],[98.2025,14.5552],[98.2013,14.5526],[98.2004,14.5518],[98.1987,14.5511],[98.1961,14.5525],[98.1943,14.5524],[98.1903,14.55],[98.1885,14.5483],[98.1875,14.5451],[98.1879,14.5418],[98.1895,14.5364],[98.1894,14.5279],[98.1851,14.5236],[98.1844,14.521],[98.1842,14.5161],[98.182,14.5136],[98.1825,14.5122],[98.1865,14.5085],[98.1875,14.5061],[98.1888,14.505],[98.189,14.504],[98.1884,14.503],[98.1849,14.5022],[98.1842,14.5012],[98.1844,14.4971],[98.1854,14.4914],[98.1848,14.4882],[98.185,14.484],[98.1838,14.482],[98.1837,14.4745],[98.1828,14.4668],[98.1818,14.4631],[98.1822,14.4549],[98.1815,14.4502],[98.1816,14.4421],[98.1831,14.435],[98.1832,14.4301],[98.1831,14.4284],[98.1808,14.4217],[98.1818,14.4155],[98.1794,14.4102],[98.1795,14.4084],[98.1812,14.4054],[98.1812,14.4022],[98.1827,14.3964],[98.1827,14.3935],[98.1835,14.3918],[98.1831,14.3859],[98.185,14.3835],[98.1856,14.3779],[98.187,14.373],[98.188,14.3611],[98.1878,14.3554],[98.1901,14.3391],[98.1908,14.3269],[98.1924,14.3225],[98.1935,14.309],[98.195,14.3075],[98.1991,14.3067],[98.2028,14.3074],[98.2046,14.307],[98.2065,14.3052],[98.21,14.3034],[98.2154,14.2991],[98.2202,14.2968],[98.2254,14.2933],[98.2286,14.283],[98.2269,14.279],[98.2271,14.2754],[98.2261,14.2737],[98.2251,14.2732],[98.2233,14.2734],[98.2218,14.273],[98.2199,14.2717],[98.2175,14.2687],[98.2168,14.2646],[98.2145,14.2607],[98.2143,14.2581],[98.2107,14.2482],[98.2099,14.2313],[98.2115,14.2281],[98.213,14.2071],[98.2114,14.2015],[98.2071,14.1903],[98.2098,14.184],[98.212,14.177],[98.2123,14.1708],[98.213,14.1686],[98.2139,14.1676],[98.2162,14.1667],[98.2165,14.1659],[98.2165,14.1589],[98.2173,14.155],[98.217,14.1519],[98.2182,14.1453],[98.2219,14.1336],[98.2254,14.118],[98.2252,14.1012],[98.2263,14.0891],[98.2253,14.087],[98.2169,14.0785],[98.2094,14.0675],[98.2082,14.067],[98.1967,14.0648],[98.1952,14.0639],[98.1935,14.061],[98.1933,14.0541],[98.1937,14.0529],[98.2133,14.0314],[98.2207,14.0301],[98.2268,14.0228],[98.227,14.0145],[98.2305,13.9985],[98.23,13.9912],[98.2334,13.9707],[98.2384,13.96],[98.2406,13.9539],[98.2453,13.9433],[98.2489,13.9182],[98.2488,13.9173],[98.2464,13.9133],[98.2459,13.9065],[98.249,13.8998],[98.25,13.8875],[98.2464,13.8729],[98.2465,13.8707],[98.249,13.8603],[98.2576,13.8462],[98.2578,13.8443],[98.2569,13.8326],[98.2571,13.8311],[98.2632,13.809],[98.266,13.8067]]}}]}