{"type":"FeatureCollection","features":[{"type":"Feature","properties":{"Name":"Little Tanintharyi River"},"geometry":{"type":"LineString","coordinates":[[99.016,12.0913],[99.018,12.0583],[99.025,12.0382],[99.0447,12.017],[99.0756,11.9982],[99.0762,11.9997],[99.079,12.0014],[99.0915,12.0018],[99.0966,11.998],[99.1156,11.9683],[99.1275,11.9387],[99.13,11.9249],[99.129,11.923],[99.1245,11.9213],[99.1235,11.9226],[99.1207,11.9309],[99.119,11.9317],[99.1173,11.9315],[99.1133,11.9275],[99.0989,11.8953],[99.1158,11.8688],[99.1169,11.8675],[99.1203,11.8684],[99.1273,11.8771],[99.1324,11.8794],[99.1609,11.8826],[99.1633,11.8822],[99.1853,11.8623],[99.187,11.8517]]}},{"type":"Feature","properties":{"Name":"Tanintharyi River"},"geometry":{"type":"LineString","coordinates":[[98.5561,14.0265],[98.5579,14.0409],[98.555,14.0712],[98.5454,14.1052],[98.5428,14.1663],[98.5497,14.1863],[98.563,14.207],[98.5652,14.2083],[98.5677,14.2083],[98.6137,14.1967],[98.7164,14.1632],[98.7139,14.1407],[98.7466,14.0974],[98.8351,14.0147],[98.8589,14.0143],[98.8611,14.0151],[98.8617,14.018],[98.8588,14.0269],[98.8593,14.0312],[98.8691,14.044],[98.88,14.0549],[98.8849,14.0549],[98.9275,13.9776],[98.9638,13.9156],[98.9938,13.8758],[99.002,13.8498],[99.0038,13.8402],[99.0038,13.8375],[99.0018,13.8349],[98.9987,13.8342],[98.996,13.8235],[98.9956,13.7986],[99.0182,13.7309],[99.0396,13.6739],[99.0418,13.6295],[99.0438,13.6097],[99.0509,13.5959],[99.0725,13.5486],[99.0616,13.5115],[99.0558,13.4679],[99.06,13.4345],[99.0067,13.3552],[98.9867,13.3343],[98.9678,13.3041],[98.9744,13.2785],[98.9927,13.1992],[98.9947,13.1845],[98.9944,13.1818],[98.9884,13.1667],[98.9771,13.1563],[98.9731,13.1371],[98.972,13.1082],[98.9733,13.0802],[98.964,12.9562],[98.9627,12.9475],[98.962,12.9446],[98.9518,12.9313],[98.946,12.9209],[98.9329,12.886],[98.9273,12.8451],[98.928,12.8417],[98.9293,12.8399],[98.9409,12.8366],[98.9433,12.8342],[98.944,12.8286],[98.9384,12.7864],[98.9322,12.7577],[98.996,12.6766],[99.0498,12.6021],[99.0507,12.5997],[99.0502,12.597],[99.0471,12.5881],[99.0354,12.5705],[99.0234,12.5394],[99.0231,12.5372],[99.0354,12.5196],[99.0462,12.5099],[99.0498,12.5081],[99.0594,12.5001],[99.074,12.4838],[99.0809,12.4741],[99.1209,12.364],[99.1374,12.3071],[99.1389,12.2958],[99.1372,12.2838],[99.1345,12.2809],[99.1094,12.276],[99.1067,12.2765],[99.1029,12.2787],[99.0983,12.2825],[99.0891,12.2929],[99.0865,12.2949],[99.0827,12.2958],[99.0516,12.2942],[99.04,12.2911],[99.0378,12.2898],[99.0371,12.2878],[99.0411,12.2473],[99.0442,12.2396],[99.0483,12.2336],[99.0627,12.19],[99.0638,12.1291],[99.0605,12.1195],[99.0567,12.1146],[99.0265,12.0924],[99.016,12.0913],[99.0069,12.0917],[98.9411,12.1082],[98.9056,12.1226],[98.8922,12.1302],[98.8891,12.1335],[98.8813,12.1473],[98.8422,12.2542],[98.8395,12.2645],[98.8393,12.2689],[98.8418,12.2791],[98.8402,12.2856],[98.8369,12.2885],[98.7764,12.3236],[98.7431,12.3382],[98.7066,12.35],[98.6762,12.3638],[98.6233,12.3898],[98.6197,12.392],[98.5924,12.4209]]}},{"type":"Feature","properties":{"Name":"Le Nya River"},"geometry":{"type":"LineString","coordinates":[[98.7913,11.7205],[98.807,11.7229],[98.8273,11.7234],[98.8386,11.7224],[98.8756,11.7047],[98.8847,11.6994],[98.9121,11.6662],[98.9142,11.6623],[98.9171,11.6517],[98.9169,11.6392],[98.9177,11.6336],[98.9237,11.6134],[98.9253,11.6105],[98.928,11.6082],[98.9542,11.6001],[98.9788,11.595],[98.9941,11.5958],[98.9982,11.5946],[99.0242,11.5663],[99.0279,11.5521],[99.0234,11.5225],[99.0229,11.5207],[99.0182,11.5166],[99.0009,11.5064],[98.9872,11.4144],[98.9649,11.362],[98.9577,11.3131],[98.9538,11.2798],[98.9674,11.2687],[98.9794,11.2544],[98.9779,11.2427],[98.9707,11.2392]]}},{"type":"Feature","properties":{"Name":"Pakchan River"},"geometry":{"type":"LineString","coordinates":[[98.7145,10.25],[98.724,10.2747],[98.7457,10.3477],[98.754,10.3865],[98.7561,10.3916],[98.7763,10.4268]]}}]}