{"type":"FeatureCollection","features":[{"type":"Feature","properties":{},"geometry":{"type":"Polygon","coordinates":[[[98.2518,13.7273],[98.2616,13.7034],[98.2567,13.7048],[98.2504,13.7208],[98.2476,13.7297],[98.2599,13.738],[98.2634,13.7462],[98.2645,13.7528],[98.2697,13.7638],[98.2683,13.7669],[98.2637,13.7676],[98.262,13.7707],[98.2673,13.7727],[98.274,13.7652],[98.2673,13.7514],[98.2655,13.7425],[98.2623,13.7352],[98.2532,13.7301],[98.2518,13.7273]]]}},{"type":"Feature","properties":{},"geometry":{"type":"Polygon","coordinates":[[[98.2852,13.7394],[98.2898,13.7342],[98.2923,13.727],[98.3014,13.726],[98.3092,13.7153],[98.3123,13.7157],[98.3141,13.7222],[98.3183,13.7267],[98.3201,13.7263],[98.3169,13.7184],[98.3176,13.7136],[98.3134,13.7084],[98.3102,13.7098],[98.2986,13.7215],[98.2905,13.7219],[98.2838,13.7359],[98.2785,13.7352],[98.2729,13.728],[98.2764,13.7187],[98.2783,13.7075],[98.269,13.7266],[98.269,13.7318],[98.2803,13.739],[98.2852,13.7394]]]}},{"type":"Feature","properties":{},"geometry":{"type":"Polygon","coordinates":[[[98.3722,13.6641],[98.3683,13.6593],[98.3613,13.6589],[98.3553,13.6559],[98.3493,13.6579],[98.3479,13.6621],[98.3381,13.6672],[98.3335,13.6675],[98.3113,13.6637],[98.3037,13.6719],[98.3003,13.6846],[98.2975,13.6876],[98.2931,13.6894],[98.2874,13.6895],[98.2846,13.6913],[98.2851,13.6962],[98.2959,13.6942],[98.3015,13.6917],[98.3095,13.6851],[98.3127,13.6747],[98.3198,13.6723],[98.325,13.6724],[98.3327,13.6782],[98.3352,13.6786],[98.3402,13.6706],[98.3479,13.6672],[98.3528,13.6617],[98.356,13.6607],[98.3588,13.6628],[98.3658,13.6634],[98.3672,13.6658],[98.3679,13.6751],[98.3785,13.682],[98.3929,13.6834],[98.401,13.6872],[98.4207,13.691],[98.4253,13.6992],[98.4397,13.703],[98.4401,13.7006],[98.4397,13.6989],[98.427,13.6954],[98.425,13.6889],[98.4183,13.6862],[98.4049,13.6851],[98.395,13.6793],[98.3813,13.6786],[98.3718,13.6734],[98.3704,13.6682],[98.3725,13.6662],[98.3722,13.6641]]]}},{"type":"Feature","properties":{},"geometry":{"type":"Polygon","coordinates":[[[98.5682,13.2542],[98.5702,13.2452],[98.5733,13.2457],[98.5755,13.2528],[98.579,13.2564],[98.5841,13.2566],[98.5869,13.2529],[98.5836,13.2451],[98.5873,13.2412],[98.6089,13.2365],[98.6044,13.2344],[98.5889,13.2348],[98.581,13.2378],[98.5777,13.2373],[98.5751,13.2344],[98.5762,13.2288],[98.5663,13.1981],[98.5634,13.2001],[98.5644,13.2144],[98.5673,13.2215],[98.5668,13.2234],[98.5638,13.2232],[98.5607,13.2197],[98.5543,13.22],[98.5529,13.2218],[98.553,13.2295],[98.5512,13.2359],[98.5531,13.2393],[98.5531,13.2433],[98.5578,13.2467],[98.5651,13.2469],[98.5593,13.2561],[98.5588,13.2619],[98.5659,13.2696],[98.5666,13.2664],[98.5651,13.2595],[98.5682,13.2542]]]}},{"type":"Feature","properties":{},"geometry":{"type":"Polygon","coordinates":[[[97.8096,15.43],[97.8127,15.4198],[97.8101,15.4173],[97.7977,15.4167],[97.8004,15.4128],[97.7995,15.4035],[97.7988,15.4018],[97.7953,15.3995],[97.793,15.3943],[97.7982,15.3866],[97.8027,15.3846],[97.8129,15.384],[97.8206,15.3856],[97.8277,15.3879],[97.8274,15.3849],[97.8246,15.3826],[97.8185,15.3814],[97.8138,15.3799],[97.8002,15.3809],[97.7955,15.384],[97.7888,15.3923],[97.7885,15.3969],[97.7907,15.4005],[97.7873,15.4011],[97.7795,15.3984],[97.7793,15.4052],[97.7894,15.4061],[97.7944,15.4082],[97.7951,15.41],[97.7934,15.4117],[97.786,15.4154],[97.7838,15.4195],[97.7865,15.4233],[97.8065,15.4218],[97.8074,15.4341],[97.8136,15.4425],[97.8156,15.4436],[97.8169,15.4427],[97.8117,15.436],[97.8096,15.43]]]}},{"type":"Feature","properties":{},"geometry":{"type":"Polygon","coordinates":[[[97.7583,15.3874],[97.7713,15.3708],[97.7786,15.3726],[97.785,15.3678],[97.7891,15.3669],[97.7902,15.3623],[97.7895,15.3561],[97.7923,15.348],[97.7908,15.3349],[97.7877,15.3335],[97.7877,15.3348],[97.7885,15.3368],[97.7868,15.3453],[97.789,15.349],[97.785,15.3565],[97.786,15.3625],[97.7751,15.3697],[97.7722,15.3649],[97.7689,15.3656],[97.7645,15.3704],[97.7583,15.3814],[97.7548,15.3828],[97.7583,15.3874]]]}},{"type":"Feature","properties":{},"geometry":{"type":"Polygon","coordinates":[[[97.8802,15.2498],[97.8686,15.2379],[97.8627,15.235],[97.8511,15.2371],[97.8471,15.2337],[97.8383,15.2332],[97.8374,15.2226],[97.8383,15.2194],[97.8333,15.2167],[97.8257,15.2202],[97.826,15.2163],[97.8222,15.2115],[97.8351,15.1955],[97.8221,15.2048],[97.8179,15.2057],[97.807,15.2014],[97.8058,15.1945],[97.8032,15.1924],[97.7944,15.1872],[97.7918,15.1918],[97.7912,15.2042],[97.79,15.2109],[97.7912,15.2198],[97.7975,15.2301],[97.8052,15.2361],[97.8128,15.2328],[97.8151,15.2278],[97.8234,15.2273],[97.8312,15.2215],[97.8343,15.2213],[97.8354,15.2232],[97.8352,15.2261],[97.8333,15.2325],[97.8357,15.2369],[97.8449,15.2369],[97.8483,15.2403],[97.8634,15.24],[97.8719,15.248],[97.8755,15.2501],[97.8802,15.2498]],[[97.8127,15.2087],[97.8144,15.2115],[97.82,15.2149],[97.809,15.2303],[97.8,15.2272],[97.7959,15.2168],[97.7971,15.2125],[97.7961,15.2073],[97.802,15.2058],[97.807,15.2087],[97.8127,15.2087]]]}},{"type":"Feature","properties":{},"geometry":{"type":"Polygon","coordinates":[[[97.9273,14.8655],[97.9174,14.8563],[97.9145,14.8517],[97.9178,14.845],[97.9214,14.8423],[97.9254,14.8422],[97.9372,14.847],[97.9391,14.8434],[97.9374,14.841],[97.9327,14.8392],[97.9303,14.833],[97.9321,14.8295],[97.9364,14.8236],[97.9489,14.8251],[97.9513,14.8219],[97.9506,14.8168],[97.9479,14.8146],[97.9447,14.8129],[97.9415,14.8029],[97.9437,14.7956],[97.945,14.7951],[97.9503,14.7962],[97.9535,14.792],[97.9521,14.79],[97.9446,14.7907],[97.9426,14.7896],[97.9422,14.7842],[97.9452,14.7693],[97.9492,14.7603],[97.9534,14.7589],[97.9645,14.7644],[97.9705,14.7743],[97.9714,14.7711],[97.969,14.7639],[97.964,14.7584],[97.9595,14.7552],[97.952,14.7543],[97.9486,14.7396],[97.9519,14.7318],[97.9557,14.7288],[97.9604,14.7217],[97.9722,14.7246],[97.9832,14.7239],[97.9877,14.719],[97.9632,14.7161],[97.9742,14.6993],[97.9798,14.6864],[97.9871,14.6833],[97.9847,14.6786],[97.9837,14.6701],[97.9859,14.6646],[97.9917,14.6586],[97.9995,14.6569],[98.0009,14.6528],[98.0035,14.6516],[98.0096,14.6419],[98.016,14.6387],[98.0341,14.6393],[98.0334,14.6365],[98.0299,14.635],[98.0211,14.6357],[98.0163,14.6345],[98.0219,14.6203],[98.0222,14.6124],[98.0158,14.6259],[98.0134,14.6293],[98.0122,14.6284],[98.0112,14.6251],[98.0074,14.6265],[98.0065,14.6286],[98.0084,14.6355],[98.0065,14.6396],[98.0016,14.6447],[97.979,14.6595],[97.9764,14.6646],[97.9783,14.6699],[97.9722,14.6853],[97.9685,14.6894],[97.9529,14.698],[97.9471,14.7084],[97.9431,14.7093],[97.9356,14.7079],[97.9358,14.7102],[97.9429,14.7121],[97.9443,14.7141],[97.9358,14.7201],[97.9259,14.7192],[97.9126,14.7133],[97.9057,14.6961],[97.9069,14.6885],[97.9142,14.677],[97.9134,14.6631],[97.9118,14.6677],[97.9118,14.676],[97.9038,14.6856],[97.9019,14.6929],[97.902,14.6982],[97.9081,14.7108],[97.906,14.7152],[97.9016,14.7148],[97.8911,14.707],[97.8843,14.7201],[97.8962,14.7299],[97.8961,14.7362],[97.8979,14.7414],[97.8908,14.7573],[97.8838,14.7789],[97.8712,14.7747],[97.8697,14.7752],[97.8694,14.7794],[97.8728,14.7789],[97.8817,14.7834],[97.88,14.7887],[97.8836,14.7888],[97.89,14.7923],[97.8952,14.7996],[97.8995,14.803],[97.9009,14.8106],[97.9092,14.8179],[97.9036,14.826],[97.8982,14.8285],[97.888,14.8411],[97.8874,14.8415],[97.8805,14.8378],[97.8779,14.839],[97.8772,14.8438],[97.8701,14.8548],[97.8699,14.8595],[97.8746,14.8571],[97.8899,14.847],[97.894,14.8529],[97.8956,14.8515],[97.9028,14.8573],[97.9025,14.8602],[97.907,14.8648],[97.9096,14.8614],[97.9184,14.8632],[97.9217,14.8687],[97.9219,14.8756],[97.9194,14.883],[97.9199,14.8864],[97.9239,14.8845],[97.9264,14.8783],[97.9253,14.8754],[97.9283,14.8687],[97.9273,14.8655]],[[97.9128,14.8283],[97.9143,14.8331],[97.9086,14.8398],[97.906,14.8542],[97.9018,14.8513],[97.9011,14.841],[97.9022,14.8338],[97.9095,14.8283],[97.9128,14.8283]],[[97.9365,14.7896],[97.9375,14.7997],[97.9301,14.828],[97.9259,14.8395],[97.9212,14.841],[97.918,14.8397],[97.9176,14.8356],[97.9248,14.8202],[97.9275,14.8095],[97.9304,14.7928],[97.9327,14.7891],[97.9365,14.7896]],[[97.932,14.771],[97.9271,14.7871],[97.925,14.8103],[97.9221,14.8165],[97.9199,14.82],[97.9156,14.8211],[97.9158,14.8184],[97.9123,14.8099],[97.903,14.7943],[97.8959,14.7784],[97.897,14.7695],[97.9059,14.7508],[97.9142,14.7436],[97.9222,14.7413],[97.93,14.7441],[97.9331,14.7468],[97.9309,14.7539],[97.9329,14.7565],[97.9381,14.7546],[97.9385,14.7564],[97.932,14.771]]]}},{"type":"Feature","properties":{"name":"Dawei River"},"geometry":{"type":"Polygon","coordinates":[[[98.1889,14.0492],[98.1933,14.0409],[98.1954,14.0398],[98.1983,14.0392],[98.2022,14.0327],[98.212,14.0259],[98.2138,14.0386],[98.2158,14.0371],[98.2155,14.0223],[98.2139,14.0182],[98.2079,14.0256],[98.207,14.02],[98.2092,14.0153],[98.213,14.0124],[98.2176,14.01],[98.219,14.007],[98.2157,14.0024],[98.208,14.0009],[98.207,13.9953],[98.2137,13.9815],[98.2231,13.9686],[98.2261,13.9525],[98.2244,13.9469],[98.2305,13.93],[98.2381,13.9146],[98.2399,13.9059],[98.2397,13.8923],[98.2379,13.8865],[98.2375,13.8657],[98.2392,13.8346],[98.245,13.8126],[98.232,13.8145],[98.2272,13.8138],[98.2216,13.8159],[98.2208,13.8245],[98.2265,13.8391],[98.2287,13.8508],[98.2273,13.8575],[98.2242,13.8632],[98.2193,13.8483],[98.21,13.8343],[98.205,13.818],[98.1948,13.7962],[98.1917,13.7849],[98.1904,13.764],[98.1966,13.7437],[98.1746,13.7423],[98.1721,13.7653],[98.1717,13.7834],[98.1791,13.8135],[98.1986,13.8594],[98.2005,13.8702],[98.1999,13.882],[98.197,13.886],[98.1833,13.886],[98.1818,13.887],[98.1825,13.8887],[98.1958,13.8905],[98.1952,13.8935],[98.1767,13.9103],[98.1739,13.9172],[98.1761,13.9301],[98.1857,13.9322],[98.1905,13.9375],[98.1954,13.9579],[98.1939,13.9651],[98.1843,13.9745],[98.1821,13.9807],[98.1786,13.9929],[98.1781,14.0041],[98.1805,14.0123],[98.169,14.0344],[98.1698,14.0397],[98.1757,14.0505],[98.1804,14.061],[98.18,14.0656],[98.1765,14.0698],[98.1763,14.0755],[98.173,14.0786],[98.171,14.099],[98.1771,14.1114],[98.1845,14.115],[98.1863,14.1183],[98.1869,14.1293],[98.1837,14.1569],[98.1863,14.1695],[98.1859,14.1845],[98.1879,14.2063],[98.1922,14.2116],[98.1981,14.2137],[98.1989,14.2286],[98.1948,14.276],[98.1887,14.2834],[98.1841,14.3128],[98.1793,14.3246],[98.1872,14.3147],[98.1923,14.2861],[98.1993,14.2766],[98.204,14.2118],[98.2016,14.2077],[98.194,14.2068],[98.1914,14.201],[98.1925,14.1861],[98.1896,14.1642],[98.1914,14.1394],[98.1972,14.1196],[98.1967,14.1157],[98.1908,14.1116],[98.1877,14.1054],[98.1783,14.1004],[98.1777,14.0882],[98.1847,14.0711],[98.186,14.0511],[98.1889,14.0492]],[[98.1803,14.0348],[98.1832,14.038],[98.1843,14.0412],[98.1808,14.0465],[98.1761,14.0381],[98.1761,14.0341],[98.1803,14.0348]],[[98.1933,14.0329],[98.1896,14.0336],[98.185,14.0289],[98.1842,14.0268],[98.1902,14.0221],[98.193,14.0218],[98.1933,14.0329]],[[98.2014,14.0039],[98.2113,14.0066],[98.2138,14.009],[98.203,14.0152],[98.1986,14.0152],[98.1967,14.0124],[98.2014,14.0039]],[[98.2061,13.9716],[98.2061,13.9773],[98.2015,13.9877],[98.1941,13.9966],[98.1928,14.0026],[98.1885,14.0071],[98.185,14.0016],[98.186,13.9986],[98.1977,13.981],[98.199,13.9773],[98.2046,13.9706],[98.2061,13.9716]],[[98.1988,13.9726],[98.1967,13.9805],[98.1822,14.0008],[98.1794,14.0006],[98.1799,13.9931],[98.184,13.9826],[98.1949,13.972],[98.1988,13.9726]],[[98.2124,13.9484],[98.2143,13.9528],[98.2143,13.9583],[98.2113,13.9654],[98.2075,13.9641],[98.2038,13.9577],[98.2054,13.9512],[98.2098,13.9477],[98.2124,13.9484]],[[98.2157,13.893],[98.2143,13.9054],[98.2044,13.9431],[98.2026,13.9431],[98.2018,13.9396],[98.1907,13.9296],[98.1859,13.9191],[98.1894,13.9124],[98.2032,13.8946],[98.2102,13.8821],[98.213,13.8803],[98.2157,13.893]],[[98.2373,13.9026],[98.2347,13.9139],[98.2286,13.9235],[98.2273,13.9295],[98.2248,13.9304],[98.2245,13.9195],[98.2331,13.9007],[98.2334,13.8941],[98.2315,13.8895],[98.2315,13.8838],[98.2334,13.8813],[98.2373,13.9026]],[[98.1844,13.9244],[98.1812,13.9274],[98.1772,13.9262],[98.1762,13.9172],[98.1805,13.9098],[98.1835,13.9088],[98.1844,13.9244]],[[98.2155,13.8566],[98.2178,13.8644],[98.2117,13.8604],[98.2072,13.8466],[98.2155,13.8566]]]}},{"type":"Feature","properties":{},"geometry":{"type":"Polygon","coordinates":[[[98.5966,13.1725],[98.599,13.1691],[98.6063,13.1696],[98.6078,13.1683],[98.6063,13.1669],[98.6015,13.1664],[98.5988,13.1645],[98.595,13.1544],[98.5913,13.1503],[98.5873,13.1482],[98.5788,13.1477],[98.5827,13.1546],[98.5838,13.1533],[98.5884,13.1528],[98.5934,13.1597],[98.5932,13.165],[98.5908,13.1676],[98.5871,13.1678],[98.5856,13.1703],[98.5876,13.171],[98.5908,13.171],[98.5918,13.1725],[98.5923,13.1781],[98.5936,13.1793],[98.5941,13.1823],[98.5956,13.1784],[98.5966,13.1725]]]}},{"type":"Feature","properties":{},"geometry":{"type":"Polygon","coordinates":[[[98.7843,12.6151],[98.7827,12.613],[98.7838,12.6089],[98.7908,12.6047],[98.7947,12.5943],[98.8001,12.5892],[98.7982,12.586],[98.7963,12.586],[98.787,12.6015],[98.7831,12.6022],[98.78,12.6057],[98.7775,12.6142],[98.7738,12.6108],[98.7714,12.6106],[98.7691,12.615],[98.767,12.6141],[98.7521,12.6008],[98.7441,12.5919],[98.742,12.5875],[98.7312,12.577],[98.7229,12.5603],[98.7153,12.5511],[98.7045,12.5434],[98.6906,12.5377],[98.6781,12.5265],[98.6744,12.5323],[98.6925,12.5434],[98.7047,12.5477],[98.7111,12.5528],[98.7174,12.5589],[98.7218,12.5741],[98.7246,12.5794],[98.7295,12.5816],[98.7413,12.5924],[98.7472,12.5999],[98.7623,12.6155],[98.7684,12.6182],[98.7762,12.6186],[98.7822,12.6176],[98.7843,12.6151]]]}},{"type":"Feature","properties":{},"geometry":{"type":"Polygon","coordinates":[[[98.8109,12.5233],[98.8106,12.5201],[98.8066,12.5201],[98.7972,12.511],[98.7866,12.5034],[98.7765,12.5031],[98.7697,12.5023],[98.7644,12.5038],[98.7555,12.5034],[98.7545,12.5014],[98.7575,12.4944],[98.7563,12.4887],[98.7575,12.4855],[98.7668,12.4732],[98.7695,12.4642],[98.772,12.4513],[98.7694,12.4419],[98.7696,12.437],[98.773,12.4324],[98.7809,12.414],[98.7822,12.3999],[98.7805,12.39],[98.7765,12.3891],[98.766,12.3929],[98.7606,12.392],[98.7667,12.3857],[98.7774,12.3792],[98.778,12.3771],[98.7766,12.3746],[98.7831,12.3649],[98.7859,12.363],[98.7913,12.3639],[98.7955,12.36],[98.7964,12.3558],[98.7919,12.349],[98.7929,12.3475],[98.7996,12.3482],[98.8043,12.3438],[98.8082,12.3435],[98.8101,12.3403],[98.8094,12.3366],[98.8133,12.3348],[98.8154,12.3292],[98.8231,12.328],[98.8252,12.3246],[98.8233,12.3216],[98.8261,12.318],[98.8316,12.3189],[98.8349,12.3155],[98.8415,12.3147],[98.8454,12.317],[98.8478,12.3154],[98.8476,12.3129],[98.8423,12.3078],[98.8451,12.3036],[98.8427,12.3021],[98.8393,12.3022],[98.836,12.3051],[98.8345,12.3099],[98.8324,12.3103],[98.8307,12.31],[98.8283,12.3152],[98.8181,12.3152],[98.8143,12.3129],[98.8127,12.3097],[98.8166,12.3044],[98.8143,12.3021],[98.8259,12.2919],[98.8336,12.2904],[98.8378,12.2865],[98.8401,12.2782],[98.8393,12.2681],[98.8407,12.2605],[98.8434,12.2549],[98.8532,12.2475],[98.8562,12.2403],[98.8555,12.2341],[98.8573,12.2293],[98.8612,12.2262],[98.8671,12.2253],[98.871,12.222],[98.8708,12.2151],[98.8639,12.2069],[98.8632,12.2039],[98.8667,12.1974],[98.8706,12.1809],[98.8882,12.1402],[98.8919,12.1358],[98.9094,12.1269],[98.9155,12.126],[98.9211,12.1264],[98.9239,12.1293],[98.9277,12.1293],[98.9298,12.1332],[98.9328,12.1327],[98.9344,12.1212],[98.9374,12.1166],[98.943,12.1133],[98.9488,12.1124],[98.9706,12.112],[98.9783,12.1087],[98.9977,12.0906],[99.0036,12.0896],[99.009,12.0933],[99.016,12.0916],[99.0225,12.0938],[99.0307,12.0926],[99.0324,12.0949],[99.0315,12.0981],[99.0336,12.1018],[99.0376,12.1027],[99.0467,12.1068],[99.0573,12.1141],[99.0623,12.1292],[99.0586,12.1359],[99.0592,12.1456],[99.0567,12.1548],[99.057,12.1679],[99.0606,12.1748],[99.0655,12.1757],[99.0667,12.1838],[99.0695,12.1872],[99.0822,12.1933],[99.0827,12.1981],[99.0758,12.215],[99.0705,12.2203],[99.0563,12.2273],[99.0554,12.2306],[99.061,12.2296],[99.0726,12.224],[99.0794,12.2186],[99.0876,12.1965],[99.0864,12.1877],[99.0763,12.1862],[99.0709,12.1828],[99.0616,12.1575],[99.0633,12.1433],[99.0689,12.1303],[99.0683,12.1239],[99.0624,12.109],[99.0479,12.1024],[99.0404,12.102],[99.0382,12.0979],[99.041,12.0935],[99.0382,12.0871],[99.0169,12.0856],[99.0113,12.0886],[99.0091,12.0829],[99.0056,12.0802],[98.9986,12.0816],[98.9907,12.0936],[98.9784,12.1018],[98.9649,12.1074],[98.9539,12.1056],[98.9434,12.1071],[98.9343,12.11],[98.9266,12.1176],[98.9077,12.1207],[98.8977,12.1266],[98.8895,12.1252],[98.8865,12.1273],[98.8759,12.1481],[98.8764,12.1582],[98.8688,12.1761],[98.8631,12.1919],[98.8594,12.1966],[98.8571,12.1975],[98.8507,12.1966],[98.8456,12.199],[98.8419,12.1981],[98.8393,12.19],[98.8343,12.1878],[98.8153,12.1695],[98.8016,12.1604],[98.7934,12.1584],[98.7911,12.1531],[98.7822,12.1485],[98.7779,12.1403],[98.7678,12.136],[98.762,12.1363],[98.7566,12.1411],[98.749,12.1568],[98.7448,12.1594],[98.7444,12.1707],[98.7337,12.1767],[98.7328,12.1818],[98.7274,12.183],[98.7246,12.1857],[98.7261,12.1938],[98.7229,12.198],[98.7161,12.1971],[98.7135,12.2006],[98.7091,12.2031],[98.7042,12.2043],[98.7009,12.2027],[98.6906,12.1933],[98.6798,12.1858],[98.6652,12.1786],[98.6423,12.1741],[98.6421,12.1842],[98.6489,12.1952],[98.6839,12.21],[98.6924,12.2189],[98.6943,12.2237],[98.6929,12.2279],[98.6854,12.2316],[98.6765,12.2319],[98.6526,12.2265],[98.6435,12.2215],[98.6402,12.2171],[98.6392,12.2056],[98.6373,12.2015],[98.6329,12.2098],[98.6349,12.2255],[98.6328,12.231],[98.6387,12.2376],[98.6448,12.2404],[98.6455,12.2436],[98.6423,12.2517],[98.6403,12.2719],[98.6408,12.2747],[98.6424,12.2756],[98.6458,12.2558],[98.6502,12.2419],[98.6563,12.2433],[98.6658,12.2428],[98.6794,12.2399],[98.6815,12.242],[98.6813,12.2457],[98.6753,12.2614],[98.6764,12.2755],[98.6781,12.2759],[98.6804,12.2602],[98.6839,12.2553],[98.6839,12.2452],[98.6855,12.2415],[98.7029,12.2294],[98.7062,12.2229],[98.7224,12.2062],[98.7308,12.1942],[98.7347,12.1813],[98.7414,12.1803],[98.7474,12.1891],[98.7562,12.1922],[98.7626,12.2032],[98.762,12.2057],[98.7589,12.2051],[98.7552,12.2102],[98.7561,12.215],[98.7546,12.2212],[98.7513,12.2238],[98.7396,12.2269],[98.7415,12.2294],[98.749,12.2289],[98.7604,12.2249],[98.7638,12.2306],[98.7629,12.2398],[98.7667,12.2492],[98.7607,12.2684],[98.7523,12.2673],[98.7474,12.2689],[98.7416,12.2759],[98.7398,12.2867],[98.7375,12.2909],[98.7347,12.2909],[98.7279,12.2958],[98.7121,12.3],[98.6924,12.3029],[98.6801,12.3097],[98.6749,12.3159],[98.671,12.3185],[98.6651,12.3174],[98.6536,12.3105],[98.6414,12.3066],[98.6382,12.3191],[98.6584,12.3238],[98.6706,12.3304],[98.68,12.3396],[98.6817,12.3428],[98.6873,12.3503],[98.6696,12.3578],[98.6645,12.3611],[98.6563,12.3699],[98.6521,12.372],[98.6475,12.372],[98.6388,12.3638],[98.6345,12.3627],[98.6233,12.3641],[98.6098,12.3649],[98.5987,12.3639],[98.5928,12.3706],[98.5916,12.3733],[98.593,12.3766],[98.5987,12.38],[98.6028,12.391],[98.6029,12.393],[98.602,12.3965],[98.5997,12.3983],[98.6065,12.4118],[98.6112,12.4128],[98.6277,12.4301],[98.6343,12.4338],[98.6495,12.4346],[98.6537,12.4332],[98.6567,12.4275],[98.653,12.4171],[98.6543,12.414],[98.6624,12.4348],[98.6769,12.4363],[98.6792,12.4337],[98.6759,12.4317],[98.6684,12.431],[98.6665,12.4294],[98.6696,12.4248],[98.6739,12.4087],[98.6722,12.4041],[98.6692,12.4057],[98.6658,12.423],[98.6628,12.4248],[98.6578,12.4111],[98.6505,12.4079],[98.6495,12.4058],[98.6516,12.4028],[98.6633,12.4037],[98.6671,12.4002],[98.6734,12.399],[98.6689,12.3949],[98.664,12.3961],[98.6614,12.3993],[98.6577,12.3996],[98.6537,12.395],[98.6597,12.385],[98.659,12.3795],[98.6755,12.3677],[98.6876,12.3618],[98.7,12.3595],[98.7061,12.3541],[98.7434,12.3431],[98.7581,12.3359],[98.7642,12.3367],[98.7665,12.3358],[98.7726,12.3288],[98.7765,12.3122],[98.7886,12.308],[98.8033,12.3116],[98.8158,12.3189],[98.8193,12.3228],[98.8184,12.3253],[98.8095,12.3274],[98.8065,12.3341],[98.8014,12.3339],[98.8033,12.3392],[98.7947,12.343],[98.789,12.337],[98.7855,12.3382],[98.7834,12.3403],[98.783,12.3437],[98.7903,12.3547],[98.7878,12.3577],[98.7835,12.3559],[98.7796,12.3652],[98.774,12.3693],[98.7726,12.3721],[98.7736,12.3758],[98.7708,12.38],[98.7622,12.3835],[98.7575,12.3869],[98.7573,12.3918],[98.7608,12.3954],[98.7744,12.3951],[98.777,12.3974],[98.7787,12.4107],[98.7753,12.4183],[98.7688,12.4262],[98.7644,12.4361],[98.7628,12.4438],[98.7657,12.4601],[98.7628,12.4702],[98.7542,12.4783],[98.745,12.4826],[98.724,12.4857],[98.7198,12.4876],[98.7049,12.501],[98.6921,12.5068],[98.6792,12.5094],[98.6833,12.5189],[98.6961,12.5107],[98.712,12.5113],[98.7249,12.514],[98.7317,12.5124],[98.74,12.5063],[98.7409,12.4987],[98.7437,12.4966],[98.7519,12.497],[98.7521,12.5048],[98.7536,12.5073],[98.7581,12.5087],[98.766,12.5086],[98.7755,12.5057],[98.7852,12.5064],[98.8074,12.5273],[98.8109,12.5233]],[[98.7507,12.4866],[98.749,12.4918],[98.7412,12.4925],[98.7379,12.4955],[98.7361,12.5056],[98.7331,12.5086],[98.7115,12.5079],[98.7106,12.5058],[98.7147,12.5021],[98.7212,12.4921],[98.7327,12.4918],[98.7404,12.4897],[98.7453,12.4855],[98.7487,12.4852],[98.7507,12.4866]],[[98.705,12.3353],[98.702,12.3422],[98.6962,12.3441],[98.6793,12.3283],[98.6731,12.3244],[98.6822,12.3149],[98.6941,12.3073],[98.7088,12.3058],[98.7403,12.295],[98.7443,12.2922],[98.7459,12.2874],[98.7451,12.2798],[98.7467,12.274],[98.7498,12.2724],[98.7624,12.273],[98.7645,12.2686],[98.7644,12.2614],[98.7705,12.2543],[98.7718,12.2504],[98.768,12.2444],[98.7668,12.2276],[98.7621,12.2232],[98.7591,12.2162],[98.7606,12.2099],[98.7655,12.2106],[98.7692,12.205],[98.7745,12.2027],[98.7766,12.1997],[98.7758,12.1848],[98.7793,12.1778],[98.7882,12.1715],[98.794,12.1653],[98.8005,12.1661],[98.8092,12.1693],[98.825,12.1846],[98.8313,12.1889],[98.8355,12.194],[98.8382,12.2009],[98.8407,12.2024],[98.8545,12.2028],[98.8595,12.2062],[98.8621,12.2117],[98.8661,12.2159],[98.8663,12.2193],[98.865,12.2216],[98.8535,12.2252],[98.8497,12.245],[98.8411,12.2508],[98.8364,12.2568],[98.8349,12.2679],[98.835,12.2835],[98.8308,12.2863],[98.8238,12.2873],[98.8193,12.2901],[98.8073,12.3024],[98.8063,12.3065],[98.7895,12.3055],[98.7755,12.3063],[98.7717,12.3086],[98.7694,12.3125],[98.7679,12.3268],[98.7649,12.3321],[98.7602,12.3338],[98.7455,12.3309],[98.7415,12.3327],[98.7357,12.3385],[98.7315,12.3374],[98.7214,12.331],[98.705,12.3353]],[[98.7704,12.1406],[98.7735,12.1421],[98.7784,12.1534],[98.7822,12.1564],[98.7885,12.1577],[98.7909,12.1609],[98.7777,12.1753],[98.7699,12.1763],[98.7667,12.179],[98.7656,12.1839],[98.7619,12.1887],[98.7588,12.1901],[98.7529,12.1876],[98.7447,12.1739],[98.7518,12.1575],[98.7597,12.1473],[98.7627,12.1406],[98.765,12.1392],[98.7704,12.1406]],[[98.7739,12.1828],[98.7734,12.1965],[98.7664,12.2023],[98.7624,12.1938],[98.7686,12.1905],[98.7693,12.182],[98.7714,12.1808],[98.7739,12.1828]],[[98.7271,12.339],[98.7172,12.3458],[98.7039,12.3456],[98.7042,12.3427],[98.7055,12.3396],[98.7104,12.3375],[98.7228,12.3363],[98.7271,12.339]],[[98.6392,12.3706],[98.6403,12.3731],[98.639,12.3742],[98.627,12.3675],[98.6322,12.3657],[98.6392,12.3706]],[[98.6293,12.3723],[98.6405,12.3787],[98.6337,12.3855],[98.6232,12.386],[98.619,12.3888],[98.6122,12.3895],[98.6099,12.3877],[98.608,12.3831],[98.6089,12.3759],[98.6168,12.3667],[98.6236,12.3657],[98.6293,12.3723]],[[98.6541,12.3821],[98.6541,12.3846],[98.6488,12.393],[98.6493,12.3994],[98.6463,12.4024],[98.6451,12.4084],[98.6496,12.4139],[98.648,12.4192],[98.6513,12.4268],[98.6511,12.4306],[98.6422,12.4314],[98.6366,12.4296],[98.6264,12.4193],[98.6173,12.4058],[98.6158,12.4017],[98.6177,12.3971],[98.6223,12.3938],[98.6324,12.3928],[98.6382,12.3905],[98.6487,12.3808],[98.6524,12.3807],[98.6541,12.3821]],[[98.6976,12.2034],[98.7014,12.2069],[98.7005,12.2094],[98.6855,12.2079],[98.6836,12.2063],[98.6841,12.2042],[98.689,12.2028],[98.6976,12.2034]],[[98.6641,12.1841],[98.6683,12.1889],[98.6784,12.1902],[98.6824,12.1929],[98.6852,12.198],[98.6841,12.2003],[98.6803,12.201],[98.6672,12.1939],[98.6594,12.1878],[98.6582,12.1853],[98.6606,12.1834],[98.6641,12.1841]]]}},{"type":"Feature","properties":{"name":"Tanintharyi River"},"geometry":{"type":"Polygon","coordinates":[[[99.1398,12.2824],[99.1346,12.2769],[99.1303,12.2774],[99.1131,12.287],[99.1124,12.2828],[99.1137,12.2747],[99.1123,12.2702],[99.102,12.2752],[99.0926,12.2847],[99.0866,12.2885],[99.0764,12.289],[99.0578,12.2872],[99.0574,12.2846],[99.0623,12.2818],[99.0643,12.268],[99.0487,12.2476],[99.048,12.2414],[99.0512,12.232],[99.0461,12.2352],[99.0433,12.2477],[99.0453,12.2525],[99.0542,12.2609],[99.0597,12.2731],[99.0588,12.2763],[99.0553,12.2803],[99.0518,12.2817],[99.0452,12.2811],[99.0436,12.2838],[99.0441,12.2861],[99.049,12.2891],[99.0565,12.2895],[99.0619,12.2917],[99.0758,12.292],[99.0812,12.2945],[99.0877,12.2942],[99.1043,12.2779],[99.1077,12.2776],[99.1083,12.2918],[99.1136,12.2929],[99.1185,12.2911],[99.1295,12.2824],[99.1334,12.2822],[99.136,12.2847],[99.1377,12.2925],[99.1346,12.3084],[99.1276,12.3147],[99.123,12.3225],[99.1179,12.3645],[99.1149,12.3724],[99.1033,12.3833],[99.0997,12.3909],[99.1011,12.3959],[99.107,12.3975],[99.1075,12.4],[99.0995,12.4015],[99.0956,12.4057],[99.0949,12.41],[99.0971,12.4199],[99.096,12.4243],[99.0908,12.4315],[99.0918,12.4342],[99.1002,12.4277],[99.1027,12.4235],[99.1015,12.4093],[99.1028,12.4058],[99.1061,12.4037],[99.1147,12.4027],[99.1159,12.4007],[99.1147,12.3974],[99.1114,12.3947],[99.1041,12.3918],[99.1066,12.386],[99.1153,12.3795],[99.1199,12.3737],[99.1231,12.3667],[99.1253,12.3534],[99.1247,12.3359],[99.1265,12.3255],[99.1293,12.3195],[99.1379,12.3123],[99.1415,12.2943],[99.1398,12.2824]]]}},{"type":"Feature","properties":{},"geometry":{"type":"Polygon","coordinates":[[[98.6558,12.1669],[98.6695,12.1606],[98.6908,12.1625],[98.6901,12.1572],[98.6945,12.1535],[98.7008,12.1518],[98.7034,12.1468],[98.6998,12.1396],[98.7046,12.1141],[98.7085,12.1101],[98.716,12.1094],[98.7221,12.1105],[98.7233,12.1192],[98.7227,12.1305],[98.7255,12.1314],[98.7269,12.1293],[98.7282,12.1185],[98.7277,12.1098],[98.7337,12.1051],[98.7325,12.1028],[98.7304,12.1021],[98.7204,12.1064],[98.715,12.1059],[98.7061,12.1016],[98.6991,12.1008],[98.6924,12.1079],[98.687,12.1098],[98.6858,12.1146],[98.6863,12.1176],[98.6898,12.1185],[98.6971,12.1143],[98.6987,12.1196],[98.695,12.1243],[98.6972,12.1298],[98.6908,12.1501],[98.6873,12.1522],[98.6459,12.1568],[98.6453,12.1662],[98.6558,12.1669]]]}},{"type":"Feature","properties":{},"geometry":{"type":"Polygon","coordinates":[[[98.7396,12.0703],[98.7411,12.0595],[98.7444,12.0537],[98.7522,12.0445],[98.759,12.0398],[98.7692,12.0225],[98.7736,12.019],[98.7789,12.0183],[98.7818,12.0203],[98.7832,12.0245],[98.7818,12.0309],[98.7833,12.0376],[98.7856,12.0362],[98.7874,12.0256],[98.7895,12.0219],[98.8082,12.0204],[98.8086,12.0188],[98.8063,12.0169],[98.7897,12.0168],[98.7817,12.0143],[98.7738,12.0148],[98.7661,12.0184],[98.7601,12.0232],[98.7527,12.0366],[98.7492,12.0376],[98.7507,12.0233],[98.7493,12.018],[98.7441,12.0192],[98.7451,12.024],[98.7431,12.0316],[98.7454,12.0385],[98.7401,12.04],[98.7399,12.0468],[98.7346,12.0681],[98.7311,12.0685],[98.7215,12.0638],[98.7112,12.0627],[98.7068,12.06],[98.6976,12.0478],[98.684,12.0348],[98.6698,12.0464],[98.6609,12.0502],[98.6601,12.0555],[98.6736,12.0536],[98.6799,12.0548],[98.6895,12.0605],[98.6886,12.0651],[98.6895,12.0661],[98.6961,12.0646],[98.7005,12.0653],[98.7049,12.0687],[98.7064,12.0726],[98.7105,12.0701],[98.7176,12.0693],[98.7272,12.0734],[98.7363,12.0733],[98.7396,12.0703]]]}},{"type":"Feature","properties":{},"geometry":{"type":"Polygon","coordinates":[[[98.7424,11.9969],[98.7656,11.9779],[98.7504,11.983],[98.7493,11.9796],[98.752,11.9697],[98.7629,11.9572],[98.7687,11.9548],[98.7729,11.9509],[98.7797,11.9499],[98.7829,11.9502],[98.7806,11.9439],[98.7724,11.9456],[98.7642,11.9498],[98.741,11.9686],[98.7401,11.9713],[98.7429,11.9762],[98.7437,11.9824],[98.7349,11.9926],[98.7295,11.9942],[98.7258,11.9979],[98.7274,12.0043],[98.7424,11.9969]]]}},{"type":"Feature","properties":{},"geometry":{"type":"Polygon","coordinates":[[[99.1014,11.9505],[99.1004,11.9485],[99.095,11.9501],[99.0913,11.946],[99.0883,11.9472],[99.09,11.9561],[99.0872,11.9587],[99.0888,11.9607],[99.0933,11.96],[99.1005,11.9542],[99.1014,11.9505]]]}},{"type":"Feature","properties":{},"geometry":{"type":"Polygon","coordinates":[[[98.6943,11.8888],[98.7072,11.8754],[98.7124,11.8735],[98.7208,11.8764],[98.7332,11.8867],[98.7513,11.8902],[98.7585,11.8904],[98.7631,11.8837],[98.7605,11.8796],[98.7533,11.8847],[98.7393,11.8837],[98.7275,11.8717],[98.7163,11.867],[98.7028,11.8689],[98.683,11.8824],[98.6783,11.882],[98.6725,11.8781],[98.6625,11.862],[98.6496,11.8509],[98.6462,11.8638],[98.6472,11.8649],[98.654,11.869],[98.6615,11.8835],[98.67,11.8899],[98.6767,11.8921],[98.6861,11.8923],[98.6903,11.8895],[98.6943,11.8888]]]}},{"type":"Feature","properties":{},"geometry":{"type":"Polygon","coordinates":[[[98.8083,11.792],[98.7993,11.781],[98.7852,11.7673],[98.78,11.7598],[98.7771,11.7516],[98.7783,11.7431],[98.7762,11.7492],[98.7628,11.77],[98.7671,11.7757],[98.7692,11.7879],[98.7751,11.7939],[98.7756,11.801],[98.7833,11.7982],[98.7885,11.7977],[98.7844,11.7917],[98.7835,11.789],[98.792,11.7907],[98.7997,11.7944],[98.8032,11.7982],[98.8131,11.8148],[98.814,11.8189],[98.8098,11.8248],[98.8144,11.832],[98.8084,11.8491],[98.8105,11.8509],[98.8159,11.8472],[98.8207,11.8396],[98.823,11.8274],[98.8184,11.8104],[98.8083,11.792]]]}},{"type":"Feature","properties":{},"geometry":{"type":"Polygon","coordinates":[[[98.6717,11.8289],[98.6658,11.8178],[98.6597,11.8165],[98.6567,11.8177],[98.6502,11.8262],[98.6434,11.8318],[98.6473,11.8389],[98.6549,11.8345],[98.6567,11.8262],[98.6583,11.8243],[98.6616,11.8241],[98.6724,11.8367],[98.6932,11.8386],[98.7035,11.8436],[98.7049,11.8408],[98.7009,11.8353],[98.6906,11.8317],[98.6754,11.8316],[98.6717,11.8289]]]}},{"type":"Feature","properties":{"name":"Lenya River"},"geometry":{"type":"Polygon","coordinates":[[[98.9959,11.5922],[98.9838,11.5925],[98.971,11.595],[98.9649,11.5978],[98.9577,11.5985],[98.9398,11.6042],[98.9237,11.6059],[98.9203,11.5979],[98.9233,11.5833],[98.9223,11.5755],[98.9241,11.5661],[98.9196,11.565],[98.9138,11.5555],[98.9119,11.5611],[98.9134,11.5673],[98.9173,11.5689],[98.919,11.5712],[98.9165,11.5808],[98.9168,11.5857],[98.9149,11.5882],[98.9096,11.5901],[98.9075,11.5947],[98.9078,11.5993],[98.9119,11.5952],[98.9157,11.596],[98.9198,11.6138],[98.9238,11.6238],[98.9204,11.6322],[98.917,11.6531],[98.9133,11.6621],[98.8964,11.6738],[98.8913,11.6793],[98.8821,11.6971],[98.8779,11.7013],[98.8721,11.7011],[98.8698,11.7043],[98.8488,11.7045],[98.842,11.7119],[98.8369,11.7145],[98.8285,11.7129],[98.8226,11.7075],[98.8192,11.7192],[98.8186,11.7339],[98.8408,11.7329],[98.8445,11.7298],[98.8461,11.7303],[98.8612,11.7134],[98.8719,11.7124],[98.8768,11.7105],[98.884,11.7031],[98.8899,11.7157],[98.89,11.7203],[98.8946,11.7203],[98.9091,11.6822],[98.919,11.6708],[98.9255,11.631],[98.9326,11.621],[98.9352,11.6127],[98.9373,11.6106],[98.9468,11.608],[98.9579,11.6029],[98.9659,11.6037],[98.9731,11.5998],[98.9959,11.5922]],[[98.9051,11.6795],[98.8942,11.6975],[98.891,11.7001],[98.8902,11.6941],[98.8941,11.6811],[98.8987,11.6765],[98.9048,11.6758],[98.9051,11.6795]]]}},{"type":"Feature","properties":{"name":"Lenya River"},"geometry":{"type":"Polygon","coordinates":[[[98.9959,11.5922],[99.0114,11.5792],[99.0271,11.5747],[99.0358,11.5673],[99.0277,11.5664],[99.0244,11.5644],[99.0237,11.5605],[99.0294,11.5549],[99.0313,11.5439],[99.0303,11.5409],[99.0249,11.5386],[99.0228,11.5342],[99.0258,11.5259],[99.0231,11.5195],[99.0201,11.5166],[98.9976,11.5002],[98.9953,11.4945],[98.9975,11.4877],[98.9963,11.4761],[99.0019,11.4658],[99.002,11.4611],[98.9951,11.4499],[98.9936,11.4544],[98.9972,11.4644],[98.9966,11.4679],[98.9928,11.4732],[98.9921,11.4802],[98.9933,11.4867],[98.9912,11.4914],[98.9909,11.4989],[98.992,11.5017],[99.0006,11.5085],[99.0177,11.5199],[99.0206,11.5248],[99.0179,11.5336],[99.0195,11.5387],[99.0247,11.543],[99.0257,11.5457],[99.0202,11.5624],[99.0232,11.5685],[99.0212,11.5722],[99.017,11.5725],[99.0088,11.576],[98.9996,11.5842],[98.9959,11.5922]]]}},{"type":"Feature","properties":{},"geometry":{"type":"Polygon","coordinates":[[[98.8034,11.4162],[98.8039,11.4121],[98.7929,11.4178],[98.7773,11.4219],[98.7748,11.4246],[98.7716,11.4313],[98.7707,11.4396],[98.7713,11.4477],[98.7757,11.4564],[98.7792,11.4541],[98.7836,11.4476],[98.7847,11.4418],[98.7816,11.4313],[98.7837,11.4273],[98.7934,11.4245],[98.8034,11.4162]]]}},{"type":"Feature","properties":{},"geometry":{"type":"MultiPolygon","coordinates":[[[[98.7432,10.3602],[98.7467,10.3679],[98.7467,10.3602],[98.7432,10.3602]]],[[[98.7304,10.3185],[98.7311,10.3197],[98.7384,10.3494],[98.7384,10.3185],[98.7304,10.3185]]],[[[98.7222,10.3018],[98.7242,10.308],[98.73,10.3179],[98.73,10.3018],[98.7222,10.3018]]],[[[98.6967,10.2259],[98.6967,10.2102],[98.6884,10.2102],[98.6884,10.1935],[98.68,10.1935],[98.68,10.1852],[98.6717,10.1852],[98.6717,10.1797],[98.6587,10.1803],[98.664,10.1839],[98.6696,10.1896],[98.6722,10.1951],[98.6813,10.2024],[98.6841,10.2072],[98.6874,10.2098],[98.6907,10.2151],[98.6917,10.2201],[98.6811,10.2275],[98.6744,10.2293],[98.6688,10.2341],[98.6669,10.2392],[98.6675,10.2433],[98.6721,10.2509],[98.6757,10.2613],[98.6752,10.2659],[98.653,10.3147],[98.6567,10.3149],[98.6597,10.3114],[98.6619,10.3027],[98.6668,10.2922],[98.6744,10.2829],[98.6777,10.2742],[98.6816,10.2724],[98.6841,10.2676],[98.6839,10.2641],[98.6726,10.2446],[98.6744,10.2344],[98.679,10.2311],[98.6908,10.2302],[98.6954,10.2247],[98.6967,10.2259]]],[[[98.7061,10.2519],[98.71,10.2609],[98.7082,10.2699],[98.7039,10.2759],[98.7143,10.2802],[98.7157,10.2825],[98.7217,10.3004],[98.7217,10.2769],[98.7134,10.2769],[98.7134,10.2519],[98.7061,10.2519]]],[[[98.6997,10.2352],[98.7004,10.2384],[98.705,10.2493],[98.705,10.2352],[98.6997,10.2352]]]]}}]}