{"type":"FeatureCollection","features":[{"type":"Feature","properties":{"nmEng":"Dawei Special Economic Zone","nmMya":"ထားဝယ်အထူးစီးပွားရေးဇုန်","zoneType":"SEZ"},"geometry":{"type":"MultiPolygon","coordinates":[[[[98.0024,14.2884],[98.0033,14.29],[98.01,14.2866],[98.0099,14.2858],[98.0119,14.2836],[98.0142,14.2845],[98.0185,14.2822],[98.0198,14.2835],[98.0209,14.2819],[98.0224,14.2842],[98.0221,14.2848],[98.0228,14.2863],[98.0245,14.2934],[98.0249,14.2962],[98.0237,14.2964],[98.023,14.2977],[98.0174,14.3007],[98.017,14.3021],[98.016,14.3033],[98.013,14.3046],[98.0119,14.3067],[98.0127,14.3091],[98.0202,14.3093],[98.0213,14.3102],[98.0208,14.3127],[98.0195,14.3154],[98.0199,14.316],[98.0219,14.3147],[98.0227,14.313],[98.0249,14.3129],[98.0277,14.31],[98.0278,14.309],[98.0296,14.3086],[98.0311,14.3088],[98.0328,14.3076],[98.0333,14.3087],[98.0344,14.3094],[98.0356,14.3127],[98.0364,14.3129],[98.0371,14.3127],[98.0386,14.3108],[98.0394,14.3088],[98.044,14.3035],[98.0451,14.3034],[98.0472,14.304],[98.0497,14.3063],[98.0511,14.3065],[98.0541,14.3058],[98.0551,14.306],[98.0568,14.3068],[98.0571,14.3073],[98.0559,14.313],[98.0531,14.3153],[98.0512,14.3156],[98.0473,14.3169],[98.0415,14.3183],[98.0539,14.3264],[98.0562,14.3284],[98.0642,14.3296],[98.0667,14.3235],[98.0717,14.3164],[98.0897,14.3282],[98.0889,14.3342],[98.0843,14.3441],[98.0846,14.3474],[98.0853,14.3489],[98.0849,14.3498],[98.0824,14.3504],[98.0816,14.3502],[98.0813,14.3495],[98.0811,14.3476],[98.0799,14.3468],[98.0744,14.3467],[98.0744,14.3519],[98.0753,14.3569],[98.0739,14.3657],[98.0728,14.3685],[98.0712,14.3694],[98.071,14.3726],[98.0676,14.378],[98.0678,14.3814],[98.0706,14.3811],[98.0718,14.3815],[98.0727,14.3803],[98.0754,14.3803],[98.076,14.3799],[98.0758,14.3773],[98.0803,14.3754],[98.0844,14.3794],[98.0856,14.3795],[98.0851,14.3837],[98.0852,14.3872],[98.085,14.3894],[98.0804,14.39],[98.0798,14.3919],[98.0787,14.3927],[98.0774,14.3943],[98.077,14.3951],[98.0761,14.3957],[98.0699,14.3972],[98.0658,14.4016],[98.0658,14.407],[98.0638,14.4092],[98.0627,14.414],[98.0638,14.4173],[98.0687,14.4197],[98.0954,14.4198],[98.0975,14.4151],[98.0976,14.4092],[98.097,14.4082],[98.0988,14.4067],[98.0988,14.4046],[98.099,14.4036],[98.0998,14.4029],[98.1005,14.4026],[98.1015,14.4003],[98.1019,14.3948],[98.1024,14.3941],[98.1041,14.393],[98.1057,14.393],[98.1083,14.3921],[98.1091,14.3891],[98.11,14.387],[98.11,14.3808],[98.1114,14.3761],[98.1117,14.3734],[98.1116,14.3728],[98.1111,14.3725],[98.1111,14.3721],[98.1117,14.3713],[98.1117,14.3708],[98.1111,14.3696],[98.1096,14.3694],[98.1079,14.371],[98.1076,14.3716],[98.1066,14.3698],[98.1066,14.3689],[98.1071,14.3683],[98.1085,14.3682],[98.1089,14.3674],[98.1079,14.3667],[98.1067,14.3667],[98.1035,14.3674],[98.1023,14.3673],[98.1022,14.3667],[98.1037,14.3649],[98.1031,14.3629],[98.1026,14.3617],[98.1026,14.3613],[98.1032,14.3604],[98.1032,14.3598],[98.1025,14.3587],[98.1026,14.3579],[98.1033,14.3573],[98.1033,14.3566],[98.1027,14.3549],[98.1031,14.3543],[98.1041,14.3543],[98.1046,14.3571],[98.1068,14.3607],[98.1074,14.3611],[98.1076,14.3619],[98.1087,14.3622],[98.1094,14.3623],[98.11,14.3627],[98.1103,14.3623],[98.1101,14.3604],[98.1087,14.3598],[98.1083,14.3593],[98.1074,14.3591],[98.107,14.3585],[98.1075,14.3564],[98.1079,14.356],[98.1108,14.3551],[98.1139,14.355],[98.1144,14.3569],[98.119,14.3589],[98.1232,14.3582],[98.127,14.3589],[98.1273,14.3624],[98.1302,14.3633],[98.1385,14.3651],[98.1405,14.3661],[98.1401,14.3675],[98.1411,14.3684],[98.1418,14.3685],[98.1428,14.3681],[98.1439,14.3677],[98.1442,14.3672],[98.1442,14.3576],[98.1411,14.3564],[98.1401,14.3539],[98.1395,14.3535],[98.1388,14.3512],[98.1376,14.3495],[98.1375,14.345],[98.1381,14.3439],[98.1396,14.3438],[98.1423,14.3447],[98.1443,14.3447],[98.1453,14.344],[98.1455,14.3422],[98.1461,14.3416],[98.148,14.3413],[98.1482,14.3408],[98.1483,14.3372],[98.1501,14.337],[98.1515,14.341],[98.1525,14.342],[98.1537,14.343],[98.1538,14.3439],[98.1543,14.3441],[98.1556,14.3443],[98.1561,14.3442],[98.1567,14.3432],[98.1575,14.3426],[98.1576,14.3421],[98.1579,14.3396],[98.1593,14.3383],[98.1605,14.3365],[98.1619,14.3362],[98.1627,14.3352],[98.1651,14.3323],[98.1666,14.3312],[98.1687,14.331],[98.1718,14.331],[98.1739,14.3316],[98.1761,14.3336],[98.1781,14.3262],[98.1781,14.324],[98.1776,14.3237],[98.1769,14.3237],[98.1761,14.3231],[98.1751,14.3214],[98.1735,14.3214],[98.1726,14.3209],[98.1712,14.319],[98.1706,14.3157],[98.1677,14.3144],[98.1664,14.3156],[98.1663,14.3174],[98.1656,14.3181],[98.1647,14.3184],[98.1637,14.3181],[98.1626,14.3184],[98.1596,14.3208],[98.1581,14.3228],[98.1568,14.3224],[98.1564,14.3226],[98.1546,14.3238],[98.1519,14.3186],[98.1494,14.3191],[98.1465,14.319],[98.1458,14.3187],[98.1441,14.3173],[98.1458,14.315],[98.1463,14.3136],[98.1462,14.3113],[98.1466,14.3105],[98.1492,14.3077],[98.1501,14.3079],[98.1516,14.31],[98.1567,14.3094],[98.1592,14.3072],[98.1606,14.3067],[98.1613,14.3059],[98.1619,14.3043],[98.1652,14.3029],[98.1663,14.3029],[98.1666,14.3024],[98.1669,14.2991],[98.1669,14.2967],[98.1683,14.2942],[98.1708,14.2921],[98.1739,14.2917],[98.1746,14.2913],[98.1764,14.2896],[98.1779,14.2895],[98.179,14.29],[98.1788,14.2929],[98.1788,14.2949],[98.1785,14.2957],[98.1765,14.2982],[98.1764,14.2998],[98.1757,14.3016],[98.1759,14.302],[98.1789,14.3019],[98.1812,14.3019],[98.1817,14.3017],[98.1817,14.301],[98.1815,14.2993],[98.1814,14.2955],[98.1823,14.2938],[98.1828,14.2933],[98.1847,14.2926],[98.1848,14.2921],[98.1857,14.2897],[98.186,14.2857],[98.1891,14.2817],[98.1798,14.2753],[98.1807,14.274],[98.1726,14.2739],[98.166,14.2741],[98.1658,14.2749],[98.1622,14.2732],[98.162,14.2719],[98.1604,14.2724],[98.1591,14.2736],[98.1612,14.2746],[98.1606,14.2761],[98.1598,14.2813],[98.1594,14.2819],[98.1535,14.2861],[98.1493,14.2871],[98.1486,14.2844],[98.1484,14.2801],[98.1481,14.2792],[98.147,14.2786],[98.1469,14.2782],[98.1472,14.2772],[98.1454,14.2767],[98.1445,14.276],[98.1429,14.2745],[98.1419,14.2738],[98.1418,14.2723],[98.1438,14.2707],[98.1442,14.2619],[98.142,14.2565],[98.1426,14.2547],[98.1407,14.254],[98.1395,14.254],[98.1376,14.2542],[98.1356,14.254],[98.1348,14.2542],[98.1277,14.2564],[98.124,14.257],[98.1217,14.2571],[98.12,14.2573],[98.1174,14.2582],[98.1151,14.2604],[98.1137,14.2607],[98.1121,14.2604],[98.1093,14.2584],[98.1078,14.2584],[98.1074,14.2566],[98.1058,14.256],[98.1053,14.2558],[98.1042,14.2535],[98.0992,14.2493],[98.0975,14.2386],[98.0987,14.2377],[98.099,14.2371],[98.0992,14.2339],[98.101,14.2333],[98.1049,14.2332],[98.1055,14.2329],[98.1086,14.2257],[98.1094,14.2204],[98.1034,14.2176],[98.1022,14.2169],[98.1007,14.217],[98.099,14.2163],[98.0984,14.2219],[98.094,14.222],[98.0939,14.225],[98.0914,14.2238],[98.0886,14.2214],[98.0886,14.2104],[98.0959,14.2021],[98.0788,14.2034],[98.0635,14.2031],[98.0467,14.2292],[98.0346,14.2485],[98.0229,14.2643],[98.0101,14.2796],[98.0024,14.2884]]]]}},{"type":"Feature","properties":{"nmEng":"Mae Tha Mee Khee Industrial Estate","nmMya":"မယ်သမီးခီးစက်မှုလုပ်ငန်းနယ်မြေ","zoneType":"Industrial Zone"},"geometry":{"type":"MultiPolygon","coordinates":[[[[99.014,13.9021],[99.013,13.9048],[99.0085,13.9079],[99.0058,13.9157],[99.0027,13.9203],[99.0035,13.9228],[99.0049,13.9244],[99.0032,13.9278],[99.0061,13.9306],[99.0088,13.9306],[99.0132,13.9329],[99.0234,13.9346],[99.0257,13.9358],[99.029,13.936],[99.0333,13.9382],[99.0503,13.9313],[99.0509,13.9297],[99.052,13.9278],[99.0612,13.9185],[99.0624,13.9169],[99.0612,13.9146],[99.0604,13.9128],[99.0585,13.9113],[99.0554,13.9031],[99.0548,13.9016],[99.0557,13.9015],[99.0558,13.9014],[99.0615,13.9003],[99.0618,13.8991],[99.0708,13.8974],[99.0714,13.8947],[99.0694,13.8931],[99.0703,13.8922],[99.0712,13.8922],[99.0747,13.8897],[99.0777,13.8901],[99.0803,13.8905],[99.0804,13.8905],[99.0833,13.8893],[99.0784,13.883],[99.0797,13.881],[99.0799,13.8806],[99.0792,13.8784],[99.0766,13.8779],[99.0759,13.8778],[99.0754,13.8777],[99.0749,13.8779],[99.071,13.8799],[99.0703,13.8811],[99.0691,13.8832],[99.0691,13.8833],[99.069,13.8833],[99.064,13.883],[99.064,13.8835],[99.0641,13.8841],[99.0607,13.8842],[99.0488,13.8845],[99.0475,13.8843],[99.0393,13.8874],[99.0391,13.886],[99.0369,13.8884],[99.0365,13.8887],[99.0338,13.8883],[99.0231,13.8927],[99.014,13.9021]]]]}}]}