{"type":"FeatureCollection","features":[{"type":"Feature","properties":{"name":"Thailand"},"geometry":{"type":"Polygon","coordinates":[[[98.5926,10.05],[98.6029,10.0626],[98.6028,10.0699],[98.6147,10.093],[98.6123,10.1048],[98.6193,10.1206],[98.6387,10.1387],[98.6444,10.1501],[98.6484,10.1775],[98.6647,10.1859],[98.6739,10.1984],[98.6954,10.2175],[98.6956,10.2302],[98.7009,10.235],[98.7016,10.2427],[98.7169,10.2776],[98.72,10.2939],[98.7337,10.3226],[98.7361,10.3393],[98.7529,10.3899],[98.7687,10.4039],[98.7756,10.4267],[98.7851,10.4436],[98.8002,10.4468],[98.7992,10.4577],[98.8095,10.4698],[98.8013,10.4841],[98.8067,10.4817],[98.8058,10.4878],[98.8127,10.4901],[98.8192,10.5011],[98.8187,10.526],[98.8221,10.5298],[98.8148,10.5306],[98.8166,10.5389],[98.8114,10.5392],[98.8188,10.5469],[98.8135,10.5536],[98.7996,10.5592],[98.8078,10.5692],[98.8086,10.5851],[98.8122,10.592],[98.8088,10.5922],[98.8035,10.586],[98.8027,10.5928],[98.7979,10.595],[98.8023,10.6036],[98.7877,10.6059],[98.7836,10.6011],[98.7811,10.6028],[98.7811,10.6144],[98.7745,10.6154],[98.7724,10.6209],[98.7792,10.6418],[98.7854,10.6479],[98.7812,10.6772],[98.7833,10.6813],[98.7848,10.6828],[98.7862,10.6793],[98.7912,10.6815],[98.7947,10.6915],[98.804,10.6996],[98.8036,10.7054],[98.8121,10.71],[98.8108,10.7139],[98.8185,10.718],[98.8251,10.7306],[98.8309,10.7337],[98.8618,10.7771],[98.8686,10.7757],[98.8782,10.7868],[98.8852,10.7838],[98.8979,10.7934],[98.9201,10.8128],[98.925,10.8246],[98.9379,10.8154],[98.9641,10.817],[98.9661,10.8243],[98.976,10.8314],[98.983,10.8317],[98.9928,10.8435],[99.008,10.8513],[99.0122,10.8578],[99.0093,10.8776],[99.003,10.8792],[99.0009,10.8839],[99.0045,10.9047],[98.9995,10.924],[99.0033,10.9348],[99.0141,10.9476],[99.0209,10.9674],[99.029,10.9696],[99.0501,10.9623],[99.0524,10.9507],[99.0692,10.9383],[99.0699,10.9516],[99.0828,10.9531],[99.085,10.9612],[99.0989,10.9805],[99.1025,11.0105],[99.1305,11.0301],[99.1547,11.0324],[99.1713,11.0438],[99.1732,11.0585],[99.1799,11.0603],[99.1775,11.0803],[99.1823,11.0837],[99.1907,11.0835],[99.1993,11.0892],[99.2028,11.0986],[99.212,11.099],[99.2295,11.1144],[99.2306,11.1288],[99.2254,11.1413],[99.2446,11.155],[99.2537,11.1664],[99.2694,11.2246],[99.2847,11.2445],[99.2947,11.2468],[99.3032,11.2537],[99.3153,11.273],[99.3248,11.2818],[99.3211,11.2903],[99.3087,11.3016],[99.315,11.3109],[99.3123,11.3164],[99.325,11.3258],[99.3278,11.3348],[99.3356,11.3338],[99.3405,11.3385],[99.3428,11.3483],[99.364,11.3684],[99.3781,11.3724],[99.3867,11.3817],[99.3971,11.3832],[99.4026,11.3888],[99.4002,11.4012],[99.4041,11.4065],[99.4031,11.423],[99.3977,11.4351],[99.4009,11.4438],[99.3977,11.4638],[99.4018,11.4657],[99.4036,11.4716],[99.4253,11.4788],[99.431,11.478],[99.435,11.4899],[99.4468,11.4931],[99.4498,11.5002],[99.4479,11.5032],[99.4743,11.5319],[99.4749,11.5375],[99.4691,11.5486],[99.4639,11.55],[99.4679,11.5696],[99.4583,11.5813],[99.4641,11.5896],[99.4624,11.5947],[99.4684,11.6063],[99.4683,11.6134],[99.4751,11.6237],[99.497,11.6256],[99.4973,11.6347],[99.5162,11.6354],[99.5177,11.6301],[99.5329,11.6191],[99.5489,11.6263],[99.5607,11.6233],[99.5652,11.6258],[99.5718,11.6398],[99.5705,11.6449],[99.5834,11.6526],[99.5868,11.6596],[99.5829,11.6764],[99.5908,11.6909],[99.5983,11.6945],[99.5934,11.7008],[99.6102,11.7099],[99.6181,11.7179],[99.6186,11.7232],[99.6229,11.7201],[99.6318,11.7207],[99.6393,11.7327],[99.6369,11.7394],[99.6399,11.742],[99.641,11.7627],[99.645,11.7729],[99.6404,11.7896],[99.6464,11.7896],[99.6521,11.8113],[99.6585,11.8106],[99.6653,11.8225],[99.6566,11.829],[99.6497,11.8249],[99.6507,11.8198],[99.6483,11.8184],[99.6279,11.82],[99.627,11.8304],[99.6237,11.8332],[99.6271,11.8486],[99.6152,11.8583],[99.6105,11.8682],[99.6003,11.8752],[99.5835,11.8695],[99.5748,11.86],[99.5714,11.8658],[99.5716,11.8706],[99.5846,11.8826],[99.5802,11.9034],[99.5874,11.9165],[99.58,11.9415],[99.5934,11.95],[99.5916,11.9618],[99.5944,11.9746],[99.5911,11.9824],[99.5937,11.9887],[99.5901,11.9951],[99.5831,11.998],[99.5786,12.0058],[99.5716,12.0104],[99.5578,12.0103],[99.5371,12.0162],[99.5429,12.0333],[99.5416,12.0386],[99.536,12.0423],[99.5332,12.0524],[99.5367,12.0674],[99.5463,12.0756],[99.5568,12.0936],[99.5557,12.1127],[99.5601,12.1194],[99.5642,12.1377],[99.5637,12.1509],[99.5509,12.1503],[99.5473,12.1555],[99.5381,12.1583],[99.5331,12.1522],[99.5338,12.1484],[99.5248,12.1436],[99.5228,12.1473],[99.5172,12.1474],[99.484,12.1316],[99.4741,12.1306],[99.474,12.1415],[99.4796,12.1446],[99.4827,12.1579],[99.4786,12.1618],[99.4886,12.1691],[99.4903,12.1833],[99.4975,12.1843],[99.4998,12.1916],[99.4869,12.219],[99.4727,12.2343],[99.4723,12.2392],[99.4825,12.251],[99.4828,12.2695],[99.4861,12.2725],[99.4843,12.2769],[99.4746,12.2825],[99.4659,12.2832],[99.463,12.2964],[99.4586,12.2984],[99.4542,12.3108],[99.4474,12.3125],[99.446,12.3159],[99.4473,12.3201],[99.4442,12.3264],[99.4472,12.3303],[99.4357,12.3402],[99.4452,12.3553],[99.4333,12.3652],[99.4377,12.3685],[99.4435,12.3823],[99.4434,12.3968],[99.4469,12.4041],[99.4284,12.4237],[99.4253,12.4312],[99.4258,12.4476],[99.4144,12.4482],[99.4112,12.4539],[99.399,12.4581],[99.4028,12.4615],[99.4058,12.4787],[99.4268,12.4929],[99.4204,12.5034],[99.4218,12.5143],[99.419,12.5257],[99.4233,12.5275],[99.4252,12.5404],[99.4223,12.5512],[99.4246,12.5555],[99.4304,12.5553],[99.4354,12.5646],[99.4283,12.578],[99.4356,12.5872],[99.4238,12.5964],[99.4225,12.6087],[99.4143,12.618],[99.4065,12.6137],[99.3935,12.6187],[99.3886,12.6156],[99.3802,12.6159],[99.3783,12.621],[99.3672,12.625],[99.3667,12.6356],[99.3573,12.6369],[99.3543,12.6411],[99.3449,12.6444],[99.3461,12.6478],[99.3328,12.6676],[99.3104,12.6667],[99.2953,12.6784],[99.3018,12.6939],[99.2921,12.697],[99.2908,12.7154],[99.2802,12.7171],[99.2708,12.7255],[99.2468,12.7194],[99.2395,12.7249],[99.2345,12.7392],[99.2304,12.7425],[99.2347,12.7501],[99.235,12.7616],[99.2345,12.782],[99.2281,12.7909],[99.2311,12.8125],[99.224,12.8141],[99.2179,12.8284],[99.2116,12.8257],[99.1989,12.8435],[99.1898,12.8436],[99.1864,12.8492],[99.1852,12.8604],[99.189,12.8681],[99.1893,12.8806],[99.1814,12.8852],[99.1844,12.8946],[99.182,12.9137],[99.1623,12.9274],[99.171,12.932],[99.1718,12.9412],[99.1847,12.9446],[99.1942,12.9538],[99.1962,12.9583],[99.188,12.9767],[99.1956,12.9897],[99.192,12.9978],[99.176,13.0],[99.1692,13.009],[99.171,13.0145],[99.1674,13.0176],[99.1565,13.0196],[99.1549,13.0264],[99.1485,13.0268],[99.1433,13.0335],[99.1306,13.0352],[99.1208,13.0434],[99.1151,13.0572],[99.1117,13.0616],[99.1044,13.0633],[99.0998,13.0724],[99.1036,13.0828],[99.1121,13.0855],[99.1217,13.0967],[99.1289,13.0934],[99.1315,13.0958],[99.1294,13.1146],[99.1339,13.1169],[99.1372,13.1274],[99.1308,13.1389],[99.137,13.1491],[99.1363,13.1586],[99.1347,13.1629],[99.1179,13.1752],[99.1252,13.1848],[99.1237,13.1929],[99.1314,13.2016],[99.1585,13.2076],[99.171,13.2035],[99.1841,13.1921],[99.1939,13.188],[99.2002,13.191],[99.2093,13.2007],[99.2102,13.2094],[99.2027,13.2193],[99.2078,13.2221],[99.2074,13.2339],[99.1994,13.2431],[99.1962,13.259],[99.1997,13.262],[99.2111,13.2612],[99.1878,13.2911],[99.1955,13.3034],[99.1904,13.3186],[99.1993,13.327],[99.207,13.3411],[99.2047,13.3548],[99.2076,13.3617],[99.2057,13.3655],[99.1971,13.3691],[99.201,13.3785],[99.202,13.3943],[99.209,13.4101],[99.2088,13.4202],[99.2012,13.4259],[99.2052,13.4361],[99.1973,13.4492],[99.1989,13.4542],[99.2067,13.4576],[99.2077,13.4685],[99.204,13.4748],[99.2059,13.4815],[99.198,13.4822],[99.1936,13.4877],[99.1851,13.508],[99.1913,13.5165],[99.1897,13.527],[99.1929,13.5463],[99.1846,13.5497],[99.1659,13.5734],[99.179,13.5835],[99.1661,13.6132],[99.1613,13.617],[99.1667,13.6179],[99.1726,13.6284],[99.1719,13.6461],[99.1671,13.6535],[99.1718,13.667],[99.1657,13.6812],[99.1723,13.6876],[99.1723,13.6927],[99.1688,13.6935],[99.1707,13.7058],[99.1682,13.7284],[99.1601,13.7304],[99.1523,13.7443],[99.1392,13.7426],[99.1388,13.7611],[99.1194,13.7715],[99.1221,13.7745],[99.1213,13.7828],[99.118,13.7824],[99.1187,13.7954],[99.1226,13.8014],[99.1218,13.8108],[99.1173,13.815],[99.1154,13.8302],[99.1041,13.8325],[99.1005,13.8372],[99.1021,13.8545],[99.1117,13.8664],[99.1093,13.8924],[99.1043,13.8966],[99.0918,13.8902],[99.079,13.8954],[99.0613,13.927],[99.0512,13.9368],[99.045,13.9408],[99.0211,13.9454],[99.0207,13.9519],[99.0157,13.9585],[99.0096,13.994],[98.9963,14.0111],[98.9961,14.0231],[98.9719,14.0333],[98.9736,14.0393],[98.9698,14.0499],[98.9672,14.0894],[98.9549,14.1027],[98.944,14.0939],[98.9234,14.1094],[98.9065,14.1099],[98.9003,14.1068],[98.8797,14.1246],[98.8692,14.1472],[98.8426,14.1618],[98.8318,14.1789],[98.8239,14.1762],[98.8155,14.178],[98.7966,14.1936],[98.7801,14.1992],[98.7758,14.2069],[98.7702,14.2065],[98.7647,14.214],[98.7586,14.2156],[98.745,14.2271],[98.7451,14.2324],[98.7342,14.2384],[98.7313,14.2567],[98.7145,14.2765],[98.709,14.278],[98.6886,14.2718],[98.6395,14.3038],[98.6376,14.3096],[98.6294,14.3166],[98.623,14.3141],[98.6049,14.3187],[98.5979,14.3275],[98.5941,14.3419],[98.5948,14.359],[98.5989,14.3675],[98.5938,14.3779],[98.5927,14.3706],[98.5806,14.3684],[98.5762,14.3765],[98.5661,14.3843],[98.5647,14.3934],[98.5569,14.402],[98.5587,14.4129],[98.5559,14.4197],[98.5487,14.4217],[98.5491,14.4328],[98.5419,14.4405],[98.5364,14.4402],[98.5254,14.4534],[98.5193,14.4743],[98.512,14.478],[98.5112,14.4869],[98.5041,14.5006],[98.5061,14.5065],[98.4985,14.5086],[98.4924,14.5387],[98.4864,14.533],[98.4745,14.5362],[98.4634,14.5292],[98.4585,14.559],[98.4591,14.579],[98.453,14.5827],[98.4397,14.6014],[98.4358,14.6135],[98.3909,14.6486],[98.3804,14.6529],[98.3746,14.6632],[98.3671,14.6663],[98.3685,14.6696],[98.3626,14.678],[98.3619,14.6895],[98.3586,14.6932],[98.3366,14.7097],[98.3306,14.7052],[98.3274,14.7066],[98.3169,14.7232],[98.3061,14.7326],[98.2979,14.7484],[98.2904,14.7736],[98.2826,14.7756],[98.2766,14.7976],[98.2709,14.7991],[98.2602,14.8112],[98.2551,14.8129],[98.2461,14.8305],[98.258,14.8416],[98.2587,14.8592],[98.2311,14.8892],[98.2318,14.8928],[98.2361,14.8923],[98.234,14.8953],[98.2398,14.8983],[98.2515,14.9167],[98.2441,14.9251],[98.2431,14.9411],[98.2326,14.9437],[98.2294,14.9481],[98.2337,14.9672],[98.2082,14.9819],[98.213,15.0205],[98.2241,15.0273],[98.235,15.0437],[98.2214,15.0555],[98.2222,15.06],[98.217,15.0645],[98.2118,15.0765],[98.1941,15.0775],[98.1936,15.0871],[98.1854,15.0959],[98.1823,15.1105],[98.184,15.1208],[98.1931,15.1353],[98.1887,15.1422],[98.1898,15.1486],[98.1999,15.1581],[98.2025,15.1674],[98.2143,15.1811],[98.2085,15.1909],[98.2089,15.2021],[98.2005,15.2097],[98.1973,15.2323],[98.2128,15.2367],[98.2218,15.2233],[98.2289,15.2206],[98.2328,15.2236],[98.23,15.2307],[98.2363,15.2373],[98.2635,15.2386],[98.2739,15.248],[98.2753,15.2559],[98.2814,15.2629],[98.2791,15.2682],[98.2816,15.2718],[98.2958,15.2726],[98.2999,15.2793],[98.3039,15.2802],[98.2983,15.2936],[98.2938,15.2968],[98.3006,15.3034],[98.2959,15.3088],[98.3002,15.3134],[98.3041,15.3108],[98.3057,15.3133],[98.3209,15.3022],[98.3337,15.2974],[98.3438,15.2953],[98.3536,15.2981],[98.3537,15.292],[98.3605,15.2898],[98.3667,15.2829],[98.3742,15.2835],[98.3805,15.2714],[98.3892,15.2705],[98.398,15.2621],[98.4013,15.2538],[98.4107,15.2626],[98.4158,15.2615],[98.4176,15.2665],[98.4115,15.2876],[98.4141,15.2932],[98.4066,15.3047],[98.4026,15.3074],[98.3872,15.3048],[98.4015,15.3216],[98.4108,15.3198],[98.4148,15.322],[98.4148,15.3262],[98.4092,15.3317],[98.4111,15.3531],[98.4161,15.3643],[98.4309,15.3637],[98.4337,15.3581],[98.4397,15.3633],[98.4569,15.3662],[98.4807,15.3837],[98.4838,15.3903],[98.4932,15.3917],[98.506,15.3827],[98.5106,15.3744],[98.5296,15.3717],[98.5462,15.363],[98.5474,15.3378],[98.5614,15.336],[98.5808,15.3804],[98.5863,15.4701],[98.5532,15.5999],[98.566,15.6364],[98.5602,15.65],[99.8,15.65],[99.839,15.6462],[99.8943,15.6264],[99.9269,15.6046],[99.9546,15.5769],[99.9764,15.5443],[99.9914,15.5081],[100.0,15.45],[100.0,10.25],[99.9962,10.211],[99.9764,10.1557],[99.9414,10.1086],[99.9111,10.0837],[99.8765,10.0652],[99.8196,10.051],[98.5926,10.05]],[[98.6333,10.1073],[98.6275,10.1082],[98.6254,10.1046],[98.6278,10.1036],[98.6333,10.1073]],[[98.6278,10.0971],[98.6316,10.1015],[98.6253,10.1021],[98.6239,10.1057],[98.6341,10.1224],[98.6297,10.1186],[98.6241,10.1157],[98.6208,10.1043],[98.6278,10.0971]],[[98.631,10.1224],[98.625,10.1192],[98.6245,10.1174],[98.6299,10.1196],[98.631,10.1224]],[[98.6569,10.1754],[98.6631,10.1721],[98.664,10.1765],[98.6637,10.1771],[98.6569,10.1754]]]}}]}