{"type":"FeatureCollection","features":[{"type":"Feature","properties":{"Town":"Tanintharyi","Town_MMR4":"တနင်္သာရီ","Township":"Tanintharyi","Level":"Main Town"},"geometry":{"type":"Point","coordinates":[99.01278,12.08941]}},{"type":"Feature","properties":{"Town":"Pyigyimandaing","Town_MMR4":"ပြည်ကြီးမဏ္ဍိုင်","Township":"Bokpyin","Level":"Other Town"},"geometry":{"type":"Point","coordinates":[99.00144,11.46842]}},{"type":"Feature","properties":{"Town":"Bokpyin","Town_MMR4":"ဘုတ်ပြင်း","Township":"Bokpyin","Level":"Main Town"},"geometry":{"type":"Point","coordinates":[98.75909,11.26504]}},{"type":"Feature","properties":{"Town":"Karathuri","Town_MMR4":"ကရသူရိ","Township":"Bokpyin","Level":"Other Town"},"geometry":{"type":"Point","coordinates":[98.75998,10.93336]}},{"type":"Feature","properties":{"Town":"Palaw","Town_MMR4":"ပုလော","Township":"Palaw","Level":"Main Town"},"geometry":{"type":"Point","coordinates":[98.64579,12.97531]}},{"type":"Feature","properties":{"Town":"Khamaukgyi","Town_MMR4":"ခမောက်ကြီး","Township":"Kawthoung","Level":"Other Town"},"geometry":{"type":"Point","coordinates":[98.625,10.353]}},{"type":"Feature","properties":{"Town":"Palauk","Town_MMR4":"ပလောက်","Township":"Palaw","Level":"Other Town"},"geometry":{"type":"Point","coordinates":[98.62248,13.27223]}},{"type":"Feature","properties":{"Town":"Myeik","Town_MMR4":"မြိတ်","Township":"Myeik","Level":"District Capital"},"geometry":{"type":"Point","coordinates":[98.60978,12.44112]}},{"type":"Feature","properties":{"Town":"Myitta","Town_MMR4":"မေတ္တာ","Township":"Dawei","Level":"Other Town"},"geometry":{"type":"Point","coordinates":[98.52017,14.16355]}},{"type":"Feature","properties":{"Town":"Kyunsu","Town_MMR4":"ကျွန်းစု","Township":"Kyunsu","Level":"Main Town"},"geometry":{"type":"Point","coordinates":[98.45443,12.47386]}},{"type":"Feature","properties":{"Town":"Hpayarthonesu","Town_MMR4":"ဘုရားသုံးဆူ","Township":"Kyainseikgyi","Level":"Other Town"},"geometry":{"type":"Point","coordinates":[98.37808,15.30444]}},{"type":"Feature","properties":{"Town":"Thayetchaung","Town_MMR4":"သရက်ချောင်း","Township":"Thayetchaung","Level":"Main Town"},"geometry":{"type":"Point","coordinates":[98.26252,13.8687]}},{"type":"Feature","properties":{"Town":"Dawei","Town_MMR4":"ထားဝယ်","Township":"Dawei","Level":"State/Region Capital"},"geometry":{"type":"Point","coordinates":[98.19636,14.07753]}},{"type":"Feature","properties":{"Town":"Kaleinaung","Town_MMR4":"ကလိန်အောင်","Township":"Yebyu","Level":"Other Town"},"geometry":{"type":"Point","coordinates":[98.13849,14.6238]}},{"type":"Feature","properties":{"Town":"Launglon","Town_MMR4":"လောင်းလုံး","Township":"Launglon","Level":"Main Town"},"geometry":{"type":"Point","coordinates":[98.11963,13.97522]}},{"type":"Feature","properties":{"Town":"Yebyu","Town_MMR4":"ရေဖြူ","Township":"Yebyu","Level":"Main Town"},"geometry":{"type":"Point","coordinates":[98.20291,14.24591]}},{"type":"Feature","properties":{"Town":"Ye","Town_MMR4":"ရေး","Township":"Ye","Level":"Main Town"},"geometry":{"type":"Point","coordinates":[97.84935,15.24539]}},{"type":"Feature","properties":{"Town":"Khawzar","Town_MMR4":"ခေါဇာ","Township":"Ye","Level":"Other Town"},"geometry":{"type":"Point","coordinates":[97.82935,15.03752]}},{"type":"Feature","properties":{"Town":"Pa La","Town_MMR4":"ပလ","Township":"Palaw","Level":"Other Town"},"geometry":{"type":"Point","coordinates":[98.66188,12.84928]}},{"type":"Feature","properties":{"Town":"Maw Taung","Town_MMR4":"မောတောင်","Township":"Tanintharyi","Level":"Other Town"},"geometry":{"type":"Point","coordinates":[99.6275,11.7952]}}]}