{"type":"FeatureCollection","features":[{"type":"Feature","properties":{"WARD":"Sin Seik Ward","WARD_MMR":"ဆင်ဆိပ်ရပ်ကွက်","TOWN":"Dawei Town","TS":"Dawei","day":0},"geometry":{"type":"Polygon","coordinates":[[[98.1849,14.10653],[98.18558,14.10736],[98.18809,14.10906],[98.19125,14.11278],[98.19403,14.11547],[98.19383,14.118],[98.19588,14.11732],[98.19595,14.11761],[98.19793,14.11545],[98.19942,14.11482],[98.20063,14.11454],[98.20178,14.11467],[98.20391,14.11572],[98.2045,14.11619],[98.20576,14.11783],[98.20665,14.11761],[98.20786,14.11822],[98.20801,14.11786],[98.20795,14.11745],[98.2075,14.11724],[98.20714,14.11672],[98.20726,14.116],[98.20658,14.11575],[98.20642,14.11555],[98.20655,14.11506],[98.20641,14.11443],[98.20821,14.11294],[98.20853,14.11205],[98.20895,14.11159],[98.20915,14.11038],[98.21109,14.10795],[98.21232,14.10724],[98.21228,14.10679],[98.21275,14.10641],[98.21308,14.10528],[98.21352,14.10477],[98.21363,14.10449],[98.21348,14.10419],[98.21401,14.10317],[98.21398,14.10282],[98.21429,14.10187],[98.21656,14.09683],[98.21556,14.09588],[98.2139,14.09525],[98.2133,14.09615],[98.2125,14.09613],[98.21159,14.09684],[98.21117,14.09696],[98.21027,14.10057],[98.20918,14.1066],[98.20863,14.10654],[98.20817,14.10804],[98.19905,14.10457],[98.19418,14.10161],[98.19331,14.1014],[98.19314,14.10111],[98.19281,14.10105],[98.19273,14.10072],[98.1923,14.10066],[98.19204,14.10133],[98.19162,14.10115],[98.19127,14.1016],[98.19091,14.10121],[98.1849,14.10653]]]}},{"type":"Feature","properties":{"WARD":"San Chi Ward","WARD_MMR":"ဆန်းချီရပ်ကွက်","TOWN":"Dawei Town","TS":"Dawei","day":0},"geometry":{"type":"Polygon","coordinates":[[[98.17849,14.08259],[98.1758,14.08814],[98.1791,14.08905],[98.17999,14.08881],[98.18217,14.08741],[98.18393,14.08716],[98.18506,14.08726],[98.1853,14.08738],[98.1863,14.08874],[98.1861,14.08893],[98.18836,14.0914],[98.19117,14.0891],[98.19184,14.0888],[98.1939,14.08833],[98.19415,14.08777],[98.19473,14.08749],[98.19593,14.08737],[98.19629,14.08758],[98.19852,14.08523],[98.19865,14.08452],[98.19599,14.08345],[98.19458,14.084],[98.19376,14.0821],[98.19297,14.08168],[98.19284,14.0791],[98.18902,14.07939],[98.18883,14.08269],[98.18281,14.08138],[98.18252,14.08144],[98.18211,14.08202],[98.18175,14.08219],[98.18078,14.08313],[98.17931,14.08295],[98.17849,14.08259]]]}},{"type":"Feature","properties":{"WARD":"Htein Thit Ward","WARD_MMR":"ထိန်သစ်ရပ်ကွက်","TOWN":"Dawei Town","TS":"Dawei","day":0},"geometry":{"type":"Polygon","coordinates":[[[98.1758,14.08814],[98.1751,14.08832],[98.17462,14.09344],[98.17537,14.09446],[98.17561,14.09541],[98.17679,14.09663],[98.177,14.09666],[98.17898,14.09933],[98.1849,14.10653],[98.19091,14.10121],[98.19127,14.1016],[98.19162,14.10115],[98.19204,14.10133],[98.1923,14.10066],[98.19273,14.10072],[98.19281,14.10105],[98.19314,14.10111],[98.19331,14.1014],[98.19418,14.10161],[98.19905,14.10457],[98.20817,14.10804],[98.20863,14.10654],[98.20918,14.1066],[98.21027,14.10057],[98.21107,14.09718],[98.21117,14.09696],[98.21159,14.09684],[98.2125,14.09613],[98.20986,14.09558],[98.21035,14.09401],[98.20667,14.09297],[98.2081,14.09107],[98.2082,14.08905],[98.20577,14.08772],[98.20417,14.08787],[98.20319,14.08608],[98.20246,14.0855],[98.19865,14.08452],[98.19852,14.08523],[98.19629,14.08758],[98.19593,14.08737],[98.19473,14.08749],[98.19415,14.08777],[98.1939,14.08833],[98.19184,14.0888],[98.19117,14.0891],[98.18836,14.0914],[98.1861,14.08893],[98.1863,14.08874],[98.1853,14.08738],[98.18506,14.08726],[98.18393,14.08716],[98.18217,14.08741],[98.17999,14.08881],[98.1791,14.08905],[98.1758,14.08814]]]}},{"type":"Feature","properties":{"WARD":"Ta Laing Htein Ward","WARD_MMR":"တလိုင်းထိန်ရပ်ကွက်","TOWN":"Dawei Town","TS":"Dawei","day":0},"geometry":{"type":"Polygon","coordinates":[[[98.1832,14.07153],[98.18294,14.07207],[98.18188,14.07612],[98.17849,14.08259],[98.17931,14.08295],[98.18078,14.08313],[98.18175,14.08219],[98.18211,14.08202],[98.18252,14.08144],[98.18281,14.08138],[98.18883,14.08269],[98.18902,14.07939],[98.18868,14.07611],[98.1891,14.07275],[98.18516,14.0722],[98.1832,14.07153]]]}},{"type":"Feature","properties":{"WARD":"Oe Loke Ward","WARD_MMR":"အိုးလုပ်ရပ်ကွက်","TOWN":"Dawei Town","TS":"Dawei","day":0},"geometry":{"type":"Polygon","coordinates":[[[98.18868,14.07611],[98.18902,14.07939],[98.19284,14.0791],[98.19296,14.07687],[98.19314,14.07613],[98.18868,14.07611]]]}},{"type":"Feature","properties":{"WARD":"Thin Baw Seik Ward","WARD_MMR":"သင်္ဘောဆိပ်ရပ်ကွက်","TOWN":"Dawei Town","TS":"Dawei","day":0},"geometry":{"type":"Polygon","coordinates":[[[98.18422,14.06944],[98.1832,14.07153],[98.18516,14.0722],[98.1891,14.07275],[98.1896,14.07068],[98.18558,14.06989],[98.18422,14.06944]]]}},{"type":"Feature","properties":{"WARD":"Pein Hne Taw Ward","WARD_MMR":"ပိန္နဲတောရပ်ကွက်","TOWN":"Dawei Town","TS":"Dawei","day":0},"geometry":{"type":"Polygon","coordinates":[[[98.19364,14.07306],[98.19296,14.07687],[98.19284,14.0791],[98.19297,14.08168],[98.19376,14.0821],[98.19458,14.084],[98.19599,14.08345],[98.19865,14.08452],[98.19863,14.08205],[98.19888,14.08037],[98.19828,14.07872],[98.19861,14.07831],[98.19963,14.07856],[98.19987,14.07766],[98.20059,14.07715],[98.20077,14.07682],[98.20136,14.07686],[98.20193,14.07349],[98.19364,14.07306]]]}},{"type":"Feature","properties":{"WARD":"Ah Nauk Myo Twin Ward","WARD_MMR":"အနောက်မြို့တွင်းရပ်ကွက်","TOWN":"Dawei Town","TS":"Dawei","day":0},"geometry":{"type":"Polygon","coordinates":[[[98.1891,14.07275],[98.18868,14.07611],[98.19314,14.07613],[98.19364,14.07306],[98.1891,14.07275]]]}},{"type":"Feature","properties":{"WARD":"Byaw Taw Wa Ward","WARD_MMR":"ဗျောတောဝရပ်ကွက်","TOWN":"Dawei Town","TS":"Dawei","day":0},"geometry":{"type":"Polygon","coordinates":[[[98.20171,14.07698],[98.20077,14.07682],[98.20059,14.07715],[98.19987,14.07766],[98.19963,14.07856],[98.19861,14.07831],[98.19828,14.07872],[98.19888,14.08037],[98.19863,14.08205],[98.19865,14.08452],[98.20246,14.0855],[98.20319,14.08608],[98.20417,14.08787],[98.20577,14.08772],[98.2082,14.08905],[98.2081,14.09107],[98.20667,14.09297],[98.21035,14.09401],[98.20986,14.09558],[98.21187,14.09603],[98.2133,14.09615],[98.2139,14.09525],[98.21556,14.09588],[98.21656,14.09683],[98.21778,14.09438],[98.21876,14.09299],[98.21898,14.09186],[98.21859,14.08985],[98.219,14.08827],[98.21875,14.08508],[98.2187,14.08463],[98.21812,14.08345],[98.21803,14.08178],[98.21825,14.08024],[98.2189,14.0796],[98.21946,14.07941],[98.2197,14.0763],[98.21826,14.07716],[98.21763,14.07734],[98.21662,14.07723],[98.21609,14.07655],[98.21548,14.0747],[98.21595,14.07432],[98.21848,14.07411],[98.21984,14.07363],[98.22065,14.07261],[98.22082,14.07138],[98.22047,14.07098],[98.21876,14.07066],[98.21798,14.07024],[98.2111,14.072],[98.21145,14.07321],[98.21229,14.0749],[98.21209,14.07576],[98.2122,14.07644],[98.21257,14.07667],[98.21189,14.07736],[98.21177,14.07805],[98.211,14.07743],[98.20747,14.07554],[98.20672,14.07757],[98.20665,14.07847],[98.20468,14.07863],[98.20454,14.07885],[98.20455,14.07964],[98.20188,14.07944],[98.20172,14.07936],[98.20165,14.07879],[98.20171,14.07698]]]}},{"type":"Feature","properties":{"WARD":"Kyauk Maw Ward","WARD_MMR":"ကျောက်မော်ရပ်ကွက်","TOWN":"Dawei Town","TS":"Dawei","day":27},"geometry":{"type":"Polygon","coordinates":[[[98.21798,14.07024],[98.21623,14.06896],[98.21547,14.06799],[98.21547,14.06756],[98.21564,14.06714],[98.21607,14.06685],[98.21663,14.06686],[98.21811,14.06763],[98.21861,14.06769],[98.21938,14.0674],[98.22005,14.06648],[98.22083,14.06301],[98.22106,14.06111],[98.22058,14.05862],[98.21942,14.0569],[98.21903,14.05662],[98.21851,14.05655],[98.21694,14.05767],[98.21529,14.05798],[98.21467,14.05793],[98.21415,14.05768],[98.21405,14.05725],[98.21378,14.05725],[98.21333,14.05803],[98.21261,14.05863],[98.21189,14.05883],[98.21013,14.05846],[98.2054,14.05655],[98.20477,14.056],[98.2043,14.05527],[98.20401,14.05469],[98.20403,14.0538],[98.20186,14.05427],[98.1989,14.0542],[98.198,14.05438],[98.19721,14.05409],[98.1948,14.05181],[98.19029,14.05028],[98.19056,14.05845],[98.19031,14.06099],[98.19122,14.06118],[98.1915,14.06143],[98.19162,14.06182],[98.19243,14.06201],[98.19235,14.06283],[98.19205,14.06275],[98.19184,14.06422],[98.19575,14.0652],[98.19446,14.0688],[98.19595,14.0687],[98.19987,14.06925],[98.20159,14.06985],[98.20223,14.07026],[98.20263,14.07088],[98.20254,14.07135],[98.20222,14.07172],[98.20135,14.07695],[98.20171,14.07698],[98.20176,14.0794],[98.20455,14.07964],[98.20454,14.07885],[98.20468,14.07863],[98.20665,14.07847],[98.20672,14.07757],[98.20747,14.07554],[98.211,14.07743],[98.21177,14.07805],[98.21189,14.07736],[98.21257,14.07667],[98.2122,14.07644],[98.21209,14.07576],[98.21229,14.0749],[98.21145,14.07321],[98.2111,14.072],[98.21798,14.07024]]]}},{"type":"Feature","properties":{"WARD":"Za Yit Ward","WARD_MMR":"ဇရစ်ရပ်ကွက်","TOWN":"Dawei Town","TS":"Dawei","day":0},"geometry":{"type":"Polygon","coordinates":[[[98.18995,14.0692],[98.1891,14.07275],[98.1938,14.07307],[98.19439,14.06961],[98.18995,14.0692]]]}},{"type":"Feature","properties":{"WARD":"Kyet Sa Pyin Ward","WARD_MMR":"ကြက်စားပြင်ရပ်ကွက်","TOWN":"Dawei Town","TS":"Dawei","day":28},"geometry":{"type":"Polygon","coordinates":[[[98.19162,14.06182],[98.1915,14.06143],[98.19122,14.06118],[98.19031,14.06099],[98.19056,14.05845],[98.19029,14.05028],[98.18961,14.05018],[98.18882,14.04947],[98.18691,14.04891],[98.18579,14.06203],[98.18521,14.06636],[98.18671,14.06675],[98.18859,14.06774],[98.18946,14.06774],[98.19024,14.06797],[98.19162,14.06182]]]}},{"type":"Feature","properties":{"WARD":"Bon Maw Ward","WARD_MMR":"ဘုမ္မော်ရပ်ကွက်","TOWN":"Dawei Town","TS":"Dawei","day":28},"geometry":{"type":"Polygon","coordinates":[[[98.19446,14.0688],[98.19575,14.0652],[98.19184,14.06422],[98.19205,14.06275],[98.19235,14.06283],[98.19243,14.06201],[98.19162,14.06182],[98.19024,14.06797],[98.19121,14.06825],[98.19303,14.06826],[98.19446,14.0688]]]}},{"type":"Feature","properties":{"WARD":"Daung Ngu Ward","WARD_MMR":"ဒေါင်းငူရပ်ကွက်","TOWN":"Dawei Town","TS":"Dawei","day":0},"geometry":{"type":"Polygon","coordinates":[[[98.18521,14.06636],[98.18422,14.06944],[98.18558,14.06989],[98.1896,14.07068],[98.19024,14.06797],[98.18946,14.06774],[98.18859,14.06774],[98.18671,14.06675],[98.18521,14.06636]]]}},{"type":"Feature","properties":{"WARD":"Ka Nyon Ward","WARD_MMR":"ကညုံရပ်ကွက်","TOWN":"Dawei Town","TS":"Dawei","day":27},"geometry":{"type":"Polygon","coordinates":[[[98.1938,14.07307],[98.20193,14.07349],[98.20222,14.07172],[98.20254,14.07135],[98.20263,14.07088],[98.20223,14.07026],[98.20159,14.06985],[98.19987,14.06925],[98.19595,14.0687],[98.19446,14.0688],[98.19303,14.06826],[98.19121,14.06825],[98.19024,14.06797],[98.18995,14.0692],[98.19439,14.06961],[98.1938,14.07307]]]}},{"type":"Feature","properties":{"WARD":"(Ga Nge) Ward","WARD_MMR":"(ဂ) ရပ်ကွက်","TOWN":"Launglon Town","TS":"Launglon","day":0},"geometry":{"type":"Polygon","coordinates":[[[98.12319,13.9703],[98.12265,13.97038],[98.12231,13.96985],[98.12245,13.96923],[98.12272,13.969],[98.12278,13.96874],[98.12258,13.9684],[98.12292,13.96776],[98.12259,13.96733],[98.12224,13.9671],[98.12019,13.96793],[98.11993,13.9678],[98.11951,13.96713],[98.11855,13.96659],[98.11816,13.96576],[98.11782,13.9638],[98.11475,13.96379],[98.11438,13.96358],[98.11323,13.96632],[98.11272,13.96717],[98.11302,13.96851],[98.11305,13.96937],[98.11319,13.97001],[98.11664,13.97408],[98.11728,13.97444],[98.1189,13.97475],[98.1221,13.97465],[98.12224,13.9749],[98.12292,13.97435],[98.12275,13.97392],[98.12303,13.97334],[98.12306,13.97244],[98.12349,13.97188],[98.12322,13.97128],[98.12335,13.97058],[98.12319,13.9703]]]}},{"type":"Feature","properties":{"WARD":"(Ka Gyi) Ward","WARD_MMR":"(က) ရပ်ကွက်","TOWN":"Launglon Town","TS":"Launglon","day":0},"geometry":{"type":"Polygon","coordinates":[[[98.11378,13.97576],[98.11351,13.97607],[98.11261,13.97577],[98.11233,13.97582],[98.11127,13.97644],[98.10902,13.9772],[98.10832,13.978],[98.1079,13.97819],[98.10795,13.97902],[98.11017,13.97776],[98.11109,13.97755],[98.11126,13.97767],[98.11249,13.97727],[98.11296,13.97726],[98.11285,13.97858],[98.11396,13.97866],[98.11396,13.9783],[98.11488,13.97845],[98.11524,13.97963],[98.11608,13.97972],[98.11763,13.97939],[98.11821,13.97952],[98.11813,13.98155],[98.11797,13.98196],[98.11853,13.98282],[98.119,13.98295],[98.11956,13.98229],[98.12005,13.98222],[98.1223,13.98293],[98.12275,13.98295],[98.12333,13.9844],[98.12366,13.98481],[98.12425,13.98831],[98.12652,13.98788],[98.12625,13.98657],[98.12568,13.98576],[98.12528,13.9835],[98.12642,13.9833],[98.12629,13.98088],[98.12649,13.97985],[98.12726,13.97966],[98.12711,13.97891],[98.12763,13.97879],[98.1287,13.97916],[98.12883,13.97889],[98.12928,13.97882],[98.12921,13.97762],[98.12961,13.97693],[98.12882,13.97701],[98.12842,13.97686],[98.12821,13.9765],[98.12804,13.97539],[98.1278,13.97531],[98.12712,13.97588],[98.12662,13.97602],[98.1262,13.97657],[98.12535,13.97668],[98.12505,13.97637],[98.12399,13.97683],[98.12383,13.97701],[98.1242,13.97748],[98.12411,13.9782],[98.12294,13.97766],[98.11872,13.97666],[98.11826,13.97691],[98.11722,13.97673],[98.11659,13.97696],[98.11581,13.97639],[98.11478,13.97648],[98.11434,13.97596],[98.11378,13.97576]]]}},{"type":"Feature","properties":{"WARD":"(Ga Gyi) Ward","WARD_MMR":"(ဃ) ရပ်ကွက်","TOWN":"Launglon Town","TS":"Launglon","day":0},"geometry":{"type":"Polygon","coordinates":[[[98.11378,13.97576],[98.11434,13.97596],[98.11478,13.97648],[98.11581,13.97639],[98.11659,13.97696],[98.11722,13.97673],[98.11788,13.9769],[98.11826,13.97691],[98.11872,13.97666],[98.11917,13.9768],[98.11926,13.97663],[98.11899,13.97475],[98.11728,13.97444],[98.11664,13.97408],[98.11319,13.97001],[98.11272,13.96717],[98.11323,13.96632],[98.11438,13.96358],[98.11362,13.96329],[98.10725,13.9593],[98.1049,13.96064],[98.1051,13.962],[98.11122,13.96859],[98.11102,13.96959],[98.1096,13.96938],[98.10971,13.97282],[98.11172,13.97268],[98.11189,13.97356],[98.11246,13.97472],[98.11355,13.97506],[98.11378,13.97576]]]}},{"type":"Feature","properties":{"WARD":"(Kha Gway) Ward","WARD_MMR":"(ခ) ရပ်ကွက်","TOWN":"Launglon Town","TS":"Launglon","day":0},"geometry":{"type":"Polygon","coordinates":[[[98.11899,13.97475],[98.11926,13.97663],[98.11917,13.9768],[98.12294,13.97766],[98.12411,13.9782],[98.1242,13.97748],[98.12383,13.97701],[98.12399,13.97683],[98.12505,13.97637],[98.12535,13.97668],[98.1262,13.97657],[98.12662,13.97602],[98.12712,13.97588],[98.1278,13.97531],[98.12812,13.97551],[98.12809,13.97605],[98.12842,13.97686],[98.12882,13.97701],[98.12953,13.97691],[98.12956,13.97646],[98.12993,13.97586],[98.12973,13.97548],[98.12982,13.97424],[98.12966,13.97294],[98.13001,13.9723],[98.12997,13.97203],[98.12914,13.97187],[98.12895,13.97133],[98.12842,13.97121],[98.12805,13.97069],[98.12627,13.96977],[98.12594,13.96973],[98.12595,13.96992],[98.12367,13.97013],[98.12319,13.9703],[98.12335,13.97058],[98.12322,13.97128],[98.12349,13.97188],[98.12306,13.97244],[98.12303,13.97334],[98.12275,13.97392],[98.12292,13.97435],[98.12224,13.9749],[98.1221,13.97465],[98.11899,13.97475]]]}},{"type":"Feature","properties":{"WARD":"No (4) Ward","WARD_MMR":"အမှတ် (၄) ရပ်ကွက်","TOWN":"Palaw Town","TS":"Palaw","day":0},"geometry":{"type":"Polygon","coordinates":[[[98.64691,12.95279],[98.64424,12.95127],[98.64307,12.95147],[98.64421,12.95522],[98.64654,12.96468],[98.64675,12.9669],[98.64634,12.97239],[98.64656,12.97239],[98.64646,12.97336],[98.64673,12.97342],[98.64663,12.97474],[98.64752,12.97444],[98.64749,12.97535],[98.6479,12.97611],[98.64867,12.97549],[98.64969,12.97411],[98.65148,12.97287],[98.65089,12.97219],[98.65134,12.97164],[98.65132,12.97126],[98.65094,12.97115],[98.65093,12.971],[98.65155,12.96973],[98.65138,12.96774],[98.65072,12.96436],[98.64933,12.96147],[98.64691,12.95279]]]}},{"type":"Feature","properties":{"WARD":"No (2) Ward","WARD_MMR":"အမှတ် (၂) ရပ်ကွက်","TOWN":"Palaw Town","TS":"Palaw","day":0},"geometry":{"type":"Polygon","coordinates":[[[98.64704,12.9747],[98.64663,12.97474],[98.64673,12.97342],[98.64646,12.97336],[98.64656,12.97239],[98.64634,12.97239],[98.64675,12.9669],[98.64654,12.96468],[98.64572,12.96154],[98.64464,12.96064],[98.64352,12.96224],[98.64331,12.96217],[98.64274,12.96279],[98.64187,12.96304],[98.64119,12.96267],[98.64044,12.96279],[98.64022,12.96241],[98.63992,12.96247],[98.63986,12.96194],[98.63956,12.96171],[98.63925,12.96153],[98.63885,12.96167],[98.63875,12.96134],[98.63815,12.96106],[98.63737,12.96148],[98.63617,12.96087],[98.63552,12.96017],[98.6343,12.96018],[98.63414,12.95974],[98.63385,12.9599],[98.63377,12.96025],[98.63346,12.96061],[98.63317,12.96184],[98.63249,12.96307],[98.63256,12.96349],[98.63242,12.9638],[98.63082,12.96406],[98.63011,12.96386],[98.62947,12.96411],[98.62935,12.96423],[98.62954,12.96498],[98.62807,12.96603],[98.63015,12.9686],[98.63284,12.97551],[98.63411,12.97762],[98.63646,12.97702],[98.63723,12.97711],[98.63789,12.97757],[98.63827,12.97805],[98.63847,12.97875],[98.64284,12.97704],[98.64397,12.97781],[98.64475,12.97632],[98.64529,12.97696],[98.64605,12.97636],[98.64717,12.97595],[98.64704,12.9747]]]}},{"type":"Feature","properties":{"WARD":"No (1) Ward","WARD_MMR":"အမှတ် (၁) ရပ်ကွက်","TOWN":"Palaw Town","TS":"Palaw","day":0},"geometry":{"type":"Polygon","coordinates":[[[98.63847,12.97875],[98.63883,12.98016],[98.63928,12.98072],[98.63942,12.9817],[98.6387,12.98258],[98.63824,12.9828],[98.6378,12.98346],[98.63751,12.98449],[98.63755,12.985],[98.63744,12.98523],[98.63694,12.98544],[98.63658,12.98641],[98.63652,12.98751],[98.63668,12.98782],[98.6378,12.98826],[98.63827,12.98815],[98.63917,12.98824],[98.64017,12.98849],[98.64171,12.98859],[98.643,12.98894],[98.64347,12.98892],[98.64373,12.98814],[98.64614,12.98854],[98.64937,12.98855],[98.65111,12.98893],[98.6513,12.98846],[98.65075,12.98488],[98.65149,12.98207],[98.65083,12.98143],[98.64972,12.97914],[98.64907,12.97866],[98.64836,12.97854],[98.64771,12.97871],[98.64688,12.97942],[98.6461,12.98083],[98.64575,12.98041],[98.6458,12.97997],[98.64625,12.97954],[98.64583,12.97889],[98.64562,12.97726],[98.64475,12.97632],[98.64397,12.97781],[98.64284,12.97704],[98.63847,12.97875]]]}},{"type":"Feature","properties":{"WARD":"No (5) Ward","WARD_MMR":"အမှတ် (၅) ရပ်ကွက်","TOWN":"Palaw Town","TS":"Palaw","day":0},"geometry":{"type":"Polygon","coordinates":[[[98.65857,12.97132],[98.6569,12.96829],[98.65699,12.96741],[98.65809,12.96511],[98.65874,12.96335],[98.65891,12.9621],[98.65863,12.95955],[98.65729,12.95768],[98.6553,12.95648],[98.65436,12.95383],[98.65166,12.9536],[98.64989,12.95365],[98.64886,12.95316],[98.64691,12.95279],[98.64933,12.96147],[98.65072,12.96436],[98.65138,12.96774],[98.65155,12.96973],[98.65093,12.971],[98.65094,12.97115],[98.65132,12.97126],[98.65134,12.97164],[98.65089,12.97219],[98.65148,12.97287],[98.65379,12.97125],[98.65663,12.97153],[98.65762,12.97146],[98.65821,12.97121],[98.65857,12.97132]]]}},{"type":"Feature","properties":{"WARD":"No (3) Ward","WARD_MMR":"အမှတ် (၃) ရပ်ကွက်","TOWN":"Palaw Town","TS":"Palaw","day":0},"geometry":{"type":"Polygon","coordinates":[[[98.65857,12.97132],[98.65821,12.97121],[98.65762,12.97146],[98.65663,12.97153],[98.65379,12.97125],[98.64969,12.97411],[98.64867,12.97549],[98.6479,12.97611],[98.64749,12.97535],[98.64752,12.97444],[98.64704,12.9747],[98.64717,12.97595],[98.64605,12.97636],[98.64529,12.97696],[98.64562,12.97726],[98.64583,12.97889],[98.64625,12.97954],[98.6458,12.97997],[98.64575,12.98041],[98.6461,12.98083],[98.64688,12.97942],[98.64771,12.97871],[98.64836,12.97854],[98.64907,12.97866],[98.64972,12.97914],[98.65083,12.98143],[98.65149,12.98207],[98.65263,12.98137],[98.65349,12.97993],[98.65428,12.97923],[98.65529,12.97876],[98.65655,12.97846],[98.65836,12.97833],[98.65903,12.97839],[98.65996,12.97878],[98.66064,12.9794],[98.66118,12.98054],[98.6613,12.98051],[98.66198,12.97994],[98.66195,12.97963],[98.66111,12.97928],[98.66111,12.97906],[98.66186,12.97869],[98.66211,12.97824],[98.66195,12.97811],[98.66098,12.97823],[98.66093,12.97809],[98.66133,12.97777],[98.66076,12.9771],[98.66133,12.97683],[98.6613,12.97658],[98.66022,12.97565],[98.6597,12.97556],[98.65871,12.97334],[98.65853,12.97305],[98.65816,12.97287],[98.65781,12.97182],[98.65857,12.97132]]]}},{"type":"Feature","properties":{"WARD":"Chaung Nge Ward","WARD_MMR":"ချောင်းငယ်ရပ်ကွက်","TOWN":"Tanintharyi Town","TS":"Tanintharyi","day":0},"geometry":{"type":"Polygon","coordinates":[[[99.01473,12.08894],[99.01492,12.08734],[99.01524,12.08703],[99.01556,12.08627],[99.01615,12.08571],[99.01677,12.08545],[99.01619,12.08363],[99.01675,12.08253],[99.01738,12.08],[99.01628,12.07725],[99.01402,12.07789],[99.01408,12.07855],[99.01378,12.07975],[99.01392,12.08082],[99.01251,12.08186],[99.01203,12.08187],[99.01207,12.08239],[99.01143,12.0861],[99.01148,12.08712],[99.01196,12.08765],[99.01195,12.08888],[99.01289,12.08887],[99.01328,12.08904],[99.01473,12.08894]]]}},{"type":"Feature","properties":{"WARD":"Chaung Gyi Ward","WARD_MMR":"ချောင်းကြီးရပ်ကွက်","TOWN":"Tanintharyi Town","TS":"Tanintharyi","day":0},"geometry":{"type":"Polygon","coordinates":[[[99.01203,12.08187],[99.01117,12.08203],[99.01081,12.0827],[99.01015,12.08286],[99.00941,12.08401],[99.00894,12.08433],[99.00687,12.08461],[99.00657,12.08494],[99.00736,12.08621],[99.00766,12.08717],[99.00773,12.0894],[99.00752,12.09122],[99.00802,12.09202],[99.00866,12.09242],[99.00955,12.09272],[99.01139,12.09292],[99.01272,12.09258],[99.01441,12.09148],[99.01519,12.09063],[99.01523,12.08998],[99.01473,12.08894],[99.01328,12.08904],[99.01289,12.08887],[99.01195,12.08888],[99.01196,12.08765],[99.01148,12.08712],[99.01143,12.0861],[99.01207,12.08239],[99.01203,12.08187]]]}},{"type":"Feature","properties":{"WARD":"Maw Shi Kone Ward","WARD_MMR":"မော်ရှီကုန်းရပ်ကွက်","TOWN":"Thayetchaung Town","TS":"Thayetchaung","day":27},"geometry":{"type":"Polygon","coordinates":[[[98.25668,13.88395],[98.25634,13.88394],[98.25491,13.88457],[98.25523,13.8859],[98.25621,13.88558],[98.2564,13.8891],[98.25579,13.88919],[98.25514,13.88858],[98.25417,13.88828],[98.25349,13.88822],[98.25348,13.88869],[98.25404,13.88866],[98.25453,13.89045],[98.25571,13.89047],[98.25598,13.88974],[98.25674,13.88973],[98.25689,13.89049],[98.25736,13.89057],[98.25722,13.89113],[98.25747,13.89123],[98.25703,13.89245],[98.25779,13.89253],[98.25784,13.89298],[98.25832,13.89295],[98.25835,13.89187],[98.25808,13.89178],[98.25831,13.89085],[98.25867,13.89065],[98.25871,13.8903],[98.25899,13.89033],[98.25939,13.88936],[98.25936,13.8892],[98.25847,13.88912],[98.25819,13.88812],[98.25884,13.88806],[98.25877,13.88702],[98.25795,13.88708],[98.25776,13.88615],[98.25778,13.88603],[98.25867,13.88595],[98.2586,13.88506],[98.25822,13.88507],[98.25825,13.88436],[98.25999,13.88399],[98.2599,13.88316],[98.25724,13.88366],[98.25668,13.88395]]]}},{"type":"Feature","properties":{"WARD":"Kyauk Myaung Ward","WARD_MMR":"ကျောက်မြောင်းရပ်ကွက်","TOWN":"Thayetchaung Town","TS":"Thayetchaung","day":27},"geometry":{"type":"Polygon","coordinates":[[[98.26104,13.87074],[98.261,13.87138],[98.26058,13.87165],[98.26054,13.8722],[98.26013,13.87235],[98.2599,13.87276],[98.25921,13.87312],[98.25966,13.87397],[98.25952,13.87477],[98.25914,13.87528],[98.25943,13.87585],[98.25919,13.87618],[98.25841,13.8758],[98.25784,13.87599],[98.25725,13.87673],[98.25721,13.8772],[98.25834,13.87782],[98.25832,13.87841],[98.25788,13.87859],[98.25821,13.8796],[98.25803,13.8805],[98.25756,13.88067],[98.257,13.88063],[98.25619,13.881],[98.25587,13.88238],[98.25611,13.88284],[98.25665,13.8829],[98.25668,13.88395],[98.25724,13.88366],[98.25857,13.8834],[98.25956,13.87863],[98.25999,13.87834],[98.26071,13.8765],[98.26135,13.87578],[98.26233,13.87583],[98.26251,13.87556],[98.2626,13.87471],[98.26296,13.8745],[98.26409,13.87454],[98.2641,13.87417],[98.26357,13.87362],[98.26288,13.87342],[98.26371,13.87183],[98.26393,13.87068],[98.26104,13.87074]]]}},{"type":"Feature","properties":{"WARD":"Myo Ma (Tha Yet Chaung Ward)","WARD_MMR":"သရက်ချောင်းရပ်ကွက်","TOWN":"Thayetchaung Town","TS":"Thayetchaung","day":27},"geometry":{"type":"Polygon","coordinates":[[[98.26252,13.86027],[98.26125,13.86016],[98.26131,13.86239],[98.26102,13.86803],[98.26125,13.86957],[98.26104,13.87074],[98.26393,13.87068],[98.26456,13.86942],[98.26445,13.86859],[98.2661,13.86263],[98.26433,13.86161],[98.26363,13.86141],[98.26291,13.86089],[98.26252,13.86027]]]}},{"type":"Feature","properties":{"WARD":"Pan Taw Ward","WARD_MMR":"ပန်းတောရပ်ကွက်","TOWN":"Thayetchaung Town","TS":"Thayetchaung","day":27},"geometry":{"type":"Polygon","coordinates":[[[98.2661,13.86263],[98.26693,13.86236],[98.26748,13.86145],[98.2679,13.86012],[98.26739,13.85967],[98.26731,13.85901],[98.26734,13.85828],[98.26766,13.85757],[98.26783,13.8565],[98.26773,13.85559],[98.26696,13.85329],[98.26658,13.85138],[98.26739,13.84997],[98.2678,13.84887],[98.26764,13.84567],[98.26798,13.84488],[98.26842,13.84263],[98.26835,13.84214],[98.26809,13.84194],[98.26739,13.8419],[98.26614,13.84236],[98.26504,13.84357],[98.2637,13.84449],[98.26257,13.84469],[98.26168,13.84453],[98.26136,13.84428],[98.26067,13.84428],[98.25981,13.84487],[98.25986,13.84598],[98.26014,13.8464],[98.26193,13.84658],[98.26224,13.8472],[98.26243,13.84862],[98.26162,13.8487],[98.26156,13.84969],[98.24762,13.85073],[98.24762,13.85113],[98.25828,13.85029],[98.26284,13.85013],[98.26288,13.85044],[98.26429,13.85074],[98.26445,13.85113],[98.26428,13.85151],[98.26291,13.85197],[98.2625,13.85277],[98.26268,13.85291],[98.26319,13.8527],[98.26393,13.85323],[98.26422,13.85469],[98.26544,13.8559],[98.26556,13.85667],[98.26522,13.8568],[98.26362,13.85657],[98.26373,13.85706],[98.26257,13.85747],[98.26235,13.85784],[98.26214,13.85958],[98.26257,13.86005],[98.26252,13.86027],[98.26307,13.86102],[98.2661,13.86263]]]}},{"type":"Feature","properties":{"WARD":"Sin Hpyu Pyin Ward","WARD_MMR":"ဆင်ဖြူပြင်ရပ်ကွက်","TOWN":"Thayetchaung Town","TS":"Thayetchaung","day":27},"geometry":{"type":"Polygon","coordinates":[[[98.24762,13.85113],[98.24762,13.85073],[98.24669,13.8508],[98.24664,13.84973],[98.24549,13.84976],[98.24546,13.84851],[98.23962,13.84868],[98.23965,13.85126],[98.2394,13.85332],[98.23992,13.85613],[98.2419,13.85603],[98.24203,13.85341],[98.24068,13.85356],[98.24069,13.85163],[98.24762,13.85113]]]}},{"type":"Feature","properties":{"WARD":"Myo Ma (Ka Gyi) Ward","WARD_MMR":"မြို့မ (က) ရပ်ကွက်","TOWN":"Yebyu Town","TS":"Yebyu","day":0},"geometry":{"type":"Polygon","coordinates":[[[98.18665,14.24673],[98.18644,14.25973],[98.19421,14.2598],[98.19519,14.25941],[98.19618,14.25977],[98.19732,14.25983],[98.19858,14.26012],[98.19944,14.25912],[98.20005,14.25507],[98.20005,14.24882],[98.20021,14.24698],[98.19682,14.24673],[98.19565,14.24688],[98.18665,14.24673]]]}},{"type":"Feature","properties":{"WARD":"Myo Ma (Ga Gyi) Ward","WARD_MMR":"မြို့မ (ဃ) ရပ်ကွက်","TOWN":"Yebyu Town","TS":"Yebyu","day":0},"geometry":{"type":"Polygon","coordinates":[[[98.20005,14.25507],[98.19944,14.25912],[98.20029,14.25824],[98.20099,14.25798],[98.20088,14.25699],[98.20106,14.25687],[98.20132,14.25693],[98.2015,14.25737],[98.20118,14.25849],[98.20145,14.25871],[98.202,14.25891],[98.20291,14.25861],[98.20326,14.25871],[98.20369,14.25896],[98.20397,14.25944],[98.20433,14.25949],[98.20482,14.25926],[98.20504,14.25936],[98.20514,14.25982],[98.20632,14.26015],[98.20676,14.26003],[98.20741,14.26054],[98.2083,14.26068],[98.20866,14.2605],[98.20943,14.26081],[98.2103,14.2608],[98.21143,14.2605],[98.2117,14.26015],[98.21202,14.26022],[98.21357,14.25994],[98.21438,14.25927],[98.21436,14.25817],[98.21396,14.25696],[98.21073,14.24835],[98.21055,14.24553],[98.20827,14.24541],[98.20848,14.24683],[98.20825,14.24765],[98.20707,14.24972],[98.20603,14.25086],[98.20509,14.25065],[98.20475,14.24996],[98.20386,14.25016],[98.20204,14.25134],[98.20152,14.25511],[98.20005,14.25507]]]}},{"type":"Feature","properties":{"WARD":"Myo Ma (Ga Nge) Ward","WARD_MMR":"မြို့မ (ဂ) ရပ်ကွက်","TOWN":"Yebyu Town","TS":"Yebyu","day":0},"geometry":{"type":"Polygon","coordinates":[[[98.20915,14.24549],[98.20894,14.2431],[98.20815,14.24243],[98.2078,14.24074],[98.20748,14.24006],[98.20687,14.24009],[98.20649,14.23918],[98.20569,14.23896],[98.206,14.23842],[98.20582,14.23821],[98.20517,14.23804],[98.20498,14.23831],[98.20505,14.2387],[98.20486,14.23886],[98.2039,14.23858],[98.20356,14.23945],[98.2034,14.23954],[98.20313,14.23942],[98.20317,14.23873],[98.20288,14.23847],[98.20217,14.23824],[98.20029,14.24615],[98.20005,14.24882],[98.20005,14.25507],[98.20152,14.25511],[98.20204,14.25134],[98.20386,14.25016],[98.20475,14.24996],[98.20509,14.25065],[98.20603,14.25086],[98.20707,14.24972],[98.20825,14.24765],[98.20848,14.24683],[98.20827,14.24541],[98.20915,14.24549]]]}},{"type":"Feature","properties":{"WARD":"Myo Ma (Kha Gway) Ward","WARD_MMR":"မြို့မ (ခ) ရပ်ကွက်","TOWN":"Yebyu Town","TS":"Yebyu","day":0},"geometry":{"type":"Polygon","coordinates":[[[98.20021,14.24698],[98.20029,14.24615],[98.20269,14.23612],[98.20135,14.23622],[98.20105,14.23645],[98.2005,14.23641],[98.20012,14.23615],[98.19908,14.23612],[98.19879,14.23656],[98.19825,14.23661],[98.19785,14.23687],[98.19748,14.23689],[98.19707,14.2367],[98.1962,14.23749],[98.19618,14.23843],[98.19557,14.23909],[98.19534,14.23975],[98.19501,14.23987],[98.19459,14.23957],[98.19372,14.23952],[98.19307,14.23857],[98.19253,14.23843],[98.1927,14.23795],[98.19256,14.23772],[98.19299,14.23666],[98.19291,14.23576],[98.18682,14.23587],[98.18665,14.24673],[98.19565,14.24688],[98.19682,14.24673],[98.20021,14.24698]]]}},{"type":"Feature","properties":{"WARD":"No (3) Ward","WARD_MMR":"အမှတ် (၃) ရပ်ကွက်","TOWN":"Pala Town","TS":"Palaw","day":0},"geometry":{"type":"Polygon","coordinates":[[[98.66622,12.86355],[98.66485,12.8608],[98.66603,12.85884],[98.66702,12.85798],[98.66735,12.85689],[98.66765,12.85646],[98.66809,12.85644],[98.66873,12.85687],[98.6692,12.85689],[98.67065,12.85688],[98.672,12.85657],[98.67189,12.85419],[98.67107,12.8523],[98.6711,12.85098],[98.67538,12.84911],[98.6771,12.84692],[98.67812,12.84348],[98.67592,12.84207],[98.67193,12.84011],[98.66715,12.8405],[98.66363,12.84136],[98.66284,12.84042],[98.66078,12.84084],[98.66221,12.84184],[98.66247,12.84229],[98.66257,12.84266],[98.66201,12.8436],[98.66191,12.84421],[98.66248,12.84586],[98.66246,12.84645],[98.6619,12.8493],[98.66122,12.85029],[98.66108,12.85248],[98.66031,12.85487],[98.6602,12.85687],[98.65978,12.85776],[98.66032,12.85985],[98.661,12.86042],[98.66131,12.86093],[98.6615,12.86232],[98.66124,12.86405],[98.66081,12.86487],[98.65994,12.86597],[98.65999,12.8666],[98.66096,12.86737],[98.66202,12.86682],[98.66251,12.86634],[98.66325,12.86655],[98.66448,12.86655],[98.66483,12.86576],[98.66494,12.86505],[98.66622,12.86355]]]}},{"type":"Feature","properties":{"WARD":"No (1) Ward","WARD_MMR":"အမှတ် (၁) ရပ်ကွက်","TOWN":"Pala Town","TS":"Palaw","day":0},"geometry":{"type":"Polygon","coordinates":[[[98.66096,12.86737],[98.65999,12.8666],[98.65991,12.86611],[98.66081,12.86487],[98.6613,12.86383],[98.6615,12.86232],[98.66122,12.86074],[98.65899,12.86189],[98.65778,12.86227],[98.65698,12.86228],[98.65705,12.86627],[98.65736,12.8676],[98.6568,12.86994],[98.65486,12.87061],[98.65509,12.87127],[98.65557,12.87152],[98.65655,12.87113],[98.65861,12.87188],[98.65825,12.87254],[98.65841,12.87267],[98.65876,12.87247],[98.659,12.87274],[98.65943,12.87282],[98.66011,12.8726],[98.66093,12.87257],[98.66094,12.87388],[98.6643,12.87534],[98.66642,12.87324],[98.66096,12.86737]]]}},{"type":"Feature","properties":{"WARD":"No (2) Ward","WARD_MMR":"အမှတ် (၂) ရပ်ကွက်","TOWN":"Pala Town","TS":"Palaw","day":0},"geometry":{"type":"Polygon","coordinates":[[[98.66096,12.86737],[98.66603,12.87288],[98.66989,12.87224],[98.67096,12.87179],[98.67185,12.87203],[98.67218,12.8719],[98.67276,12.87124],[98.67302,12.87048],[98.67351,12.86699],[98.67296,12.86414],[98.67139,12.86429],[98.67127,12.86376],[98.67096,12.86373],[98.67068,12.86348],[98.67031,12.86248],[98.6695,12.86287],[98.66763,12.86265],[98.66724,12.86273],[98.66604,12.86367],[98.66506,12.86487],[98.66448,12.86655],[98.66325,12.86655],[98.66251,12.86634],[98.66202,12.86682],[98.66096,12.86737]]]}},{"type":"Feature","properties":{"WARD":"No (4) Ward","WARD_MMR":"အမှတ် (၄) ရပ်ကွက်","TOWN":"Pala Town","TS":"Palaw","day":0},"geometry":{"type":"Polygon","coordinates":[[[98.65698,12.86228],[98.65778,12.86227],[98.65899,12.86189],[98.66122,12.86074],[98.66032,12.85985],[98.65976,12.8579],[98.66027,12.85653],[98.66023,12.85536],[98.66039,12.85452],[98.66108,12.85248],[98.66122,12.85029],[98.6619,12.8493],[98.66232,12.84762],[98.66248,12.84586],[98.66191,12.84421],[98.66201,12.8436],[98.66257,12.84266],[98.66221,12.84184],[98.66078,12.84084],[98.66009,12.84102],[98.66056,12.84492],[98.65934,12.84525],[98.65901,12.84523],[98.65871,12.845],[98.65738,12.84507],[98.65826,12.84782],[98.65785,12.84826],[98.6577,12.8487],[98.65807,12.8515],[98.65802,12.85293],[98.65779,12.85302],[98.65782,12.85387],[98.65719,12.85385],[98.65719,12.85428],[98.65775,12.85428],[98.65759,12.85572],[98.6567,12.85584],[98.65684,12.85629],[98.65684,12.85743],[98.65639,12.85765],[98.65629,12.8582],[98.65569,12.85864],[98.65501,12.86039],[98.65513,12.86055],[98.65579,12.86065],[98.65586,12.86086],[98.65615,12.86084],[98.65621,12.86114],[98.65682,12.86118],[98.65698,12.86228]]]}}]}